{
"type": "FeatureCollection",
"name": "colonias_filtradas",
"crs": { "type": "name", "properties": { "name": "urn:ogc:def:crs:OGC:1.3:CRS84" } },
"features": [
{ "type": "Feature", "properties": { "NUMCOL": 83.0, "MUNS": "Zapopan", "NOMBRE": "MESA COLORADA ORIENTE", "CP": 45205, "supm2": 542176.97, "POBTOT": 5958.0, "POBFEM": 2972.0, "POBMAS": 2972.0, "P_0A2": 322.0, "P_0A2_F": 175.0, "P_0A2_M": 136.0, "P_3YMAS": 5611.0, "P_3YMAS__F": 2789.0, "P_3YMAS__M": 2825.0, "P_5YMAS": 5383.0, "P_5YMAS__F": 2688.0, "P_5YMAS__M": 2698.0, "P_12YMAS": 4612.0, "P_12YMAS_F": 2315.0, "P_12YMAS_M": 2300.0, "P_15YMAS": 4244.0, "P_15YMAS_F": 2150.0, "P_15YMAS_M": 2097.0, "P_18YMAS": 3874.0, "P_18YMAS_F": 1971.0, "P_18YMAS_M": 1906.0, "P_3A5": 345.0, "P_3A5_F": 153.0, "P_3A5_M": 176.0, "P_6A11": 658.0, "P_6A11_F": 308.0, "P_6A11_M": 340.0, "P_8A14_": 820.0, "P_8A14_F": 367.0, "P_8A14_M": 446.0, "P_12A14": 362.0, "P_12A14_F": "159", "P_12A14_M": 195.0, "P_15A17": 364.0, "P_15A17_F": 168.0, "P_15A17_M": 183.0, "P_18A24": 768.0, "P_18A24_F": 380.0, "P_18A24_M": 387.0, "P_15A49_F": 1580.0, "P_60YMAS": 514.0, "P_60YMAS_F": 263.0, "P_60YMAS_M": 245.0, "REL_H_M": 100.0, "POB0_14": 1697.0, "POB15_64": 3926.0, "POB65_MAS": 314.0, "PROM_HNV": 2.32, "PNACENT": 5329.0, "PNACENT_F": 2662.0, "PNACENT_M": 2670.0, "PNACOE": 560.0, "PNACOE_F": 278.0, "PNACOE_M": 271.0, "PRES2015": 5283.0, "PRES2015_F": 2641.0, "PRES2015_M": 2645.0, "PRESOE15": 61.0, "PRESOE15_F": 34.0, "PRESOE15_M": 33.0, "P3YM_HLI": 18.0, "P3YM_HLI_F": 11.0, "P3YM_HLI_M": 11.0, "P3HLINHE": 3.0, "P3HLINHE_F": 3.0, "P3HLINHE_M": 3.0, "P3HLI_HE": 15.0, "P3HLI_HE_F": 8.0, "P3HLI_HE_M": 9.0, "P5_HLI": 18.0, "P5_HLI_NHE": 3.0, "P5_HLI_HE": 15.0, "PHOG_IND": 40.0, "POB_AFRO": 38.0, "POB_AFRO_F": 19.0, "POB_AFRO_M": 18.0, "PCON_DISC": 275.0, "PCDISC_MOT": 121.0, "PCDISC_VIS": 108.0, "PCDISC_LEN": 41.0, "PCDISC_AUD": 41.0, "PCDISC_M_1": 52.0, "PCDISC_MEN": 52.0, "PCON_LIM": 556.0, "PCLIM_CSB": 190.0, "PCLIM_VIS": 312.0, "PCLIM_HACO": 51.0, "PCLIM_OAUD": 103.0, "PCLIM_MOT2": 26.0, "PCLIM_RE_C": 132.0, "PCLIM_PMEN": 70.0, "PSIND_LIM": 5058.0, "P3A5_NOA": 169.0, "P3A5_NOA_F": 76.0, "P3A5_NOA_M": 91.0, "P6A11_NOA": 63.0, "P6A11_NOA_": 31.0, "P6A11_NO_1": 33.0, "P12A14NOA": 56.0, "P12A14NOA_": 26.0, "P12A14NO_1": 34.0, "P15A17A": 208.0, "P15A17A_F": 92.0, "P15A17A_M": 101.0, "P18A24A": 146.0, "P18A24A_F": 70.0, "P18A24A_M": 66.0, "P8A14AN": 30.0, "P8A14AN_F": 18.0, "P8A14AN_M": 18.0, "P15YM_AN": 149.0, "P15YM_AN_F": 91.0, "P15YM_AN_M": 55.0, "P15YM_SE": 197.0, "P15YM_SE_F": 106.0, "P15YM_SE_M": 81.0, "P15PRI_IN": 434.0, "P15PRI_INF": 180.0, "P15PRI_INM": 232.0, "P15PRI_CO": 886.0, "P15PRI_COF": 423.0, "P15PRI_COM": 457.0, "P15SEC_IN": 228.0, "P15SEC_INF": 108.0, "P15SEC_INM": 113.0, "P15SEC_CO": 1291.0, "P15SEC_COF": 728.0, "P15SEC_COM": 560.0, "P18YM_PB": 1063.0, "P18YM_PB_F": 518.0, "P18YM_PB_M": 540.0, "GRAPROES": 8.14, "GRAPROES_F": 8.12, "GRAPROES_M": 8.19, "PEA": 2977.0, "PEA_F": 1204.0, "PEA_M": 1775.0, "PE_INAC": 1606.0, "PE_INAC_F": 1100.0, "PE_INAC_M": 505.0, "POCUPADA": 2936.0, "POCUPADA_F": 1193.0, "POCUPADA_M": 1745.0, "PDESOCUP": 41.0, "PDESOCUP_F": 12.0, "PDESOCUP_M": 30.0, "PSINDER": 2530.0, "PDER_SS": 3387.0, "PDER_IMSS": 2608.0, "PDER_ISTE": 45.0, "PDER_ISTEE": 5.0, "PAFIL_PDOM": 7.0, "PDER_SEGP": 696.0, "PDER_IMSSB": 13.0, "PAFIL_IPDO": 23.0, "PAFIL_OTRA": 20.0, "P12YM_SOLT": 1643.0, "P12YM_CASA": 2375.0, "P12YM_SEPA": 577.0, "PCATOLICA": 5311.0, "PRO_CRIEVA": 330.0, "POTRAS_REL": 3.0, "PSIN_RELIG": 259.0, "TOTHOG": 1400.0, "HOGJEF_F": 465.0, "HOGJEF_M": 930.0, "POBHOG": 5918.0, "PHOGJEF_F": 1911.0, "PHOGJEF_M": 4010.0, "VIVTOT": 1533.0, "TVIVHAB": 1405.0, "TVIVPAR": 1303.0, "VIVPAR_HAB": 1179.0, "TVIVPARHAB": 1400.0, "VIVPAR_DES": 112.0, "VIVPAR_UT": 12.0, "OCUPVIVPAR": 5918.0, "PROM_OCUP": 4.36, "PRO_OCUP_C": 1.27, "VPH_PISODT": 1358.0, "VPH_PISOTI": 34.0, "VPH_1DOR": 441.0, "VPH_2YMASD": 948.0, "VPH_1CUART": 79.0, "VPH_2CUART": 257.0, "VPH_3YMASC": 1039.0, "VPH_C_ELEC": 1389.0, "VPH_S_ELEC": 7.0, "VPH_AGUADV": 1391.0, "VPH_AEASP": 1378.0, "VPH_AGUAFV": 5.0, "VPH_TINACO": 1014.0, "VPH_CISTER": 488.0, "VPH_EXCSA": 1392.0, "VPH_LETR": 4.0, "VPH_DRENAJ": 1385.0, "VPH_NODREN": 6.0, "VPH_C_SERV": 1379.0, "VPH_NDEAED": 3.0, "VPH_DSADMA": 1384.0, "VPH_NDACMM": 843.0, "VPH_SNBIEN": 8.0, "VPH_REFRI": 1298.0, "VPH_LAVAD": 1054.0, "VPH_HMICRO": 586.0, "VPH_AUTOM": 467.0, "VPH_MOTO": 165.0, "VPH_BICI": 127.0, "VPH_RADIO": 1073.0, "VPH_TV": 1323.0, "VPH_PC": 394.0, "VPH_TELEF": 552.0, "VPH_CEL": 1260.0, "VPH_INTER": 692.0, "VPH_STVP": 403.0, "VPH_SPMVI": 156.0, "VPH_CVJ": 170.0, "VPH_SINRTV": 29.0, "VPH_SINLTC": 79.0, "VPH_SINCIN": 616.0, "VPH_SINTIC": 18.0 }, "geometry": { "type": "Polygon", "coordinates": [ [ [ -103.33393580170916, 20.770959817551553 ], [ -103.333344355256912, 20.770892194137151 ], [ -103.333640934342569, 20.769426368027865 ], [ -103.334160752464399, 20.766857111560938 ], [ -103.334096570069036, 20.766646541784713 ], [ -103.334032387831101, 20.766435971991616 ], [ -103.333944984130653, 20.766149216110733 ], [ -103.334058757078068, 20.765997627700649 ], [ -103.334321726537098, 20.766009411067689 ], [ -103.334351550799113, 20.765811127311682 ], [ -103.334427009280759, 20.765677818641354 ], [ -103.334461531983351, 20.765528646806747 ], [ -103.334571371480635, 20.765259053324982 ], [ -103.334739924414009, 20.764850661125841 ], [ -103.334847069198148, 20.764594817551917 ], [ -103.335147798321699, 20.764068027805191 ], [ -103.335803758083927, 20.763178013481966 ], [ -103.335915220747268, 20.762526944584604 ], [ -103.335952965159734, 20.762306472646987 ], [ -103.335996935070852, 20.762049635436664 ], [ -103.336094139938069, 20.761524766972737 ], [ -103.336176375932197, 20.76104147212957 ], [ -103.336279637904113, 20.760566643901633 ], [ -103.336386004974401, 20.760065905768787 ], [ -103.336548982416758, 20.75925132717078 ], [ -103.336689980651229, 20.759270880722159 ], [ -103.337053090579275, 20.759321236040758 ], [ -103.337696052901265, 20.759410398753349 ], [ -103.338134080998771, 20.759414072105528 ], [ -103.338281596646127, 20.759437045658355 ], [ -103.338167659770789, 20.759752658708223 ], [ -103.338661720579324, 20.759956680882954 ], [ -103.339972313263715, 20.760522179912062 ], [ -103.339664616790614, 20.760985755264439 ], [ -103.339508071596043, 20.761423207932008 ], [ -103.339416659460696, 20.76179148754105 ], [ -103.339422533833115, 20.762232753707643 ], [ -103.339431969532967, 20.762312534648636 ], [ -103.339495290688021, 20.762767096682353 ], [ -103.339573716375526, 20.763142158651362 ], [ -103.339698392956166, 20.763904930291403 ], [ -103.339733426470644, 20.765172879856419 ], [ -103.339730791477834, 20.765203801248127 ], [ -103.339656921027228, 20.76607065651049 ], [ -103.339637789335683, 20.766256688078496 ], [ -103.339614358691151, 20.766541931407644 ], [ -103.339645964778526, 20.767191095919326 ], [ -103.33969955219888, 20.767684024249615 ], [ -103.339429639885836, 20.767794563577041 ], [ -103.338894221739906, 20.767970205288918 ], [ -103.338771363172057, 20.768034668464932 ], [ -103.338522001552491, 20.768165505967708 ], [ -103.338089760545842, 20.768497990106294 ], [ -103.338007603152079, 20.768562241944228 ], [ -103.337714401972917, 20.768791540456505 ], [ -103.337110096612804, 20.76953667552689 ], [ -103.336839159390863, 20.769980010282683 ], [ -103.336094145073716, 20.770761765967556 ], [ -103.33393580170916, 20.770959817551553 ] ] ] } },
{ "type": "Feature", "properties": { "NUMCOL": 87.0, "MUNS": "Zapopan", "NOMBRE": "LA MESA COLORADA PONIENTE", "CP": 45205, "supm2": 3087129.35, "POBTOT": 15349.0, "POBFEM": 7593.0, "POBMAS": 7704.0, "P_0A2": 726.0, "P_0A2_F": 319.0, "P_0A2_M": 385.0, "P_3YMAS": 10336.0, "P_3YMAS__F": 5147.0, "P_3YMAS__M": 5200.0, "P_5YMAS": 9840.0, "P_5YMAS__F": 4911.0, "P_5YMAS__M": 4941.0, "P_12YMAS": 8232.0, "P_12YMAS_F": 4133.0, "P_12YMAS_M": 4111.0, "P_15YMAS": 7607.0, "P_15YMAS_F": 3846.0, "P_15YMAS_M": 3771.0, "P_18YMAS": 6951.0, "P_18YMAS_F": 3516.0, "P_18YMAS_M": 3445.0, "P_3A5": 764.0, "P_3A5_F": 362.0, "P_3A5_M": 388.0, "P_6A11": 1331.0, "P_6A11_F": 637.0, "P_6A11_M": 677.0, "P_8A14_": 1468.0, "P_8A14_F": 684.0, "P_8A14_M": 771.0, "P_12A14": 623.0, "P_12A14_F": "267", "P_12A14_M": 332.0, "P_15A17": 648.0, "P_15A17_F": 306.0, "P_15A17_M": 320.0, "P_18A24": 1538.0, "P_18A24_F": 757.0, "P_18A24_M": 769.0, "P_15A49_F": 2980.0, "P_60YMAS": 770.0, "P_60YMAS_F": 384.0, "P_60YMAS_M": 369.0, "REL_H_M": 101.46, "POB0_14": 3467.0, "POB15_64": 7108.0, "POB65_MAS": 491.0, "PROM_HNV": 2.36, "PNACENT": 9746.0, "PNACENT_F": 4811.0, "PNACENT_M": 4947.0, "PNACOE": 1269.0, "PNACOE_F": 649.0, "PNACOE_M": 614.0, "PRES2015": 9594.0, "PRES2015_F": 4792.0, "PRES2015_M": 4814.0, "PRESOE15": 167.0, "PRESOE15_F": 94.0, "PRESOE15_M": 88.0, "P3YM_HLI": 54.0, "P3YM_HLI_F": 38.0, "P3YM_HLI_M": 33.0, "P3HLINHE": 16.0, "P3HLINHE_F": 16.0, "P3HLINHE_M": 16.0, "P3HLI_HE": 46.0, "P3HLI_HE_F": 33.0, "P3HLI_HE_M": 31.0, "P5_HLI": 54.0, "P5_HLI_NHE": 16.0, "P5_HLI_HE": 46.0, "PHOG_IND": 120.0, "POB_AFRO": 90.0, "POB_AFRO_F": 52.0, "POB_AFRO_M": 56.0, "PCON_DISC": 444.0, "PCDISC_MOT": 217.0, "PCDISC_VIS": 182.0, "PCDISC_LEN": 85.0, "PCDISC_AUD": 91.0, "PCDISC_M_1": 108.0, "PCDISC_MEN": 108.0, "PCON_LIM": 1000.0, "PCLIM_CSB": 312.0, "PCLIM_VIS": 603.0, "PCLIM_HACO": 80.0, "PCLIM_OAUD": 226.0, "PCLIM_MOT2": 63.0, "PCLIM_RE_C": 235.0, "PCLIM_PMEN": 115.0, "PSIND_LIM": 9559.0, "P3A5_NOA": 363.0, "P3A5_NOA_F": 167.0, "P3A5_NOA_M": 185.0, "P6A11_NOA": 109.0, "P6A11_NOA_": 58.0, "P6A11_NO_1": 63.0, "P12A14NOA": 117.0, "P12A14NOA_": 51.0, "P12A14NO_1": 77.0, "P15A17A": 384.0, "P15A17A_F": 203.0, "P15A17A_M": 174.0, "P18A24A": 287.0, "P18A24A_F": 149.0, "P18A24A_M": 139.0, "P8A14AN": 53.0, "P8A14AN_F": 29.0, "P8A14AN_M": 42.0, "P15YM_AN": 316.0, "P15YM_AN_F": 153.0, "P15YM_AN_M": 164.0, "P15YM_SE": 396.0, "P15YM_SE_F": 186.0, "P15YM_SE_M": 208.0, "P15PRI_IN": 786.0, "P15PRI_INF": 352.0, "P15PRI_INM": 410.0, "P15PRI_CO": 1364.0, "P15PRI_COF": 660.0, "P15PRI_COM": 693.0, "P15SEC_IN": 409.0, "P15SEC_INF": 174.0, "P15SEC_INM": 221.0, "P15SEC_CO": 2473.0, "P15SEC_COF": 1293.0, "P15SEC_COM": 1161.0, "P18YM_PB": 1878.0, "P18YM_PB_F": 973.0, "P18YM_PB_M": 889.0, "GRAPROES": 8.19, "GRAPROES_F": 8.29, "GRAPROES_M": 8.02, "PEA": 5221.0, "PEA_F": 1990.0, "PEA_M": 3237.0, "PE_INAC": 2972.0, "PE_INAC_F": 2129.0, "PE_INAC_M": 834.0, "POCUPADA": 5076.0, "POCUPADA_F": 1942.0, "POCUPADA_M": 3139.0, "PDESOCUP": 143.0, "PDESOCUP_F": 59.0, "PDESOCUP_M": 96.0, "PSINDER": 4716.0, "PDER_SS": 6343.0, "PDER_IMSS": 4516.0, "PDER_ISTE": 88.0, "PDER_ISTEE": 18.0, "PAFIL_PDOM": 18.0, "PDER_SEGP": 1633.0, "PDER_IMSSB": 59.0, "PAFIL_IPDO": 54.0, "PAFIL_OTRA": 89.0, "P12YM_SOLT": 2928.0, "P12YM_CASA": 4444.0, "P12YM_SEPA": 827.0, "PCATOLICA": 9818.0, "PRO_CRIEVA": 665.0, "POTRAS_REL": 24.0, "PSIN_RELIG": 558.0, "TOTHOG": 3021.0, "HOGJEF_F": 1013.0, "HOGJEF_M": 1993.0, "POBHOG": 12442.0, "PHOGJEF_F": 4169.0, "PHOGJEF_M": 8285.0, "VIVTOT": 4310.0, "TVIVHAB": 3808.0, "TVIVPAR": 2731.0, "VIVPAR_HAB": 2375.0, "TVIVPARHAB": 3021.0, "VIVPAR_DES": 328.0, "VIVPAR_UT": 31.0, "OCUPVIVPAR": 12442.0, "PROM_OCUP": 4.11, "PRO_OCUP_C": 1.21, "VPH_PISODT": 2481.0, "VPH_PISOTI": 128.0, "VPH_1DOR": 758.0, "VPH_2YMASD": 1840.0, "VPH_1CUART": 162.0, "VPH_2CUART": 480.0, "VPH_3YMASC": 1937.0, "VPH_C_ELEC": 2606.0, "VPH_S_ELEC": 19.0, "VPH_AGUADV": 2589.0, "VPH_AEASP": 2466.0, "VPH_AGUAFV": 35.0, "VPH_TINACO": 1832.0, "VPH_CISTER": 1602.0, "VPH_EXCSA": 2588.0, "VPH_LETR": 23.0, "VPH_DRENAJ": 2518.0, "VPH_NODREN": 65.0, "VPH_C_SERV": 2501.0, "VPH_NDEAED": 17.0, "VPH_DSADMA": 2511.0, "VPH_NDACMM": 1409.0, "VPH_SNBIEN": 25.0, "VPH_REFRI": 2436.0, "VPH_LAVAD": 1961.0, "VPH_HMICRO": 1032.0, "VPH_AUTOM": 977.0, "VPH_MOTO": 406.0, "VPH_BICI": 342.0, "VPH_RADIO": 2008.0, "VPH_TV": 2472.0, "VPH_PC": 607.0, "VPH_TELEF": 842.0, "VPH_CEL": 2363.0, "VPH_INTER": 1303.0, "VPH_STVP": 653.0, "VPH_SPMVI": 303.0, "VPH_CVJ": 254.0, "VPH_SINRTV": 58.0, "VPH_SINLTC": 169.0, "VPH_SINCIN": 1187.0, "VPH_SINTIC": 36.0 }, "geometry": { "type": "Polygon", "coordinates": [ [ [ -103.355179782259981, 20.77820974900925 ], [ -103.354952006450716, 20.778743202258948 ], [ -103.35486371785413, 20.778839915890973 ], [ -103.354737214949665, 20.779163907294159 ], [ -103.354691297667159, 20.779473976879586 ], [ -103.35447712943585, 20.780263817373282 ], [ -103.353932872135715, 20.780161300232283 ], [ -103.353866052843983, 20.780261756541965 ], [ -103.353725270517884, 20.780769303038582 ], [ -103.354108423392361, 20.780709683811732 ], [ -103.354212704453914, 20.780860231854753 ], [ -103.354092587286573, 20.780841935798538 ], [ -103.353972470195885, 20.780823640051938 ], [ -103.353629194406409, 20.780875209350445 ], [ -103.353373262766553, 20.78094133101343 ], [ -103.35296905452681, 20.781232331507738 ], [ -103.352758207728769, 20.78117544744234 ], [ -103.352418353591077, 20.780911596219763 ], [ -103.351989221633417, 20.780811470401474 ], [ -103.351631809985335, 20.780821754209537 ], [ -103.351418879760914, 20.780956862048935 ], [ -103.351206768236992, 20.781016543596994 ], [ -103.350352406640383, 20.781138104613742 ], [ -103.349909885578924, 20.781579810707655 ], [ -103.349979476652052, 20.781889220486846 ], [ -103.349758214760399, 20.782110073091491 ], [ -103.349153797331113, 20.782344393302324 ], [ -103.348588276557592, 20.782356106086684 ], [ -103.348278441190558, 20.782335972876865 ], [ -103.347195574953417, 20.782960183428703 ], [ -103.346403740307565, 20.783655799426683 ], [ -103.345609850551455, 20.784606648033058 ], [ -103.345554369961192, 20.784588629093356 ], [ -103.345498892925718, 20.784570642173115 ], [ -103.345067053229613, 20.784339543713511 ], [ -103.344732388450112, 20.784048865250362 ], [ -103.344368523359336, 20.783485582120079 ], [ -103.34391582308524, 20.782792346461552 ], [ -103.343791038937241, 20.782487320005828 ], [ -103.343772932147502, 20.782104747954065 ], [ -103.343783815339378, 20.781617689180617 ], [ -103.343827315034943, 20.781204281535835 ], [ -103.343765338352597, 20.780758426351881 ], [ -103.343654408329982, 20.780496811642184 ], [ -103.343536280067568, 20.780310959081206 ], [ -103.343349035069579, 20.780115334431706 ], [ -103.343062856294438, 20.779798273417889 ], [ -103.342790186078972, 20.779556084286472 ], [ -103.342594090319352, 20.779369444677744 ], [ -103.342454449076257, 20.779134336541997 ], [ -103.34236065698191, 20.778828953692233 ], [ -103.342267640711597, 20.778452533592148 ], [ -103.342111100324445, 20.777963858382993 ], [ -103.341987093488186, 20.777681233342779 ], [ -103.341772008947601, 20.777392226134094 ], [ -103.341450178525946, 20.777216580484737 ], [ -103.341017952038868, 20.777043183946873 ], [ -103.340310714191887, 20.776809749417691 ], [ -103.339967860642588, 20.776583151747204 ], [ -103.339658821641507, 20.7762249403726 ], [ -103.339496597413557, 20.775599306385708 ], [ -103.339326844851897, 20.775003821684937 ], [ -103.339051069023014, 20.774564737241729 ], [ -103.338869299249041, 20.774410740406676 ], [ -103.338579738387125, 20.774245551272429 ], [ -103.33844614179587, 20.774138636858016 ], [ -103.338322992963271, 20.774040082305923 ], [ -103.337937098824327, 20.773802915312086 ], [ -103.337455760355581, 20.773412585025852 ], [ -103.337158856784512, 20.772932696479451 ], [ -103.337066522705484, 20.772495385505689 ], [ -103.337095807135626, 20.7723870268273 ], [ -103.337125091518473, 20.772278668139798 ], [ -103.337167744015233, 20.772120844147128 ], [ -103.337365297801767, 20.771818279980351 ], [ -103.33762692472763, 20.771577231163306 ], [ -103.337898119478197, 20.77144791606646 ], [ -103.338103907456144, 20.771378862986111 ], [ -103.338406694585473, 20.771320897409069 ], [ -103.33891404832336, 20.771305506997326 ], [ -103.339345925375142, 20.771235629001282 ], [ -103.339410588712553, 20.771209794969174 ], [ -103.339698840162896, 20.771094633513822 ], [ -103.339966498737496, 20.77091948831708 ], [ -103.340157606676328, 20.770724163317094 ], [ -103.340284489480112, 20.770461567656803 ], [ -103.340306442339951, 20.770357539149121 ], [ -103.340328395164505, 20.770253510635388 ], [ -103.34035743017138, 20.770001278416995 ], [ -103.340251488732335, 20.769428177565043 ], [ -103.340123681641742, 20.769086150049038 ], [ -103.339985452404747, 20.768707689783945 ], [ -103.339934373988186, 20.768567840421518 ], [ -103.339847929409103, 20.768321221391769 ], [ -103.339780621509107, 20.768129197156814 ], [ -103.339699552154599, 20.76768402385396 ], [ -103.339645964778526, 20.767191095919326 ], [ -103.339614358646855, 20.766541931011659 ], [ -103.33963778929143, 20.766256687682422 ], [ -103.340495800334295, 20.766719751364441 ], [ -103.341537142624361, 20.767402114016896 ], [ -103.342092103988008, 20.76780059689975 ], [ -103.342421996190552, 20.768046311243392 ], [ -103.343182229789406, 20.767476816483079 ], [ -103.344471875407649, 20.766416553985156 ], [ -103.344754286754139, 20.766879742404594 ], [ -103.345129143526677, 20.7671030265901 ], [ -103.345331500627523, 20.767493626972694 ], [ -103.345497883989225, 20.767888105105641 ], [ -103.345746958292764, 20.768243235252587 ], [ -103.345912390575251, 20.768125684298013 ], [ -103.346182083161452, 20.768402335293452 ], [ -103.346205605103862, 20.768426464639802 ], [ -103.346432193559579, 20.768505045454027 ], [ -103.346754585547131, 20.768737346576415 ], [ -103.347285658739239, 20.768697371235547 ], [ -103.347465274348977, 20.768744185992496 ], [ -103.347710300205804, 20.768994840830608 ], [ -103.347799353361509, 20.769022437249419 ], [ -103.347901863862802, 20.768599801389236 ], [ -103.347990699314394, 20.768233545766599 ], [ -103.347971394559465, 20.768113352120114 ], [ -103.347910816056583, 20.767736182364061 ], [ -103.348066672611495, 20.767596342813196 ], [ -103.34819322955552, 20.767536440546429 ], [ -103.348283070891625, 20.767491464965055 ], [ -103.348437141613019, 20.767515866268866 ], [ -103.348644130580084, 20.767529316325319 ], [ -103.348848552811049, 20.76740522277678 ], [ -103.348975482858449, 20.767310943818469 ], [ -103.349013401843564, 20.76718524949667 ], [ -103.349075686986353, 20.767059789359635 ], [ -103.349109420278651, 20.766945514666027 ], [ -103.349504668379751, 20.766827074198652 ], [ -103.349622811707093, 20.766793829710377 ], [ -103.350005075628957, 20.766649998199625 ], [ -103.350158124780009, 20.766493375056033 ], [ -103.350415171879732, 20.766385064793528 ], [ -103.350616856911827, 20.766138703736253 ], [ -103.350606124960834, 20.766004901856441 ], [ -103.350659664380913, 20.765936656546813 ], [ -103.350696628055744, 20.765898811797264 ], [ -103.350790114204926, 20.765892069461792 ], [ -103.350850946453789, 20.765900293443227 ], [ -103.350954052408568, 20.765908855157758 ], [ -103.351459121201259, 20.765950790694085 ], [ -103.351653230718341, 20.766035298311952 ], [ -103.351877717976663, 20.765931329552554 ], [ -103.351921978019917, 20.765922461690728 ], [ -103.351966238058836, 20.765913593817142 ], [ -103.352225526612969, 20.76592167172404 ], [ -103.35249262919794, 20.765620161466092 ], [ -103.352998121856615, 20.765767774444662 ], [ -103.353482808466651, 20.765817489858602 ], [ -103.353997016426092, 20.765783723975478 ], [ -103.354044088331491, 20.765600226362672 ], [ -103.354433371908939, 20.765744743633149 ], [ -103.354849707639772, 20.765899302658127 ], [ -103.355219394162816, 20.766036542349728 ], [ -103.355606577400152, 20.766189386777846 ], [ -103.355724691155146, 20.7662360131262 ], [ -103.356033942038465, 20.766358092064607 ], [ -103.356163136640077, 20.766409092045691 ], [ -103.356385755484865, 20.766496971760834 ], [ -103.357106883927315, 20.766781635462749 ], [ -103.357217928695647, 20.766833949868449 ], [ -103.357264327958319, 20.766795632868554 ], [ -103.3576310407948, 20.766437021920488 ], [ -103.357671904941171, 20.766386223221293 ], [ -103.357920280394765, 20.766159193370282 ], [ -103.358127685849951, 20.765859291167899 ], [ -103.358171080996698, 20.765772350882973 ], [ -103.358562462754904, 20.765182994899757 ], [ -103.35860147160578, 20.765126538413988 ], [ -103.359002774336886, 20.764542061380862 ], [ -103.359011254581432, 20.764502963948381 ], [ -103.358978231707496, 20.764373027103009 ], [ -103.359234303131515, 20.763951930816955 ], [ -103.359297350068175, 20.76373325532537 ], [ -103.359280212140504, 20.763724291267515 ], [ -103.359265059179975, 20.763421442282926 ], [ -103.359695818947316, 20.763376585361712 ], [ -103.359877680601144, 20.763356959342644 ], [ -103.360315679609201, 20.763320485073216 ], [ -103.360753188228045, 20.76337280734845 ], [ -103.361028513803888, 20.763372442664593 ], [ -103.361181992715601, 20.763361390881194 ], [ -103.361264685715341, 20.76333781041707 ], [ -103.361381091189287, 20.763245874094213 ], [ -103.36155986526235, 20.76315700082711 ], [ -103.36177080722166, 20.763143400225939 ], [ -103.362216256925862, 20.763114681007089 ], [ -103.36275171471074, 20.763116363669212 ], [ -103.362763931505057, 20.763389714039075 ], [ -103.362751501358389, 20.763604264124986 ], [ -103.362725167940695, 20.764058788704148 ], [ -103.362723340193625, 20.764090335139546 ], [ -103.362716420502679, 20.764209770501846 ], [ -103.362714098879422, 20.764824119800032 ], [ -103.362490679803102, 20.764952035019476 ], [ -103.362300144018761, 20.765061121826449 ], [ -103.362151513526513, 20.765219391677473 ], [ -103.3621139408625, 20.765310799165995 ], [ -103.362016150410668, 20.765509835564234 ], [ -103.361890032191994, 20.765733968811954 ], [ -103.361622783543709, 20.766155003976213 ], [ -103.361499389645957, 20.76634940255672 ], [ -103.360564768097333, 20.767636401697583 ], [ -103.360156609212765, 20.768384349988558 ], [ -103.359497109503494, 20.76955636135061 ], [ -103.35922293048425, 20.770020160199842 ], [ -103.358928252094728, 20.770486521470001 ], [ -103.357665037497114, 20.772388838823606 ], [ -103.357609497667312, 20.772482169237929 ], [ -103.356988414755037, 20.773525842262433 ], [ -103.356512444821149, 20.774459460956642 ], [ -103.356477327528367, 20.774991005876853 ], [ -103.356411662443563, 20.775987295437215 ], [ -103.356387469953205, 20.77637232221463 ], [ -103.35633976333348, 20.776579098904403 ], [ -103.356115663617402, 20.77692563181381 ], [ -103.355948547483152, 20.77701613463401 ], [ -103.355459523723709, 20.777290832961434 ], [ -103.355323585830305, 20.777396001698936 ], [ -103.35529543380234, 20.777651288843803 ], [ -103.355257217944384, 20.777927025434629 ], [ -103.355179782259981, 20.77820974900925 ] ] ] } },
{ "type": "Feature", "properties": { "NUMCOL": 1849.0, "MUNS": "Zapopan", "NOMBRE": "SAN ESTEBAN", "CP": 45180, "supm2": 1550341.1, "POBTOT": 1736.0, "POBFEM": 866.0, "POBMAS": 870.0, "P_0A2": 57.0, "P_0A2_F": 25.0, "P_0A2_M": 32.0, "P_3YMAS": 830.0, "P_3YMAS__F": 420.0, "P_3YMAS__M": 410.0, "P_5YMAS": 801.0, "P_5YMAS__F": 405.0, "P_5YMAS__M": 396.0, "P_12YMAS": 652.0, "P_12YMAS_F": 331.0, "P_12YMAS_M": 321.0, "P_15YMAS": 583.0, "P_15YMAS_F": 296.0, "P_15YMAS_M": 285.0, "P_18YMAS": 533.0, "P_18YMAS_F": 273.0, "P_18YMAS_M": 259.0, "P_3A5": 53.0, "P_3A5_F": 26.0, "P_3A5_M": 25.0, "P_6A11": 126.0, "P_6A11_F": 59.0, "P_6A11_M": 65.0, "P_8A14_": 144.0, "P_8A14_F": 70.0, "P_8A14_M": 74.0, "P_12A14": 66.0, "P_12A14_F": "28", "P_12A14_M": 34.0, "P_15A17": 48.0, "P_15A17_F": 20.0, "P_15A17_M": 28.0, "P_18A24": 96.0, "P_18A24_F": 49.0, "P_18A24_M": 46.0, "P_15A49_F": 216.0, "P_60YMAS": 73.0, "P_60YMAS_F": 35.0, "P_60YMAS_M": 35.0, "REL_H_M": 100.46, "POB0_14": 305.0, "POB15_64": 533.0, "POB65_MAS": 47.0, "PROM_HNV": 2.59, "PNACENT": 853.0, "PNACENT_F": 428.0, "PNACENT_M": 426.0, "PNACOE": 23.0, "PNACOE_F": 11.0, "PNACOE_M": 13.0, "PRES2015": 788.0, "PRES2015_F": 398.0, "PRES2015_M": 390.0, "PRESOE15": 10.0, "PRESOE15_F": 6.0, "PRESOE15_M": 5.0, "P3YM_HLI": 3.0, "P3YM_HLI_F": 1.0, "P3YM_HLI_M": 3.0, "P3HLINHE": 1.0, "P3HLINHE_F": 1.0, "P3HLINHE_M": 1.0, "P3HLI_HE": 1.0, "P3HLI_HE_F": 1.0, "P3HLI_HE_M": 1.0, "P5_HLI": 3.0, "P5_HLI_NHE": 1.0, "P5_HLI_HE": 1.0, "PHOG_IND": 1.0, "POB_AFRO": 16.0, "POB_AFRO_F": 10.0, "POB_AFRO_M": 6.0, "PCON_DISC": 35.0, "PCDISC_MOT": 21.0, "PCDISC_VIS": 13.0, "PCDISC_LEN": 5.0, "PCDISC_AUD": 8.0, "PCDISC_M_1": 5.0, "PCDISC_MEN": 8.0, "PCON_LIM": 90.0, "PCLIM_CSB": 31.0, "PCLIM_VIS": 49.0, "PCLIM_HACO": 5.0, "PCLIM_OAUD": 17.0, "PCLIM_MOT2": 5.0, "PCLIM_RE_C": 24.0, "PCLIM_PMEN": 8.0, "PSIND_LIM": 758.0, "P3A5_NOA": 18.0, "P3A5_NOA_F": 8.0, "P3A5_NOA_M": 11.0, "P6A11_NOA": 11.0, "P6A11_NOA_": 8.0, "P6A11_NO_1": 4.0, "P12A14NOA": 13.0, "P12A14NOA_": 6.0, "P12A14NO_1": 10.0, "P15A17A": 17.0, "P15A17A_F": 10.0, "P15A17A_M": 8.0, "P18A24A": 12.0, "P18A24A_F": 5.0, "P18A24A_M": 7.0, "P8A14AN": 3.0, "P8A14AN_F": 3.0, "P8A14AN_M": 1.0, "P15YM_AN": 32.0, "P15YM_AN_F": 24.0, "P15YM_AN_M": 9.0, "P15YM_SE": 60.0, "P15YM_SE_F": 34.0, "P15YM_SE_M": 25.0, "P15PRI_IN": 57.0, "P15PRI_INF": 36.0, "P15PRI_INM": 22.0, "P15PRI_CO": 159.0, "P15PRI_COF": 80.0, "P15PRI_COM": 78.0, "P15SEC_IN": 34.0, "P15SEC_INF": 12.0, "P15SEC_INM": 22.0, "P15SEC_CO": 175.0, "P15SEC_COF": 86.0, "P15SEC_COM": 86.0, "P18YM_PB": 80.0, "P18YM_PB_F": 33.0, "P18YM_PB_M": 45.0, "GRAPROES": 7.56, "GRAPROES_F": 7.63, "GRAPROES_M": 7.42, "PEA": 474.0, "PEA_F": 197.0, "PEA_M": 277.0, "PE_INAC": 177.0, "PE_INAC_F": 134.0, "PE_INAC_M": 43.0, "POCUPADA": 468.0, "POCUPADA_F": 195.0, "POCUPADA_M": 273.0, "PDESOCUP": 6.0, "PDESOCUP_F": 2.0, "PDESOCUP_M": 5.0, "PSINDER": 377.0, "PDER_SS": 511.0, "PDER_IMSS": 184.0, "PDER_ISTE": 10.0, "PDER_ISTEE": 2.0, "PAFIL_PDOM": 1.0, "PDER_SEGP": 318.0, "PDER_IMSSB": 1.0, "PAFIL_IPDO": 3.0, "PAFIL_OTRA": 1.0, "P12YM_SOLT": 218.0, "P12YM_CASA": 378.0, "P12YM_SEPA": 47.0, "PCATOLICA": 802.0, "PRO_CRIEVA": 40.0, "POTRAS_REL": 1.0, "PSIN_RELIG": 47.0, "TOTHOG": 301.0, "HOGJEF_F": 103.0, "HOGJEF_M": 196.0, "POBHOG": 1238.0, "PHOGJEF_F": 387.0, "PHOGJEF_M": 850.0, "VIVTOT": 532.0, "TVIVHAB": 447.0, "TVIVPAR": 240.0, "VIVPAR_HAB": 188.0, "TVIVPARHAB": 301.0, "VIVPAR_DES": 38.0, "VIVPAR_UT": 11.0, "OCUPVIVPAR": 1238.0, "PROM_OCUP": 4.28, "PRO_OCUP_C": 1.52, "VPH_PISODT": 184.0, "VPH_PISOTI": 3.0, "VPH_1DOR": 51.0, "VPH_2YMASD": 135.0, "VPH_1CUART": 12.0, "VPH_2CUART": 37.0, "VPH_3YMASC": 139.0, "VPH_C_ELEC": 187.0, "VPH_S_ELEC": 1.0, "VPH_AGUADV": 185.0, "VPH_AEASP": 22.0, "VPH_AGUAFV": 2.0, "VPH_TINACO": 157.0, "VPH_CISTER": 35.0, "VPH_EXCSA": 183.0, "VPH_LETR": 1.0, "VPH_DRENAJ": 187.0, "VPH_NODREN": 2.0, "VPH_C_SERV": 185.0, "VPH_NDEAED": 1.0, "VPH_DSADMA": 182.0, "VPH_NDACMM": 87.0, "VPH_SNBIEN": 1.0, "VPH_REFRI": 173.0, "VPH_LAVAD": 138.0, "VPH_HMICRO": 54.0, "VPH_AUTOM": 87.0, "VPH_MOTO": 24.0, "VPH_BICI": 18.0, "VPH_RADIO": 126.0, "VPH_TV": 170.0, "VPH_PC": 28.0, "VPH_TELEF": 34.0, "VPH_CEL": 153.0, "VPH_INTER": 58.0, "VPH_STVP": 71.0, "VPH_SPMVI": 9.0, "VPH_CVJ": 13.0, "VPH_SINRTV": 8.0, "VPH_SINLTC": 23.0, "VPH_SINCIN": 113.0, "VPH_SINTIC": 3.0 }, "geometry": { "type": "Polygon", "coordinates": [ [ [ -103.380269657379571, 20.791148462734302 ], [ -103.380607096514453, 20.791472219848465 ], [ -103.381851981478988, 20.791947012491281 ], [ -103.381963703263551, 20.792126161846085 ], [ -103.381833862753453, 20.792251039035712 ], [ -103.381083491929886, 20.792972719700305 ], [ -103.380006676023058, 20.7944941799791 ], [ -103.379390799192379, 20.795414461397012 ], [ -103.37969075107128, 20.795702247372244 ], [ -103.379458939471249, 20.796127487539326 ], [ -103.37865786534141, 20.79665420595029 ], [ -103.377966221223531, 20.797573765019113 ], [ -103.377462420100102, 20.798637573789772 ], [ -103.377362342599369, 20.79886762763579 ], [ -103.377890162476973, 20.799700653066093 ], [ -103.377820247327662, 20.800748834458833 ], [ -103.377253601141874, 20.801192978637836 ], [ -103.376790364736124, 20.801377860364742 ], [ -103.376363624427157, 20.801287075228593 ], [ -103.376337201243715, 20.801405115547649 ], [ -103.375850495021965, 20.801432051923062 ], [ -103.375513354865618, 20.800805863248556 ], [ -103.375344642105162, 20.800782600029599 ], [ -103.375144894124105, 20.800755057249738 ], [ -103.374812700856182, 20.801232957736008 ], [ -103.374425270806469, 20.801387007022441 ], [ -103.374062303736267, 20.800823659253162 ], [ -103.373728485253991, 20.800670660315745 ], [ -103.373634199180685, 20.800078314769468 ], [ -103.373274126695705, 20.800027584408156 ], [ -103.37325539707598, 20.799428069191382 ], [ -103.372736931607662, 20.799289089463279 ], [ -103.372517554122325, 20.799413184621951 ], [ -103.372040509420074, 20.799321911898474 ], [ -103.371872206343184, 20.799375516733338 ], [ -103.370936160200387, 20.799074847579796 ], [ -103.370212972891437, 20.799257242685734 ], [ -103.37008082821535, 20.799083778969624 ], [ -103.3657479213621, 20.799559327805699 ], [ -103.365715802037585, 20.799024738047407 ], [ -103.366782723791928, 20.798499106443266 ], [ -103.366783487871729, 20.798428139690198 ], [ -103.365763860066153, 20.79810298941489 ], [ -103.365593203133585, 20.797596659615177 ], [ -103.364263640251565, 20.796695667978288 ], [ -103.365006110503245, 20.796045409537147 ], [ -103.365002993850396, 20.795556447834073 ], [ -103.364408998227518, 20.795424610238946 ], [ -103.36347346179835, 20.795685127187742 ], [ -103.363356715895662, 20.796201746285487 ], [ -103.362842840651126, 20.796462427260575 ], [ -103.362795691348339, 20.796441825521367 ], [ -103.361999530722628, 20.796093942729254 ], [ -103.361940143534724, 20.79536618271667 ], [ -103.361966765705432, 20.795283112182538 ], [ -103.362175151083761, 20.794938026673705 ], [ -103.362319698722445, 20.793977315283762 ], [ -103.36272482586601, 20.793736715796282 ], [ -103.363114627544476, 20.793361907129118 ], [ -103.363422787076431, 20.792781282829282 ], [ -103.363892643520728, 20.792660722859011 ], [ -103.364045072378644, 20.792621610975097 ], [ -103.36443109885326, 20.793374461049975 ], [ -103.364760740728272, 20.792746704877214 ], [ -103.365532722941381, 20.792312461861837 ], [ -103.366439843751692, 20.792179152004927 ], [ -103.367240502245338, 20.791808243966738 ], [ -103.367601837290508, 20.790959992539239 ], [ -103.367420165599242, 20.790698025859456 ], [ -103.367808675976818, 20.790441483198887 ], [ -103.369949537042558, 20.79120862636745 ], [ -103.370216703458496, 20.790322421684909 ], [ -103.37070218847208, 20.790405892022477 ], [ -103.371590917577578, 20.790422213808057 ], [ -103.372183379561534, 20.790695959737278 ], [ -103.372216423677827, 20.791524305844579 ], [ -103.373274468257137, 20.791392390809772 ], [ -103.374842879592833, 20.790587104577401 ], [ -103.377030201041293, 20.790718210118488 ], [ -103.380269657379571, 20.791148462734302 ] ] ] } },
{ "type": "Feature", "properties": { "NUMCOL": 1852.0, "MUNS": "Zapopan", "NOMBRE": "SAN ISIDRO", "CP": 45180, "supm2": 580504.57, "POBTOT": null, "POBFEM": null, "POBMAS": null, "P_0A2": null, "P_0A2_F": null, "P_0A2_M": null, "P_3YMAS": null, "P_3YMAS__F": null, "P_3YMAS__M": null, "P_5YMAS": null, "P_5YMAS__F": null, "P_5YMAS__M": null, "P_12YMAS": null, "P_12YMAS_F": null, "P_12YMAS_M": null, "P_15YMAS": null, "P_15YMAS_F": null, "P_15YMAS_M": null, "P_18YMAS": null, "P_18YMAS_F": null, "P_18YMAS_M": null, "P_3A5": null, "P_3A5_F": null, "P_3A5_M": null, "P_6A11": null, "P_6A11_F": null, "P_6A11_M": null, "P_8A14_": null, "P_8A14_F": null, "P_8A14_M": null, "P_12A14": null, "P_12A14_F": null, "P_12A14_M": null, "P_15A17": null, "P_15A17_F": null, "P_15A17_M": null, "P_18A24": null, "P_18A24_F": null, "P_18A24_M": null, "P_15A49_F": null, "P_60YMAS": null, "P_60YMAS_F": null, "P_60YMAS_M": null, "REL_H_M": null, "POB0_14": null, "POB15_64": null, "POB65_MAS": null, "PROM_HNV": null, "PNACENT": null, "PNACENT_F": null, "PNACENT_M": null, "PNACOE": null, "PNACOE_F": null, "PNACOE_M": null, "PRES2015": null, "PRES2015_F": null, "PRES2015_M": null, "PRESOE15": null, "PRESOE15_F": null, "PRESOE15_M": null, "P3YM_HLI": null, "P3YM_HLI_F": null, "P3YM_HLI_M": null, "P3HLINHE": null, "P3HLINHE_F": null, "P3HLINHE_M": null, "P3HLI_HE": null, "P3HLI_HE_F": null, "P3HLI_HE_M": null, "P5_HLI": null, "P5_HLI_NHE": null, "P5_HLI_HE": null, "PHOG_IND": null, "POB_AFRO": null, "POB_AFRO_F": null, "POB_AFRO_M": null, "PCON_DISC": null, "PCDISC_MOT": null, "PCDISC_VIS": null, "PCDISC_LEN": null, "PCDISC_AUD": null, "PCDISC_M_1": null, "PCDISC_MEN": null, "PCON_LIM": null, "PCLIM_CSB": null, "PCLIM_VIS": null, "PCLIM_HACO": null, "PCLIM_OAUD": null, "PCLIM_MOT2": null, "PCLIM_RE_C": null, "PCLIM_PMEN": null, "PSIND_LIM": null, "P3A5_NOA": null, "P3A5_NOA_F": null, "P3A5_NOA_M": null, "P6A11_NOA": null, "P6A11_NOA_": null, "P6A11_NO_1": null, "P12A14NOA": null, "P12A14NOA_": null, "P12A14NO_1": null, "P15A17A": null, "P15A17A_F": null, "P15A17A_M": null, "P18A24A": null, "P18A24A_F": null, "P18A24A_M": null, "P8A14AN": null, "P8A14AN_F": null, "P8A14AN_M": null, "P15YM_AN": null, "P15YM_AN_F": null, "P15YM_AN_M": null, "P15YM_SE": null, "P15YM_SE_F": null, "P15YM_SE_M": null, "P15PRI_IN": null, "P15PRI_INF": null, "P15PRI_INM": null, "P15PRI_CO": null, "P15PRI_COF": null, "P15PRI_COM": null, "P15SEC_IN": null, "P15SEC_INF": null, "P15SEC_INM": null, "P15SEC_CO": null, "P15SEC_COF": null, "P15SEC_COM": null, "P18YM_PB": null, "P18YM_PB_F": null, "P18YM_PB_M": null, "GRAPROES": null, "GRAPROES_F": null, "GRAPROES_M": null, "PEA": null, "PEA_F": null, "PEA_M": null, "PE_INAC": null, "PE_INAC_F": null, "PE_INAC_M": null, "POCUPADA": null, "POCUPADA_F": null, "POCUPADA_M": null, "PDESOCUP": null, "PDESOCUP_F": null, "PDESOCUP_M": null, "PSINDER": null, "PDER_SS": null, "PDER_IMSS": null, "PDER_ISTE": null, "PDER_ISTEE": null, "PAFIL_PDOM": null, "PDER_SEGP": null, "PDER_IMSSB": null, "PAFIL_IPDO": null, "PAFIL_OTRA": null, "P12YM_SOLT": null, "P12YM_CASA": null, "P12YM_SEPA": null, "PCATOLICA": null, "PRO_CRIEVA": null, "POTRAS_REL": null, "PSIN_RELIG": null, "TOTHOG": null, "HOGJEF_F": null, "HOGJEF_M": null, "POBHOG": null, "PHOGJEF_F": null, "PHOGJEF_M": null, "VIVTOT": null, "TVIVHAB": null, "TVIVPAR": null, "VIVPAR_HAB": null, "TVIVPARHAB": null, "VIVPAR_DES": null, "VIVPAR_UT": null, "OCUPVIVPAR": null, "PROM_OCUP": null, "PRO_OCUP_C": null, "VPH_PISODT": null, "VPH_PISOTI": null, "VPH_1DOR": null, "VPH_2YMASD": null, "VPH_1CUART": null, "VPH_2CUART": null, "VPH_3YMASC": null, "VPH_C_ELEC": null, "VPH_S_ELEC": null, "VPH_AGUADV": null, "VPH_AEASP": null, "VPH_AGUAFV": null, "VPH_TINACO": null, "VPH_CISTER": null, "VPH_EXCSA": null, "VPH_LETR": null, "VPH_DRENAJ": null, "VPH_NODREN": null, "VPH_C_SERV": null, "VPH_NDEAED": null, "VPH_DSADMA": null, "VPH_NDACMM": null, "VPH_SNBIEN": null, "VPH_REFRI": null, "VPH_LAVAD": null, "VPH_HMICRO": null, "VPH_AUTOM": null, "VPH_MOTO": null, "VPH_BICI": null, "VPH_RADIO": null, "VPH_TV": null, "VPH_PC": null, "VPH_TELEF": null, "VPH_CEL": null, "VPH_INTER": null, "VPH_STVP": null, "VPH_SPMVI": null, "VPH_CVJ": null, "VPH_SINRTV": null, "VPH_SINLTC": null, "VPH_SINCIN": null, "VPH_SINTIC": null }, "geometry": { "type": "Polygon", "coordinates": [ [ [ -103.354515299157114, 20.789409420980494 ], [ -103.35464462061843, 20.789310411794911 ], [ -103.35497565379967, 20.789138996731317 ], [ -103.355356072732292, 20.789486999869052 ], [ -103.355449155664303, 20.789641930501222 ], [ -103.355659473328018, 20.790409492770621 ], [ -103.355832856184435, 20.790484237878896 ], [ -103.35608125705366, 20.790496636008623 ], [ -103.356272005376965, 20.79061347267805 ], [ -103.356603863680533, 20.790687941336905 ], [ -103.356926739254845, 20.790467725399015 ], [ -103.357399771957901, 20.790235589548328 ], [ -103.357749091776114, 20.790086632614209 ], [ -103.357992222381341, 20.789982497550763 ], [ -103.358512811593997, 20.789740810106579 ], [ -103.358640309687502, 20.789643569730444 ], [ -103.358894636437952, 20.789638797489168 ], [ -103.358956059175327, 20.789726807489714 ], [ -103.359145201887145, 20.789709230807556 ], [ -103.359284738276159, 20.789509069992743 ], [ -103.35942021529938, 20.789443655462684 ], [ -103.359691632111009, 20.789355782233059 ], [ -103.359771947980917, 20.789272887953494 ], [ -103.359870303557727, 20.789007623408274 ], [ -103.360305812847372, 20.78886929761023 ], [ -103.361147452137544, 20.788489745278561 ], [ -103.361258270765774, 20.788674392944056 ], [ -103.361514855581262, 20.791010019126826 ], [ -103.361507386071352, 20.791046839251184 ], [ -103.361302000508147, 20.792059256169939 ], [ -103.361388930774041, 20.792313061082428 ], [ -103.360215733830842, 20.793004561223892 ], [ -103.358525119744357, 20.793171100497144 ], [ -103.356994014738831, 20.793788882425975 ], [ -103.356013512737718, 20.793245434141685 ], [ -103.35286573453088, 20.79272335264293 ], [ -103.35282619934739, 20.792734352954458 ], [ -103.3511568179444, 20.793198833436289 ], [ -103.349814181845176, 20.792975115019534 ], [ -103.347205421373573, 20.793737034947458 ], [ -103.346513346963192, 20.79293957172381 ], [ -103.345789672164756, 20.791994741186091 ], [ -103.34685418182795, 20.791681756123126 ], [ -103.347320031347394, 20.791447324031065 ], [ -103.347293205353495, 20.791165984053393 ], [ -103.348422221304389, 20.790417933235609 ], [ -103.349618945946276, 20.788939712447331 ], [ -103.351433472127965, 20.789744182452285 ], [ -103.352642337988726, 20.78955034503257 ], [ -103.352728668462916, 20.789665771213336 ], [ -103.352841761691977, 20.789734064404872 ], [ -103.353662939341234, 20.789505949282585 ], [ -103.354129690828373, 20.789128895463968 ], [ -103.354310870967595, 20.789033147341971 ], [ -103.354351017059798, 20.789091943054856 ], [ -103.35447679148875, 20.789335546656424 ], [ -103.354515299157114, 20.789409420980494 ] ] ] } },
{ "type": "Feature", "properties": { "NUMCOL": 1972.0, "MUNS": "Zapopan", "NOMBRE": "PRADOS DE NEXTIPAC 1a SECCION", "CP": 45200, "supm2": 324240.71, "POBTOT": 560.0, "POBFEM": 280.0, "POBMAS": 280.0, "P_0A2": 32.0, "P_0A2_F": 23.0, "P_0A2_M": 10.0, "P_3YMAS": 527.0, "P_3YMAS__F": 257.0, "P_3YMAS__M": 270.0, "P_5YMAS": 502.0, "P_5YMAS__F": 242.0, "P_5YMAS__M": 260.0, "P_12YMAS": 419.0, "P_12YMAS_F": 204.0, "P_12YMAS_M": 215.0, "P_15YMAS": 369.0, "P_15YMAS_F": 178.0, "P_15YMAS_M": 191.0, "P_18YMAS": 326.0, "P_18YMAS_F": 156.0, "P_18YMAS_M": 170.0, "P_3A5": 37.0, "P_3A5_F": 20.0, "P_3A5_M": 15.0, "P_6A11": 68.0, "P_6A11_F": 32.0, "P_6A11_M": 38.0, "P_8A14_": 100.0, "P_8A14_F": 50.0, "P_8A14_M": 48.0, "P_12A14": 50.0, "P_12A14_F": "25", "P_12A14_M": 23.0, "P_15A17": 43.0, "P_15A17_F": 21.0, "P_15A17_M": 19.0, "P_18A24": 76.0, "P_18A24_F": 33.0, "P_18A24_M": 41.0, "P_15A49_F": 150.0, "P_60YMAS": 33.0, "P_60YMAS_F": 14.0, "P_60YMAS_M": 21.0, "REL_H_M": 100.0, "POB0_14": 191.0, "POB15_64": 349.0, "POB65_MAS": 19.0, "PROM_HNV": 2.14, "PNACENT": 495.0, "PNACENT_F": 251.0, "PNACENT_M": 244.0, "PNACOE": 61.0, "PNACOE_F": 28.0, "PNACOE_M": 33.0, "PRES2015": 499.0, "PRES2015_F": 241.0, "PRES2015_M": 258.0, "PRESOE15": 2.0, "PRESOE15_F": 1.0, "PRESOE15_M": 1.0, "P3YM_HLI": 11.0, "P3YM_HLI_F": 4.0, "P3YM_HLI_M": 5.0, "P3HLINHE": 0.0, "P3HLINHE_F": 0.0, "P3HLINHE_M": 0.0, "P3HLI_HE": 11.0, "P3HLI_HE_F": 4.0, "P3HLI_HE_M": 5.0, "P5_HLI": 11.0, "P5_HLI_NHE": 0.0, "P5_HLI_HE": 11.0, "PHOG_IND": 34.0, "POB_AFRO": 10.0, "POB_AFRO_F": 7.0, "POB_AFRO_M": 4.0, "PCON_DISC": 21.0, "PCDISC_MOT": 15.0, "PCDISC_VIS": 9.0, "PCDISC_LEN": 1.0, "PCDISC_AUD": 5.0, "PCDISC_M_1": 6.0, "PCDISC_MEN": 3.0, "PCON_LIM": 32.0, "PCLIM_CSB": 8.0, "PCLIM_VIS": 16.0, "PCLIM_HACO": 1.0, "PCLIM_OAUD": 5.0, "PCLIM_MOT2": 2.0, "PCLIM_RE_C": 10.0, "PCLIM_PMEN": 8.0, "PSIND_LIM": 500.0, "P3A5_NOA": 18.0, "P3A5_NOA_F": 13.0, "P3A5_NOA_M": 5.0, "P6A11_NOA": 4.0, "P6A11_NOA_": 1.0, "P6A11_NO_1": 1.0, "P12A14NOA": 5.0, "P12A14NOA_": 1.0, "P12A14NO_1": 2.0, "P15A17A": 34.0, "P15A17A_F": 16.0, "P15A17A_M": 14.0, "P18A24A": 26.0, "P18A24A_F": 14.0, "P18A24A_M": 9.0, "P8A14AN": 3.0, "P8A14AN_F": 1.0, "P8A14AN_M": 1.0, "P15YM_AN": 16.0, "P15YM_AN_F": 8.0, "P15YM_AN_M": 7.0, "P15YM_SE": 25.0, "P15YM_SE_F": 11.0, "P15YM_SE_M": 11.0, "P15PRI_IN": 48.0, "P15PRI_INF": 23.0, "P15PRI_INM": 24.0, "P15PRI_CO": 78.0, "P15PRI_COF": 42.0, "P15PRI_COM": 36.0, "P15SEC_IN": 22.0, "P15SEC_INF": 9.0, "P15SEC_INM": 11.0, "P15SEC_CO": 94.0, "P15SEC_COF": 41.0, "P15SEC_COM": 49.0, "P18YM_PB": 76.0, "P18YM_PB_F": 36.0, "P18YM_PB_M": 38.0, "GRAPROES": 8.43, "GRAPROES_F": 8.41, "GRAPROES_M": 8.4, "PEA": 270.0, "PEA_F": 92.0, "PEA_M": 178.0, "PE_INAC": 148.0, "PE_INAC_F": 112.0, "PE_INAC_M": 35.0, "POCUPADA": 264.0, "POCUPADA_F": 90.0, "POCUPADA_M": 174.0, "PDESOCUP": 6.0, "PDESOCUP_F": 2.0, "PDESOCUP_M": 4.0, "PSINDER": 231.0, "PDER_SS": 329.0, "PDER_IMSS": 223.0, "PDER_ISTE": 2.0, "PDER_ISTEE": 0.0, "PAFIL_PDOM": 3.0, "PDER_SEGP": 98.0, "PDER_IMSSB": 0.0, "PAFIL_IPDO": 0.0, "PAFIL_OTRA": 1.0, "P12YM_SOLT": 160.0, "P12YM_CASA": 224.0, "P12YM_SEPA": 32.0, "PCATOLICA": 477.0, "PRO_CRIEVA": 63.0, "POTRAS_REL": 0.0, "PSIN_RELIG": 20.0, "TOTHOG": 121.0, "HOGJEF_F": 27.0, "HOGJEF_M": 93.0, "POBHOG": 560.0, "PHOGJEF_F": 120.0, "PHOGJEF_M": 440.0, "VIVTOT": 153.0, "TVIVHAB": 121.0, "TVIVPAR": 150.0, "VIVPAR_HAB": 118.0, "TVIVPARHAB": 121.0, "VIVPAR_DES": 25.0, "VIVPAR_UT": 3.0, "OCUPVIVPAR": 560.0, "PROM_OCUP": 4.4, "PRO_OCUP_C": 1.41, "VPH_PISODT": 110.0, "VPH_PISOTI": 10.0, "VPH_1DOR": 35.0, "VPH_2YMASD": 81.0, "VPH_1CUART": 9.0, "VPH_2CUART": 25.0, "VPH_3YMASC": 82.0, "VPH_C_ELEC": 118.0, "VPH_S_ELEC": 2.0, "VPH_AGUADV": 119.0, "VPH_AEASP": 100.0, "VPH_AGUAFV": 1.0, "VPH_TINACO": 84.0, "VPH_CISTER": 47.0, "VPH_EXCSA": 116.0, "VPH_LETR": 3.0, "VPH_DRENAJ": 119.0, "VPH_NODREN": 1.0, "VPH_C_SERV": 116.0, "VPH_NDEAED": 0.0, "VPH_DSADMA": 119.0, "VPH_NDACMM": 49.0, "VPH_SNBIEN": 0.0, "VPH_REFRI": 103.0, "VPH_LAVAD": 76.0, "VPH_HMICRO": 40.0, "VPH_AUTOM": 53.0, "VPH_MOTO": 28.0, "VPH_BICI": 54.0, "VPH_RADIO": 89.0, "VPH_TV": 110.0, "VPH_PC": 30.0, "VPH_TELEF": 28.0, "VPH_CEL": 109.0, "VPH_INTER": 44.0, "VPH_STVP": 26.0, "VPH_SPMVI": 13.0, "VPH_CVJ": 10.0, "VPH_SINRTV": 4.0, "VPH_SINLTC": 8.0, "VPH_SINCIN": 69.0, "VPH_SINTIC": 0.0 }, "geometry": { "type": "Polygon", "coordinates": [ [ [ -103.504750969086146, 20.789948047967624 ], [ -103.504939918152218, 20.789714308829435 ], [ -103.505992582134226, 20.790072894218991 ], [ -103.507494894504916, 20.790544221306966 ], [ -103.507901244271977, 20.790679576935492 ], [ -103.508578203953888, 20.790905070450194 ], [ -103.508905532760778, 20.791014101650994 ], [ -103.509026908742712, 20.791039958191533 ], [ -103.507490944791101, 20.794521243588683 ], [ -103.50738639408543, 20.794614557583071 ], [ -103.507328768082559, 20.794593176002291 ], [ -103.506900400478941, 20.796105862447309 ], [ -103.506828571611578, 20.79635950690577 ], [ -103.501400044598597, 20.794366185730453 ], [ -103.501808981019849, 20.793829302249492 ], [ -103.502177147086272, 20.793345940920251 ], [ -103.502545310754613, 20.792862578631741 ], [ -103.502933170647935, 20.792334389560089 ], [ -103.50294937314564, 20.792312324831997 ], [ -103.503232274885562, 20.791934631991996 ], [ -103.504332732784718, 20.790465423016066 ], [ -103.504348048055945, 20.790446477497369 ], [ -103.504750969086146, 20.789948047967624 ] ] ] } },
{ "type": "Feature", "properties": { "NUMCOL": 2566.0, "MUNS": "Zapopan", "NOMBRE": "EL HUMEDO DE NEXTIPAC", "CP": 45100, "supm2": 149077.77, "POBTOT": 1507.0, "POBFEM": 731.0, "POBMAS": 776.0, "P_0A2": 82.0, "P_0A2_F": 42.0, "P_0A2_M": 33.0, "P_3YMAS": 1424.0, "P_3YMAS__F": 686.0, "P_3YMAS__M": 738.0, "P_5YMAS": 1363.0, "P_5YMAS__F": 660.0, "P_5YMAS__M": 703.0, "P_12YMAS": 1129.0, "P_12YMAS_F": 548.0, "P_12YMAS_M": 581.0, "P_15YMAS": 1020.0, "P_15YMAS_F": 503.0, "P_15YMAS_M": 517.0, "P_18YMAS": 917.0, "P_18YMAS_F": 456.0, "P_18YMAS_M": 461.0, "P_3A5": 92.0, "P_3A5_F": 38.0, "P_3A5_M": 49.0, "P_6A11": 200.0, "P_6A11_F": 98.0, "P_6A11_M": 101.0, "P_8A14_": 255.0, "P_8A14_F": 113.0, "P_8A14_M": 137.0, "P_12A14": 107.0, "P_12A14_F": "42", "P_12A14_M": 59.0, "P_15A17": 103.0, "P_15A17_F": 44.0, "P_15A17_M": 54.0, "P_18A24": 198.0, "P_18A24_F": 81.0, "P_18A24_M": 113.0, "P_15A49_F": 401.0, "P_60YMAS": 91.0, "P_60YMAS_F": 39.0, "P_60YMAS_M": 48.0, "REL_H_M": 106.16, "POB0_14": 487.0, "POB15_64": 963.0, "POB65_MAS": 53.0, "PROM_HNV": 2.37, "PNACENT": 1276.0, "PNACENT_F": 604.0, "PNACENT_M": 672.0, "PNACOE": 222.0, "PNACOE_F": 117.0, "PNACOE_M": 99.0, "PRES2015": 1330.0, "PRES2015_F": 638.0, "PRES2015_M": 692.0, "PRESOE15": 29.0, "PRESOE15_F": 20.0, "PRESOE15_M": 9.0, "P3YM_HLI": 8.0, "P3YM_HLI_F": 4.0, "P3YM_HLI_M": 4.0, "P3HLINHE": 1.0, "P3HLINHE_F": 1.0, "P3HLINHE_M": 0.0, "P3HLI_HE": 7.0, "P3HLI_HE_F": 2.0, "P3HLI_HE_M": 4.0, "P5_HLI": 7.0, "P5_HLI_NHE": 0.0, "P5_HLI_HE": 7.0, "PHOG_IND": 11.0, "POB_AFRO": 10.0, "POB_AFRO_F": 4.0, "POB_AFRO_M": 4.0, "PCON_DISC": 79.0, "PCDISC_MOT": 36.0, "PCDISC_VIS": 37.0, "PCDISC_LEN": 9.0, "PCDISC_AUD": 7.0, "PCDISC_M_1": 9.0, "PCDISC_MEN": 12.0, "PCON_LIM": 190.0, "PCLIM_CSB": 43.0, "PCLIM_VIS": 108.0, "PCLIM_HACO": 22.0, "PCLIM_OAUD": 17.0, "PCLIM_MOT2": 4.0, "PCLIM_RE_C": 60.0, "PCLIM_PMEN": 22.0, "PSIND_LIM": 1223.0, "P3A5_NOA": 26.0, "P3A5_NOA_F": 12.0, "P3A5_NOA_M": 14.0, "P6A11_NOA": 10.0, "P6A11_NOA_": 7.0, "P6A11_NO_1": 2.0, "P12A14NOA": 17.0, "P12A14NOA_": 5.0, "P12A14NO_1": 11.0, "P15A17A": 59.0, "P15A17A_F": 32.0, "P15A17A_M": 25.0, "P18A24A": 31.0, "P18A24A_F": 13.0, "P18A24A_M": 15.0, "P8A14AN": 4.0, "P8A14AN_F": 4.0, "P8A14AN_M": 0.0, "P15YM_AN": 26.0, "P15YM_AN_F": 14.0, "P15YM_AN_M": 12.0, "P15YM_SE": 51.0, "P15YM_SE_F": 24.0, "P15YM_SE_M": 23.0, "P15PRI_IN": 111.0, "P15PRI_INF": 50.0, "P15PRI_INM": 54.0, "P15PRI_CO": 209.0, "P15PRI_COF": 102.0, "P15PRI_COM": 103.0, "P15SEC_IN": 51.0, "P15SEC_INF": 23.0, "P15SEC_INM": 25.0, "P15SEC_CO": 332.0, "P15SEC_COF": 160.0, "P15SEC_COM": 171.0, "P18YM_PB": 224.0, "P18YM_PB_F": 107.0, "P18YM_PB_M": 109.0, "GRAPROES": 7.97, "GRAPROES_F": 8.06, "GRAPROES_M": 7.89, "PEA": 749.0, "PEA_F": 283.0, "PEA_M": 466.0, "PE_INAC": 380.0, "PE_INAC_F": 265.0, "PE_INAC_M": 113.0, "POCUPADA": 740.0, "POCUPADA_F": 278.0, "POCUPADA_M": 462.0, "PDESOCUP": 8.0, "PDESOCUP_F": 4.0, "PDESOCUP_M": 4.0, "PSINDER": 652.0, "PDER_SS": 853.0, "PDER_IMSS": 716.0, "PDER_ISTE": 6.0, "PDER_ISTEE": 11.0, "PAFIL_PDOM": 8.0, "PDER_SEGP": 109.0, "PDER_IMSSB": 0.0, "PAFIL_IPDO": 6.0, "PAFIL_OTRA": 0.0, "P12YM_SOLT": 420.0, "P12YM_CASA": 629.0, "P12YM_SEPA": 77.0, "PCATOLICA": 1343.0, "PRO_CRIEVA": 95.0, "POTRAS_REL": 1.0, "PSIN_RELIG": 66.0, "TOTHOG": 339.0, "HOGJEF_F": 145.0, "HOGJEF_M": 192.0, "POBHOG": 1507.0, "PHOGJEF_F": 634.0, "PHOGJEF_M": 873.0, "VIVTOT": 388.0, "TVIVHAB": 339.0, "TVIVPAR": 372.0, "VIVPAR_HAB": 323.0, "TVIVPARHAB": 339.0, "VIVPAR_DES": 45.0, "VIVPAR_UT": 1.0, "OCUPVIVPAR": 1507.0, "PROM_OCUP": 4.37, "PRO_OCUP_C": 1.28, "VPH_PISODT": 331.0, "VPH_PISOTI": 6.0, "VPH_1DOR": 89.0, "VPH_2YMASD": 246.0, "VPH_1CUART": 10.0, "VPH_2CUART": 45.0, "VPH_3YMASC": 276.0, "VPH_C_ELEC": 339.0, "VPH_S_ELEC": 0.0, "VPH_AGUADV": 338.0, "VPH_AEASP": 332.0, "VPH_AGUAFV": 1.0, "VPH_TINACO": 195.0, "VPH_CISTER": 64.0, "VPH_EXCSA": 336.0, "VPH_LETR": 1.0, "VPH_DRENAJ": 339.0, "VPH_NODREN": 0.0, "VPH_C_SERV": 338.0, "VPH_NDEAED": 0.0, "VPH_DSADMA": 337.0, "VPH_NDACMM": 144.0, "VPH_SNBIEN": 1.0, "VPH_REFRI": 317.0, "VPH_LAVAD": 272.0, "VPH_HMICRO": 161.0, "VPH_AUTOM": 160.0, "VPH_MOTO": 62.0, "VPH_BICI": 188.0, "VPH_RADIO": 295.0, "VPH_TV": 325.0, "VPH_PC": 103.0, "VPH_TELEF": 127.0, "VPH_CEL": 327.0, "VPH_INTER": 266.0, "VPH_STVP": 103.0, "VPH_SPMVI": 58.0, "VPH_CVJ": 49.0, "VPH_SINRTV": 6.0, "VPH_SINLTC": 6.0, "VPH_SINCIN": 62.0, "VPH_SINTIC": 2.0 }, "geometry": { "type": "Polygon", "coordinates": [ [ [ -103.490196629999573, 20.791857177311083 ], [ -103.490343814985692, 20.79189654071428 ], [ -103.49054766532393, 20.791877736608626 ], [ -103.492016380243058, 20.791818303554198 ], [ -103.492078365771604, 20.791881003405791 ], [ -103.492520855016863, 20.792049700764426 ], [ -103.494623553029001, 20.79302313275392 ], [ -103.494587587376017, 20.793233009872566 ], [ -103.49441304615813, 20.793189328692073 ], [ -103.494110857755444, 20.793172739454512 ], [ -103.494066770239783, 20.793390433231249 ], [ -103.494047847217999, 20.79388853343989 ], [ -103.494032065755178, 20.794303935328148 ], [ -103.493999755408836, 20.794680112017712 ], [ -103.493971775870904, 20.794876074678761 ], [ -103.493906012059142, 20.795529033774208 ], [ -103.493440576221047, 20.795540975256088 ], [ -103.492794063095346, 20.795581425338511 ], [ -103.492467614495169, 20.795291766950442 ], [ -103.492144565866809, 20.795010254308661 ], [ -103.491995980843058, 20.794880773073306 ], [ -103.491836549128749, 20.794741839346838 ], [ -103.491504201160666, 20.794463407851723 ], [ -103.490995309564937, 20.793993291223103 ], [ -103.490687416962672, 20.793706135753997 ], [ -103.49069860350329, 20.793430628199232 ], [ -103.490598886330048, 20.793440899201904 ], [ -103.4896975419001, 20.793128376529996 ], [ -103.48966096711419, 20.793232001811869 ], [ -103.488807299087213, 20.793298590113395 ], [ -103.488695713100995, 20.793255472826043 ], [ -103.488466678762947, 20.793195520491487 ], [ -103.488142105530272, 20.793098467384265 ], [ -103.487714885220143, 20.793044059091361 ], [ -103.487594768155745, 20.793014032968195 ], [ -103.48771876128221, 20.792936123515311 ], [ -103.487758273415622, 20.792917102296773 ], [ -103.48783694410416, 20.792879230030398 ], [ -103.487854479598653, 20.792805649122467 ], [ -103.487916449789907, 20.792769327481434 ], [ -103.487955966449491, 20.792738074785547 ], [ -103.48804562303674, 20.792733597953536 ], [ -103.488135384560124, 20.792718588364316 ], [ -103.48821399802226, 20.792698213695864 ], [ -103.488270210442934, 20.79267764164652 ], [ -103.48830676949396, 20.792662163261845 ], [ -103.488346023742139, 20.792657242246921 ], [ -103.488385435368969, 20.792636522155824 ], [ -103.488407915075854, 20.792628819950341 ], [ -103.488447352916594, 20.792605466666064 ], [ -103.488472711428315, 20.792589889582814 ], [ -103.48849529603693, 20.792571654653187 ], [ -103.488543081773003, 20.792553641693829 ], [ -103.488573883157983, 20.792553912989899 ], [ -103.488618737625259, 20.79254904123621 ], [ -103.488649879940112, 20.792515081202122 ], [ -103.488675421991374, 20.792481071838914 ], [ -103.488689763534524, 20.79244696382737 ], [ -103.488721063155509, 20.792397204707818 ], [ -103.488724151741252, 20.792368264406612 ], [ -103.488724387755667, 20.792344565801567 ], [ -103.488744408186562, 20.792302607568832 ], [ -103.488772697853761, 20.792273889203567 ], [ -103.488817788233405, 20.79224531878592 ], [ -103.488860104697793, 20.792214090518769 ], [ -103.48889967346652, 20.792177571225519 ], [ -103.488925189182311, 20.792146194995546 ], [ -103.488948062086607, 20.792098995032493 ], [ -103.488965203645307, 20.792064911646811 ], [ -103.489007546247365, 20.792031050158926 ], [ -103.489055436628135, 20.792002504326174 ], [ -103.489134180699153, 20.791968963309287 ], [ -103.489173670691954, 20.791940343480885 ], [ -103.489232656617006, 20.791922428920731 ], [ -103.489266546350748, 20.791893759765749 ], [ -103.489322810772464, 20.791867920984128 ], [ -103.48936523187875, 20.791826159861099 ], [ -103.489373920549227, 20.791797268836515 ], [ -103.489391193033583, 20.79175001950248 ], [ -103.489414065728894, 20.791702819462614 ], [ -103.489475641969037, 20.79170599489494 ], [ -103.48954834003375, 20.791717168428985 ], [ -103.490196629999573, 20.791857177311083 ] ] ] } },
{ "type": "Feature", "properties": { "NUMCOL": 2568.0, "MUNS": "Zapopan", "NOMBRE": "PRADOS DE NEXTIPAC 2a SECCION", "CP": 45200, "supm2": 112467.96, "POBTOT": 405.0, "POBFEM": 210.0, "POBMAS": 196.0, "P_0A2": 31.0, "P_0A2_F": 14.0, "P_0A2_M": 15.0, "P_3YMAS": 375.0, "P_3YMAS__F": 196.0, "P_3YMAS__M": 180.0, "P_5YMAS": 353.0, "P_5YMAS__F": 184.0, "P_5YMAS__M": 170.0, "P_12YMAS": 288.0, "P_12YMAS_F": 156.0, "P_12YMAS_M": 133.0, "P_15YMAS": 263.0, "P_15YMAS_F": 140.0, "P_15YMAS_M": 124.0, "P_18YMAS": 231.0, "P_18YMAS_F": 124.0, "P_18YMAS_M": 108.0, "P_3A5": 38.0, "P_3A5_F": 19.0, "P_3A5_M": 19.0, "P_6A11": 51.0, "P_6A11_F": 21.0, "P_6A11_M": 29.0, "P_8A14_": 61.0, "P_8A14_F": 30.0, "P_8A14_M": 29.0, "P_12A14": 26.0, "P_12A14_F": "16", "P_12A14_M": 6.0, "P_15A17": 33.0, "P_15A17_F": 15.0, "P_15A17_M": 16.0, "P_18A24": 44.0, "P_18A24_F": 23.0, "P_18A24_M": 19.0, "P_15A49_F": 113.0, "P_60YMAS": 34.0, "P_60YMAS_F": 13.0, "P_60YMAS_M": 19.0, "REL_H_M": 93.33, "POB0_14": 143.0, "POB15_64": 246.0, "POB65_MAS": 17.0, "PROM_HNV": 2.17, "PNACENT": 345.0, "PNACENT_F": 179.0, "PNACENT_M": 167.0, "PNACOE": 59.0, "PNACOE_F": 29.0, "PNACOE_M": 29.0, "PRES2015": 339.0, "PRES2015_F": 178.0, "PRES2015_M": 162.0, "PRESOE15": 13.0, "PRESOE15_F": 6.0, "PRESOE15_M": 7.0, "P3YM_HLI": 4.0, "P3YM_HLI_F": 2.0, "P3YM_HLI_M": 2.0, "P3HLINHE": 1.0, "P3HLINHE_F": 1.0, "P3HLINHE_M": 1.0, "P3HLI_HE": 4.0, "P3HLI_HE_F": 2.0, "P3HLI_HE_M": 2.0, "P5_HLI": 4.0, "P5_HLI_NHE": 1.0, "P5_HLI_HE": 4.0, "PHOG_IND": 6.0, "POB_AFRO": 20.0, "POB_AFRO_F": 10.0, "POB_AFRO_M": 11.0, "PCON_DISC": 2.0, "PCDISC_MOT": 2.0, "PCDISC_VIS": 2.0, "PCDISC_LEN": 1.0, "PCDISC_AUD": 1.0, "PCDISC_M_1": 2.0, "PCDISC_MEN": 1.0, "PCON_LIM": 9.0, "PCLIM_CSB": 5.0, "PCLIM_VIS": 4.0, "PCLIM_HACO": 1.0, "PCLIM_OAUD": 3.0, "PCLIM_MOT2": 2.0, "PCLIM_RE_C": 2.0, "PCLIM_PMEN": 3.0, "PSIND_LIM": 393.0, "P3A5_NOA": 13.0, "P3A5_NOA_F": 8.0, "P3A5_NOA_M": 6.0, "P6A11_NOA": 2.0, "P6A11_NOA_": 2.0, "P6A11_NO_1": 2.0, "P12A14NOA": 5.0, "P12A14NOA_": 4.0, "P12A14NO_1": 2.0, "P15A17A": 19.0, "P15A17A_F": 12.0, "P15A17A_M": 7.0, "P18A24A": 4.0, "P18A24A_F": 4.0, "P18A24A_M": 2.0, "P8A14AN": 2.0, "P8A14AN_F": 1.0, "P8A14AN_M": 2.0, "P15YM_AN": 5.0, "P15YM_AN_F": 5.0, "P15YM_AN_M": 2.0, "P15YM_SE": 11.0, "P15YM_SE_F": 9.0, "P15YM_SE_M": 4.0, "P15PRI_IN": 28.0, "P15PRI_INF": 16.0, "P15PRI_INM": 12.0, "P15PRI_CO": 71.0, "P15PRI_COF": 31.0, "P15PRI_COM": 40.0, "P15SEC_IN": 7.0, "P15SEC_INF": 3.0, "P15SEC_INM": 5.0, "P15SEC_CO": 89.0, "P15SEC_COF": 50.0, "P15SEC_COM": 40.0, "P18YM_PB": 47.0, "P18YM_PB_F": 25.0, "P18YM_PB_M": 24.0, "GRAPROES": 7.82, "GRAPROES_F": 7.62, "GRAPROES_M": 7.93, "PEA": 167.0, "PEA_F": 57.0, "PEA_M": 110.0, "PE_INAC": 121.0, "PE_INAC_F": 98.0, "PE_INAC_M": 22.0, "POCUPADA": 165.0, "POCUPADA_F": 57.0, "POCUPADA_M": 109.0, "PDESOCUP": 2.0, "PDESOCUP_F": 2.0, "PDESOCUP_M": 2.0, "PSINDER": 133.0, "PDER_SS": 273.0, "PDER_IMSS": 141.0, "PDER_ISTE": 2.0, "PDER_ISTEE": 1.0, "PAFIL_PDOM": 3.0, "PDER_SEGP": 130.0, "PDER_IMSSB": 2.0, "PAFIL_IPDO": 1.0, "PAFIL_OTRA": 1.0, "P12YM_SOLT": 89.0, "P12YM_CASA": 175.0, "P12YM_SEPA": 26.0, "PCATOLICA": 337.0, "PRO_CRIEVA": 39.0, "POTRAS_REL": 1.0, "PSIN_RELIG": 30.0, "TOTHOG": 89.0, "HOGJEF_F": 45.0, "HOGJEF_M": 45.0, "POBHOG": 405.0, "PHOGJEF_F": 211.0, "PHOGJEF_M": 195.0, "VIVTOT": 112.0, "TVIVHAB": 89.0, "TVIVPAR": 105.0, "VIVPAR_HAB": 83.0, "TVIVPARHAB": 89.0, "VIVPAR_DES": 22.0, "VIVPAR_UT": 1.0, "OCUPVIVPAR": 405.0, "PROM_OCUP": 4.48, "PRO_OCUP_C": 1.4, "VPH_PISODT": 87.0, "VPH_PISOTI": 3.0, "VPH_1DOR": 30.0, "VPH_2YMASD": 60.0, "VPH_1CUART": 6.0, "VPH_2CUART": 14.0, "VPH_3YMASC": 69.0, "VPH_C_ELEC": 89.0, "VPH_S_ELEC": 1.0, "VPH_AGUADV": 89.0, "VPH_AEASP": 84.0, "VPH_AGUAFV": 1.0, "VPH_TINACO": 54.0, "VPH_CISTER": 51.0, "VPH_EXCSA": 89.0, "VPH_LETR": 1.0, "VPH_DRENAJ": 88.0, "VPH_NODREN": 2.0, "VPH_C_SERV": 88.0, "VPH_NDEAED": 1.0, "VPH_DSADMA": 88.0, "VPH_NDACMM": 50.0, "VPH_SNBIEN": 1.0, "VPH_REFRI": 84.0, "VPH_LAVAD": 64.0, "VPH_HMICRO": 31.0, "VPH_AUTOM": 34.0, "VPH_MOTO": 11.0, "VPH_BICI": 49.0, "VPH_RADIO": 68.0, "VPH_TV": 82.0, "VPH_PC": 15.0, "VPH_TELEF": 15.0, "VPH_CEL": 81.0, "VPH_INTER": 29.0, "VPH_STVP": 32.0, "VPH_SPMVI": 10.0, "VPH_CVJ": 7.0, "VPH_SINRTV": 5.0, "VPH_SINLTC": 6.0, "VPH_SINCIN": 58.0, "VPH_SINTIC": 2.0 }, "geometry": { "type": "Polygon", "coordinates": [ [ [ -103.509026908742712, 20.791039958191533 ], [ -103.508905532760778, 20.791014101650994 ], [ -103.508578203953888, 20.790905070450194 ], [ -103.507901244271977, 20.790679576935492 ], [ -103.507494894504916, 20.790544221306966 ], [ -103.505992582134226, 20.790072894218991 ], [ -103.504939918152218, 20.789714308829435 ], [ -103.505218904413638, 20.78936918752677 ], [ -103.50535217279743, 20.789204326472525 ], [ -103.506506602893182, 20.787776206134552 ], [ -103.506796191200152, 20.787417956989515 ], [ -103.507367805809011, 20.786647060662048 ], [ -103.50721392059036, 20.787052877301864 ], [ -103.506882157096669, 20.787893334904624 ], [ -103.508331714160079, 20.788314133318131 ], [ -103.508405608544734, 20.788314775548582 ], [ -103.508442267587739, 20.788315094147642 ], [ -103.509949800673454, 20.788670918075468 ], [ -103.509941661767826, 20.788850444068231 ], [ -103.509026908742712, 20.791039958191533 ] ] ] } },
{ "type": "Feature", "properties": { "NUMCOL": 3370.0, "MUNS": "Zapopan", "NOMBRE": "NEXTIPAC", "CP": 45100, "supm2": 3289953.17, "POBTOT": 2765.0, "POBFEM": 1376.0, "POBMAS": 1375.0, "P_0A2": 118.0, "P_0A2_F": 50.0, "P_0A2_M": 61.0, "P_3YMAS": 2628.0, "P_3YMAS__F": 1320.0, "P_3YMAS__M": 1310.0, "P_5YMAS": 2534.0, "P_5YMAS__F": 1283.0, "P_5YMAS__M": 1253.0, "P_12YMAS": 2166.0, "P_12YMAS_F": 1087.0, "P_12YMAS_M": 1081.0, "P_15YMAS": 1994.0, "P_15YMAS_F": 1008.0, "P_15YMAS_M": 988.0, "P_18YMAS": 1826.0, "P_18YMAS_F": 921.0, "P_18YMAS_M": 907.0, "P_3A5": 130.0, "P_3A5_F": 51.0, "P_3A5_M": 72.0, "P_6A11": 324.0, "P_6A11_F": 170.0, "P_6A11_M": 145.0, "P_8A14_": 394.0, "P_8A14_F": 198.0, "P_8A14_M": 185.0, "P_12A14": 168.0, "P_12A14_F": "72", "P_12A14_M": 85.0, "P_15A17": 165.0, "P_15A17_F": 84.0, "P_15A17_M": 74.0, "P_18A24": 382.0, "P_18A24_F": 182.0, "P_18A24_M": 193.0, "P_15A49_F": 730.0, "P_60YMAS": 272.0, "P_60YMAS_F": 145.0, "P_60YMAS_M": 117.0, "REL_H_M": 99.93, "POB0_14": 757.0, "POB15_64": 1817.0, "POB65_MAS": 175.0, "PROM_HNV": 2.4, "PNACENT": 2468.0, "PNACENT_F": 1236.0, "PNACENT_M": 1234.0, "PNACOE": 263.0, "PNACOE_F": 130.0, "PNACOE_M": 130.0, "PRES2015": 2491.0, "PRES2015_F": 1265.0, "PRES2015_M": 1228.0, "PRESOE15": 37.0, "PRESOE15_F": 18.0, "PRESOE15_M": 20.0, "P3YM_HLI": 91.0, "P3YM_HLI_F": 35.0, "P3YM_HLI_M": 55.0, "P3HLINHE": 4.0, "P3HLINHE_F": 4.0, "P3HLINHE_M": 2.0, "P3HLI_HE": 87.0, "P3HLI_HE_F": 31.0, "P3HLI_HE_M": 54.0, "P5_HLI": 91.0, "P5_HLI_NHE": 4.0, "P5_HLI_HE": 87.0, "PHOG_IND": 185.0, "POB_AFRO": 7.0, "POB_AFRO_F": 4.0, "POB_AFRO_M": 5.0, "PCON_DISC": 82.0, "PCDISC_MOT": 40.0, "PCDISC_VIS": 34.0, "PCDISC_LEN": 10.0, "PCDISC_AUD": 10.0, "PCDISC_M_1": 9.0, "PCDISC_MEN": 14.0, "PCON_LIM": 182.0, "PCLIM_CSB": 73.0, "PCLIM_VIS": 83.0, "PCLIM_HACO": 15.0, "PCLIM_OAUD": 19.0, "PCLIM_MOT2": 11.0, "PCLIM_RE_C": 29.0, "PCLIM_PMEN": 23.0, "PSIND_LIM": 2469.0, "P3A5_NOA": 35.0, "P3A5_NOA_F": 15.0, "P3A5_NOA_M": 18.0, "P6A11_NOA": 15.0, "P6A11_NOA_": 9.0, "P6A11_NO_1": 9.0, "P12A14NOA": 19.0, "P12A14NOA_": 9.0, "P12A14NO_1": 12.0, "P15A17A": 119.0, "P15A17A_F": 68.0, "P15A17A_M": 47.0, "P18A24A": 145.0, "P18A24A_F": 71.0, "P18A24A_M": 70.0, "P8A14AN": 7.0, "P8A14AN_F": 5.0, "P8A14AN_M": 6.0, "P15YM_AN": 65.0, "P15YM_AN_F": 31.0, "P15YM_AN_M": 37.0, "P15YM_SE": 90.0, "P15YM_SE_F": 48.0, "P15YM_SE_M": 43.0, "P15PRI_IN": 191.0, "P15PRI_INF": 98.0, "P15PRI_INM": 79.0, "P15PRI_CO": 254.0, "P15PRI_COF": 153.0, "P15PRI_COM": 102.0, "P15SEC_IN": 64.0, "P15SEC_INF": 20.0, "P15SEC_INM": 46.0, "P15SEC_CO": 580.0, "P15SEC_COF": 284.0, "P15SEC_COM": 292.0, "P18YM_PB": 730.0, "P18YM_PB_F": 343.0, "P18YM_PB_M": 385.0, "GRAPROES": 9.07, "GRAPROES_F": 8.8, "GRAPROES_M": 9.36, "PEA": 1341.0, "PEA_F": 506.0, "PEA_M": 833.0, "PE_INAC": 818.0, "PE_INAC_F": 577.0, "PE_INAC_M": 238.0, "POCUPADA": 1333.0, "POCUPADA_F": 503.0, "POCUPADA_M": 828.0, "PDESOCUP": 9.0, "PDESOCUP_F": 4.0, "PDESOCUP_M": 7.0, "PSINDER": 945.0, "PDER_SS": 1800.0, "PDER_IMSS": 1408.0, "PDER_ISTE": 30.0, "PDER_ISTEE": 4.0, "PAFIL_PDOM": 12.0, "PDER_SEGP": 315.0, "PDER_IMSSB": 8.0, "PAFIL_IPDO": 26.0, "PAFIL_OTRA": 18.0, "P12YM_SOLT": 864.0, "P12YM_CASA": 1124.0, "P12YM_SEPA": 174.0, "PCATOLICA": 2622.0, "PRO_CRIEVA": 79.0, "POTRAS_REL": 2.0, "PSIN_RELIG": 46.0, "TOTHOG": 616.0, "HOGJEF_F": 161.0, "HOGJEF_M": 451.0, "POBHOG": 2743.0, "PHOGJEF_F": 682.0, "PHOGJEF_M": 2062.0, "VIVTOT": 779.0, "TVIVHAB": 619.0, "TVIVPAR": 711.0, "VIVPAR_HAB": 553.0, "TVIVPARHAB": 616.0, "VIVPAR_DES": 91.0, "VIVPAR_UT": 55.0, "OCUPVIVPAR": 2743.0, "PROM_OCUP": 4.44, "PRO_OCUP_C": 1.07, "VPH_PISODT": 604.0, "VPH_PISOTI": 12.0, "VPH_1DOR": 106.0, "VPH_2YMASD": 506.0, "VPH_1CUART": 13.0, "VPH_2CUART": 67.0, "VPH_3YMASC": 529.0, "VPH_C_ELEC": 614.0, "VPH_S_ELEC": 4.0, "VPH_AGUADV": 615.0, "VPH_AEASP": 155.0, "VPH_AGUAFV": 3.0, "VPH_TINACO": 576.0, "VPH_CISTER": 508.0, "VPH_EXCSA": 615.0, "VPH_LETR": 2.0, "VPH_DRENAJ": 616.0, "VPH_NODREN": 2.0, "VPH_C_SERV": 613.0, "VPH_NDEAED": 2.0, "VPH_DSADMA": 615.0, "VPH_NDACMM": 237.0, "VPH_SNBIEN": 4.0, "VPH_REFRI": 592.0, "VPH_LAVAD": 533.0, "VPH_HMICRO": 328.0, "VPH_AUTOM": 346.0, "VPH_MOTO": 105.0, "VPH_BICI": 154.0, "VPH_RADIO": 488.0, "VPH_TV": 588.0, "VPH_PC": 245.0, "VPH_TELEF": 321.0, "VPH_CEL": 567.0, "VPH_INTER": 356.0, "VPH_STVP": 181.0, "VPH_SPMVI": 104.0, "VPH_CVJ": 68.0, "VPH_SINRTV": 11.0, "VPH_SINLTC": 24.0, "VPH_SINCIN": 224.0, "VPH_SINTIC": 6.0 }, "geometry": { "type": "Polygon", "coordinates": [ [ [ -103.530957258702159, 20.764310356066876 ], [ -103.53136324381984, 20.765119074060411 ], [ -103.531473449155797, 20.767359049363701 ], [ -103.531931455738814, 20.769306324590538 ], [ -103.530183235210544, 20.769291373239412 ], [ -103.528671962121649, 20.76942792306793 ], [ -103.528666171935029, 20.770025829710352 ], [ -103.529293209035373, 20.770928134558751 ], [ -103.54250588184172, 20.777095100717702 ], [ -103.53908727756189, 20.77721553820799 ], [ -103.536460481023923, 20.777641636785834 ], [ -103.534066308583391, 20.778667637379733 ], [ -103.532154705216001, 20.779099772840556 ], [ -103.530716296005593, 20.779909659056656 ], [ -103.525631666990805, 20.779716581374032 ], [ -103.522702918787303, 20.778495497078584 ], [ -103.52190095365043, 20.7792360378679 ], [ -103.518412322301501, 20.778383782559036 ], [ -103.518332853435908, 20.778383096798976 ], [ -103.517786783621574, 20.77733196496807 ], [ -103.516682257225554, 20.77650024090881 ], [ -103.515298321856406, 20.776143008994705 ], [ -103.516019160318038, 20.775195426742354 ], [ -103.514600506229343, 20.774901930973698 ], [ -103.519378273150139, 20.768974337959804 ], [ -103.515502820823485, 20.767973166298919 ], [ -103.517127781864801, 20.763289948886012 ], [ -103.517332509004135, 20.762998863547743 ], [ -103.518641467775296, 20.763751650054303 ], [ -103.519404124522879, 20.764014400385204 ], [ -103.521317368957142, 20.758578016741833 ], [ -103.521717033442414, 20.758630528369604 ], [ -103.521790568254616, 20.759233639387482 ], [ -103.521927281530367, 20.759480150695222 ], [ -103.521943718024772, 20.759509787713675 ], [ -103.522303978507182, 20.759854898139576 ], [ -103.522633320718441, 20.760040950861573 ], [ -103.523015138778447, 20.760172487915728 ], [ -103.523358001795657, 20.760303689363962 ], [ -103.52388938900161, 20.760412080506804 ], [ -103.524337084214153, 20.760446462983726 ], [ -103.525144812181381, 20.760850376656002 ], [ -103.526181919931446, 20.761036389618504 ], [ -103.526648563145471, 20.761125894966987 ], [ -103.526888555219728, 20.761152382286593 ], [ -103.527034244230052, 20.761206224271639 ], [ -103.526673413515027, 20.762726493186314 ], [ -103.526986616300178, 20.762801310367657 ], [ -103.527190973412615, 20.7627723508358 ], [ -103.527996678167383, 20.762602664502143 ], [ -103.528304775854025, 20.762677161443392 ], [ -103.529008339951659, 20.763154758646827 ], [ -103.529304549376178, 20.763344446737371 ], [ -103.529624237966189, 20.763542026211844 ], [ -103.529935806290268, 20.763721501800827 ], [ -103.530337371698138, 20.763954134708484 ], [ -103.530957258702159, 20.764310356066876 ] ] ] } },
{ "type": "Feature", "properties": { "NUMCOL": 3439.0, "MUNS": "Zapopan", "NOMBRE": "SAN JUAN DE OCOTAN", "CP": 45019, "supm2": 5228307.79, "POBTOT": 21411.0, "POBFEM": 10752.0, "POBMAS": 10655.0, "P_0A2": 1184.0, "P_0A2_F": 642.0, "P_0A2_M": 538.0, "P_3YMAS": 19512.0, "P_3YMAS__F": 9759.0, "P_3YMAS__M": 9756.0, "P_5YMAS": 18650.0, "P_5YMAS__F": 9336.0, "P_5YMAS__M": 9317.0, "P_12YMAS": 15836.0, "P_12YMAS_F": 7946.0, "P_12YMAS_M": 7893.0, "P_15YMAS": 14658.0, "P_15YMAS_F": 7357.0, "P_15YMAS_M": 7304.0, "P_18YMAS": 13492.0, "P_18YMAS_F": 6781.0, "P_18YMAS_M": 6713.0, "P_3A5": 1326.0, "P_3A5_F": 641.0, "P_3A5_M": 681.0, "P_6A11": 2351.0, "P_6A11_F": 1172.0, "P_6A11_M": 1181.0, "P_8A14_": 2754.0, "P_8A14_F": 1391.0, "P_8A14_M": 1366.0, "P_12A14": 1177.0, "P_12A14_F": "588", "P_12A14_M": 591.0, "P_15A17": 1165.0, "P_15A17_F": 576.0, "P_15A17_M": 588.0, "P_18A24": 2876.0, "P_18A24_F": 1412.0, "P_18A24_M": 1464.0, "P_15A49_F": 5806.0, "P_60YMAS": 1439.0, "P_60YMAS_F": 783.0, "P_60YMAS_M": 657.0, "REL_H_M": 99.1, "POB0_14": 6040.0, "POB15_64": 13747.0, "POB65_MAS": 912.0, "PROM_HNV": 2.1, "PNACENT": 16918.0, "PNACENT_F": 8551.0, "PNACENT_M": 8369.0, "PNACOE": 3690.0, "PNACOE_F": 1808.0, "PNACOE_M": 1883.0, "PRES2015": 17658.0, "PRES2015_F": 8872.0, "PRES2015_M": 8789.0, "PRESOE15": 935.0, "PRESOE15_F": 432.0, "PRESOE15_M": 502.0, "P3YM_HLI": 1216.0, "P3YM_HLI_F": 589.0, "P3YM_HLI_M": 627.0, "P3HLINHE": 9.0, "P3HLINHE_F": 6.0, "P3HLINHE_M": 6.0, "P3HLI_HE": 1202.0, "P3HLI_HE_F": 581.0, "P3HLI_HE_M": 621.0, "P5_HLI": 1203.0, "P5_HLI_NHE": 9.0, "P5_HLI_HE": 1189.0, "PHOG_IND": 2254.0, "POB_AFRO": 230.0, "POB_AFRO_F": 97.0, "POB_AFRO_M": 135.0, "PCON_DISC": 651.0, "PCDISC_MOT": 364.0, "PCDISC_VIS": 287.0, "PCDISC_LEN": 161.0, "PCDISC_AUD": 162.0, "PCDISC_M_1": 176.0, "PCDISC_MEN": 165.0, "PCON_LIM": 1163.0, "PCLIM_CSB": 446.0, "PCLIM_VIS": 612.0, "PCLIM_HACO": 103.0, "PCLIM_OAUD": 291.0, "PCLIM_MOT2": 94.0, "PCLIM_RE_C": 251.0, "PCLIM_PMEN": 244.0, "PSIND_LIM": 18715.0, "P3A5_NOA": 529.0, "P3A5_NOA_F": 247.0, "P3A5_NOA_M": 273.0, "P6A11_NOA": 130.0, "P6A11_NOA_": 54.0, "P6A11_NO_1": 71.0, "P12A14NOA": 136.0, "P12A14NOA_": 68.0, "P12A14NO_1": 68.0, "P15A17A": 714.0, "P15A17A_F": 346.0, "P15A17A_M": 359.0, "P18A24A": 672.0, "P18A24A_F": 315.0, "P18A24A_M": 352.0, "P8A14AN": 56.0, "P8A14AN_F": 24.0, "P8A14AN_M": 35.0, "P15YM_AN": 469.0, "P15YM_AN_F": 277.0, "P15YM_AN_M": 187.0, "P15YM_SE": 638.0, "P15YM_SE_F": 382.0, "P15YM_SE_M": 254.0, "P15PRI_IN": 1131.0, "P15PRI_INF": 636.0, "P15PRI_INM": 490.0, "P15PRI_CO": 3044.0, "P15PRI_COF": 1615.0, "P15PRI_COM": 1426.0, "P15SEC_IN": 665.0, "P15SEC_INF": 288.0, "P15SEC_INM": 366.0, "P15SEC_CO": 4650.0, "P15SEC_COF": 2208.0, "P15SEC_COM": 2446.0, "P18YM_PB": 4039.0, "P18YM_PB_F": 1974.0, "P18YM_PB_M": 2067.0, "GRAPROES": 8.84, "GRAPROES_F": 8.6, "GRAPROES_M": 9.08, "PEA": 10883.0, "PEA_F": 4599.0, "PEA_M": 6284.0, "PE_INAC": 4927.0, "PE_INAC_F": 3335.0, "PE_INAC_M": 1595.0, "POCUPADA": 10695.0, "POCUPADA_F": 4546.0, "POCUPADA_M": 6149.0, "PDESOCUP": 186.0, "PDESOCUP_F": 52.0, "PDESOCUP_M": 131.0, "PSINDER": 8118.0, "PDER_SS": 12556.0, "PDER_IMSS": 10058.0, "PDER_ISTE": 97.0, "PDER_ISTEE": 11.0, "PAFIL_PDOM": 146.0, "PDER_SEGP": 1727.0, "PDER_IMSSB": 23.0, "PAFIL_IPDO": 596.0, "PAFIL_OTRA": 103.0, "P12YM_SOLT": 5856.0, "P12YM_CASA": 8429.0, "P12YM_SEPA": 1535.0, "PCATOLICA": 18757.0, "PRO_CRIEVA": 908.0, "POTRAS_REL": 25.0, "PSIN_RELIG": 971.0, "TOTHOG": 5064.0, "HOGJEF_F": 1858.0, "HOGJEF_M": 3203.0, "POBHOG": 21339.0, "PHOGJEF_F": 7616.0, "PHOGJEF_M": 13724.0, "VIVTOT": 5591.0, "TVIVHAB": 5068.0, "TVIVPAR": 4970.0, "VIVPAR_HAB": 4447.0, "TVIVPARHAB": 5064.0, "VIVPAR_DES": 406.0, "VIVPAR_UT": 107.0, "OCUPVIVPAR": 21339.0, "PROM_OCUP": 4.21, "PRO_OCUP_C": 1.18, "VPH_PISODT": 4722.0, "VPH_PISOTI": 125.0, "VPH_1DOR": 1344.0, "VPH_2YMASD": 3504.0, "VPH_1CUART": 349.0, "VPH_2CUART": 978.0, "VPH_3YMASC": 3517.0, "VPH_C_ELEC": 4844.0, "VPH_S_ELEC": 9.0, "VPH_AGUADV": 4769.0, "VPH_AEASP": 2593.0, "VPH_AGUAFV": 76.0, "VPH_TINACO": 3764.0, "VPH_CISTER": 4019.0, "VPH_EXCSA": 4844.0, "VPH_LETR": 5.0, "VPH_DRENAJ": 4847.0, "VPH_NODREN": 5.0, "VPH_C_SERV": 4761.0, "VPH_NDEAED": 3.0, "VPH_DSADMA": 4843.0, "VPH_NDACMM": 3031.0, "VPH_SNBIEN": 16.0, "VPH_REFRI": 4402.0, "VPH_LAVAD": 3308.0, "VPH_HMICRO": 2079.0, "VPH_AUTOM": 1605.0, "VPH_MOTO": 463.0, "VPH_BICI": 3047.0, "VPH_RADIO": 3420.0, "VPH_TV": 4503.0, "VPH_PC": 1441.0, "VPH_TELEF": 1767.0, "VPH_CEL": 4450.0, "VPH_INTER": 2407.0, "VPH_STVP": 974.0, "VPH_SPMVI": 753.0, "VPH_CVJ": 545.0, "VPH_SINRTV": 204.0, "VPH_SINLTC": 283.0, "VPH_SINCIN": 2240.0, "VPH_SINTIC": 34.0 }, "geometry": { "type": "Polygon", "coordinates": [ [ [ -103.467797321867778, 20.702091891998812 ], [ -103.46785801168862, 20.702091553467934 ], [ -103.467873182472374, 20.702052669303665 ], [ -103.46820435049284, 20.701143824035416 ], [ -103.468319474790846, 20.700340959220416 ], [ -103.468541452975373, 20.698703772948193 ], [ -103.468649034734355, 20.698660340763361 ], [ -103.469483020402876, 20.698630397934579 ], [ -103.47065062137186, 20.698699471529785 ], [ -103.470283180519118, 20.70083805102923 ], [ -103.470362232864858, 20.700924699043966 ], [ -103.47124226194552, 20.700835828763303 ], [ -103.471142210467761, 20.701002053137014 ], [ -103.471130507871109, 20.701021495666872 ], [ -103.470801475959789, 20.701643401189017 ], [ -103.470742319619205, 20.701755217620576 ], [ -103.470723177915076, 20.701791391963766 ], [ -103.4697401681549, 20.70303961771954 ], [ -103.469578048486184, 20.703124987489055 ], [ -103.468466083782332, 20.703710485836545 ], [ -103.467442953032815, 20.704013505819809 ], [ -103.466124212932371, 20.704404065266317 ], [ -103.465168115848286, 20.704674869388622 ], [ -103.464996650418769, 20.704694827382085 ], [ -103.464774837894197, 20.704612275859105 ], [ -103.464564171743973, 20.704556681470304 ], [ -103.464324964288522, 20.704500832296134 ], [ -103.464220279353384, 20.70450609721016 ], [ -103.464152060634959, 20.70450957404535 ], [ -103.464274209014349, 20.704824460265389 ], [ -103.464351372989071, 20.704936540665855 ], [ -103.464425420523398, 20.704999649690105 ], [ -103.464537895334431, 20.705114637534262 ], [ -103.464570002582533, 20.705154400283007 ], [ -103.464760576414804, 20.705491748677058 ], [ -103.464977008408553, 20.705750645548573 ], [ -103.465173237124773, 20.705983255241929 ], [ -103.465196845020614, 20.705985182049268 ], [ -103.465219080994402, 20.706001315370646 ], [ -103.465255020186518, 20.706021915953531 ], [ -103.465284361655719, 20.706040813622195 ], [ -103.465318655060642, 20.706060866545872 ], [ -103.465350746151003, 20.706080339756149 ], [ -103.465379993398386, 20.706102877074869 ], [ -103.465410309613858, 20.706126995747457 ], [ -103.465442788998644, 20.70615272359256 ], [ -103.465474194251271, 20.706177384938087 ], [ -103.465505708539723, 20.706197891834758 ], [ -103.465542662560281, 20.706221645068126 ], [ -103.465581291966529, 20.706244916381607 ], [ -103.465624908160891, 20.706267789484855 ], [ -103.465665218148843, 20.706290064003888 ], [ -103.465700182748037, 20.706305443478595 ], [ -103.465735689182225, 20.706321360751993 ], [ -103.465771737451973, 20.706337815823812 ], [ -103.465805056353901, 20.706352638603196 ], [ -103.465838399644127, 20.706366946683552 ], [ -103.465876749865444, 20.706379808840548 ], [ -103.465918894020035, 20.706395369678958 ], [ -103.465960491173746, 20.706410907566916 ], [ -103.465999930348005, 20.706424321410442 ], [ -103.466042222975361, 20.70643467120566 ], [ -103.466083929164654, 20.706446054620255 ], [ -103.466124640567926, 20.706453255679676 ], [ -103.466170294325039, 20.706461611880432 ], [ -103.466209887064153, 20.706469308831316 ], [ -103.466250563649709, 20.706478063315739 ], [ -103.466289564865633, 20.706487299710322 ], [ -103.466337411470363, 20.706496226445392 ], [ -103.466391298966528, 20.70650686010779 ], [ -103.466448527621139, 20.706516529826278 ], [ -103.466507943931376, 20.706527284965148 ], [ -103.46655901744731, 20.706539926054305 ], [ -103.466606054384727, 20.706558719137 ], [ -103.466647995462708, 20.706582073917975 ], [ -103.466682791857508, 20.706603693862295 ], [ -103.466714365796051, 20.706622114339272 ], [ -103.466748659534744, 20.706642166996726 ], [ -103.46678580220663, 20.706658649678236 ], [ -103.466829000744653, 20.706676306433611 ], [ -103.466876052630653, 20.706694575635439 ], [ -103.466923552242633, 20.706717013262338 ], [ -103.466968775275362, 20.706741481214518 ], [ -103.467011879652375, 20.706762777594719 ], [ -103.467051657666929, 20.706784523125148 ], [ -103.467089268265369, 20.706804126473703 ], [ -103.467125237474576, 20.70682369713419 ], [ -103.467159566230407, 20.706842187228037 ], [ -103.46719829017313, 20.706861827566581 ], [ -103.467235348439999, 20.706881940878322 ], [ -103.467267981801356, 20.706901951556613 ], [ -103.467294618679617, 20.706918701949817 ], [ -103.467322916164449, 20.70693548518874 ], [ -103.46735008011396, 20.706953288153844 ], [ -103.467377850461702, 20.70696902783747 ], [ -103.467405118223155, 20.706983191211219 ], [ -103.467436214961651, 20.706998481719186 ], [ -103.467461792489132, 20.707013650826692 ], [ -103.467484650214303, 20.707027187755706 ], [ -103.467501481798976, 20.707038502999815 ], [ -103.467526876214066, 20.707060427539339 ], [ -103.467547870181676, 20.707081725730117 ], [ -103.467563050865493, 20.707092999174073 ], [ -103.467584804713269, 20.707106517232138 ], [ -103.467602242703961, 20.707115769188952 ], [ -103.467627281007211, 20.707127844255975 ], [ -103.467649661388222, 20.707138251319044 ], [ -103.468233984689519, 20.707802120855508 ], [ -103.468272077972486, 20.707806605904004 ], [ -103.468516245824503, 20.707812346254773 ], [ -103.468540549377892, 20.707812914746867 ], [ -103.468568173972685, 20.707813566977215 ], [ -103.468594078774657, 20.707816254514949 ], [ -103.46863291219924, 20.707831731072734 ], [ -103.468687020558534, 20.707854850337757 ], [ -103.468737196251283, 20.707880473028631 ], [ -103.468774225347701, 20.70790162462621 ], [ -103.468801483815426, 20.707915787710419 ], [ -103.468823317201299, 20.707926189765629 ], [ -103.468843967561909, 20.707939670761142 ], [ -103.46886406112813, 20.707953146802616 ], [ -103.468890653877793, 20.707971459372679 ], [ -103.468913402852777, 20.707989159610889 ], [ -103.468953570071207, 20.708017141320944 ], [ -103.46897908866174, 20.70803438740413 ], [ -103.469000862810134, 20.708046866621284 ], [ -103.469018355096338, 20.708054556127657 ], [ -103.469037059728095, 20.708061542679197 ], [ -103.469060372011498, 20.708070440310944 ], [ -103.469071580000445, 20.708090133681651 ], [ -103.469088909267356, 20.708103539950631 ], [ -103.46910567656731, 20.708117456131721 ], [ -103.469128943065058, 20.708136208833906 ], [ -103.46915391458792, 20.708153440995119 ], [ -103.469175748124698, 20.708163833976254 ], [ -103.469209389409983, 20.708166707649983 ], [ -103.4692324950542, 20.708170887838588 ], [ -103.469252821406002, 20.708175531123338 ], [ -103.469277572807655, 20.708180267949921 ], [ -103.469309971633336, 20.708188315799084 ], [ -103.469342942032512, 20.708195853813255 ], [ -103.469364914237588, 20.708201044695514 ], [ -103.469388552140245, 20.70820576257346 ], [ -103.469409997180676, 20.708209909908391 ], [ -103.469429279080074, 20.708212439076764 ], [ -103.469458490164342, 20.708215734027196 ], [ -103.469489213713672, 20.708224254760626 ], [ -103.469508386604204, 20.708230947405088 ], [ -103.46952916076188, 20.708239759092752 ], [ -103.469556419366498, 20.708253922065008 ], [ -103.4695870287498, 20.70826712113152 ], [ -103.469614957926325, 20.708261353071197 ], [ -103.469642858865853, 20.708267003128089 ], [ -103.469663516167273, 20.708272155184655 ], [ -103.469683058769647, 20.708278363286372 ], [ -103.469704840944445, 20.708287183913548 ], [ -103.46972496556198, 20.708297579705107 ], [ -103.469751233065125, 20.708310053603345 ], [ -103.469781984977558, 20.708327228653626 ], [ -103.469817208373058, 20.708347523872334 ], [ -103.469851886899662, 20.708370452030451 ], [ -103.469885473449523, 20.70839599923249 ], [ -103.469920746027967, 20.708425743934207 ], [ -103.46995713674302, 20.70845600444364 ], [ -103.469990180957993, 20.708486804317946 ], [ -103.470017091800301, 20.708515535204842 ], [ -103.470037289841287, 20.708540620124637 ], [ -103.470051331876917, 20.708562064027422 ], [ -103.470062041340853, 20.708584571370626 ], [ -103.470076677420863, 20.708612831827701 ], [ -103.47009077297156, 20.708644249213719 ], [ -103.470103194609678, 20.708674088924223 ], [ -103.470115585862658, 20.70870026075325 ], [ -103.470125734111363, 20.708722248195198 ], [ -103.470142028783883, 20.708747876563763 ], [ -103.47016505365238, 20.708779246822388 ], [ -103.470188081037989, 20.70881323682265 ], [ -103.470213336829318, 20.708846171632032 ], [ -103.470234665089095, 20.708874401207549 ], [ -103.470248699413943, 20.708893749250517 ], [ -103.470261046703897, 20.70890995670295 ], [ -103.470275055990911, 20.70892510393282 ], [ -103.470295791141524, 20.708945469065583 ], [ -103.470319887351693, 20.708970543425359 ], [ -103.470348469017935, 20.708999262011851 ], [ -103.470382632471413, 20.709029529752538 ], [ -103.470423482727938, 20.70906029953959 ], [ -103.470465435681177, 20.709087384402924 ], [ -103.470508478210334, 20.709109221425287 ], [ -103.470555930782623, 20.709122127325617 ], [ -103.470599451551365, 20.709129794974181 ], [ -103.470639630963788, 20.709137487130626 ], [ -103.470677005291762, 20.709141513849126 ], [ -103.470719379366798, 20.709142902015085 ], [ -103.47076175879053, 20.709143757240117 ], [ -103.470801905384505, 20.709145152700351 ], [ -103.470835368615496, 20.709147617978775 ], [ -103.470860476708808, 20.709152231287028 ], [ -103.470882808201722, 20.70915895184211 ], [ -103.47090851046454, 20.709170372665991 ], [ -103.470933672211473, 20.709184950419623 ], [ -103.470961631374607, 20.709201088714675 ], [ -103.470988476846628, 20.709217226147853 ], [ -103.471009161917053, 20.709229198610561 ], [ -103.471028721171436, 20.709238550383269 ], [ -103.471046617523911, 20.709250010264252 ], [ -103.471064523479228, 20.709261470228796 ], [ -103.471085221595743, 20.7092750146324 ], [ -103.471101446363619, 20.709287534652614 ], [ -103.471118803212164, 20.709301094547126 ], [ -103.471133369516878, 20.70931623762608 ], [ -103.47115804020126, 20.709343403724304 ], [ -103.471173733246886, 20.709360119606274 ], [ -103.471191118613731, 20.709379452170932 ], [ -103.47120459630348, 20.709398795200759 ], [ -103.471215858452055, 20.709420783445751 ], [ -103.471228250863504, 20.709445907327208 ], [ -103.471240090819606, 20.709471550246651 ], [ -103.47124912023375, 20.709494069708253 ], [ -103.471258719580803, 20.709518157030519 ], [ -103.471271681937068, 20.709544848770605 ], [ -103.471288001959437, 20.709574677858441 ], [ -103.471302102277662, 20.709606610113436 ], [ -103.471314505933734, 20.709635401701476 ], [ -103.471326341481301, 20.709660529665843 ], [ -103.47133481158599, 20.709680424434541 ], [ -103.471343263401906, 20.709699271151376 ], [ -103.47135004118671, 20.709716549236777 ], [ -103.471357433795831, 20.709744320705902 ], [ -103.471356446256834, 20.709770030388004 ], [ -103.47135542677232, 20.709788395529049 ], [ -103.471353293585693, 20.709806759814494 ], [ -103.471351707603901, 20.709825128958755 ], [ -103.471350695899389, 20.709845589946912 ], [ -103.471350262727114, 20.709868675794823 ], [ -103.471350388977555, 20.709894377299324 ], [ -103.471350524827812, 20.709920078888945 ], [ -103.471350647641771, 20.709944208529134 ], [ -103.471350769546078, 20.709969386050258 ], [ -103.471352592467554, 20.709998228220361 ], [ -103.471356098116345, 20.710029686987856 ], [ -103.471363501955153, 20.710061126168146 ], [ -103.471373675629053, 20.710087305329854 ], [ -103.47138826275777, 20.710106125221539 ], [ -103.471405623158404, 20.710121256957425 ], [ -103.471428565301295, 20.710137946851898 ], [ -103.471456540255474, 20.71015827677363 ], [ -103.471492920558347, 20.71018486025309 ], [ -103.471532657555571, 20.710215637984117 ], [ -103.471576298107848, 20.710245863184557 ], [ -103.471609311079249, 20.710269318245249 ], [ -103.471635021280008, 20.710282843854465 ], [ -103.471657369454277, 20.710292708134443 ], [ -103.471675286801556, 20.710307835756335 ], [ -103.471676520020182, 20.710330385355185 ], [ -103.471676613364139, 20.710349799233985 ], [ -103.471676725091413, 20.710370252131593 ], [ -103.471676826220431, 20.71039176185775 ], [ -103.471676929254627, 20.710411166788948 ], [ -103.471677031290682, 20.710431628633913 ], [ -103.471677149804677, 20.710455234292581 ], [ -103.471677268318444, 20.710478839951175 ], [ -103.471676835277592, 20.710501916768536 ], [ -103.471676392281452, 20.710524997792195 ], [ -103.471598249710482, 20.711713992349612 ], [ -103.471537299398122, 20.712446548846227 ], [ -103.472195543960083, 20.712410016086245 ], [ -103.472211825092657, 20.712337079599529 ], [ -103.47309804269608, 20.71216728015369 ], [ -103.472730738238241, 20.713940889570612 ], [ -103.472137071899908, 20.714507812737342 ], [ -103.472082729206008, 20.714558349225378 ], [ -103.472028386476239, 20.714608885693792 ], [ -103.472009346236035, 20.714626592331051 ], [ -103.471881620373196, 20.714745371815873 ], [ -103.473979379229945, 20.715824086678516 ], [ -103.473932471929004, 20.71594721792269 ], [ -103.473885564546151, 20.716070349147696 ], [ -103.472314811857174, 20.715595834694714 ], [ -103.472151901679894, 20.715549840129444 ], [ -103.47186492824919, 20.715468805965429 ], [ -103.471699402652689, 20.715406765703776 ], [ -103.470737156523853, 20.71504607427039 ], [ -103.46986353576068, 20.714678848587301 ], [ -103.468793842919396, 20.714110173807772 ], [ -103.468461817335339, 20.7138936129397 ], [ -103.46847504943446, 20.714287233732307 ], [ -103.468636943469448, 20.714468746420639 ], [ -103.469013066116389, 20.714901662367467 ], [ -103.469106618765778, 20.715000124031643 ], [ -103.469462755400329, 20.715356927231714 ], [ -103.469802884465764, 20.715700570179383 ], [ -103.469866921404474, 20.715753208591931 ], [ -103.469949491199159, 20.715797333545712 ], [ -103.469995343964868, 20.715823775706653 ], [ -103.470040935342396, 20.715876250091398 ], [ -103.470141428167736, 20.715972603394679 ], [ -103.470370344129918, 20.71613952350598 ], [ -103.47055305915022, 20.71631471098015 ], [ -103.470726638808515, 20.716481138921832 ], [ -103.470863849830963, 20.71659517446448 ], [ -103.471153375594085, 20.717032914045735 ], [ -103.472035935973736, 20.718367256575394 ], [ -103.472290090089771, 20.718777387795779 ], [ -103.472357783501977, 20.718925517931865 ], [ -103.472351605665907, 20.719081670519561 ], [ -103.472226311603734, 20.719158666694781 ], [ -103.472042503144777, 20.719091943716034 ], [ -103.471164097505962, 20.71884549241512 ], [ -103.469494739653371, 20.718370710900874 ], [ -103.46828949480269, 20.718064930294283 ], [ -103.467936965764096, 20.717949585071814 ], [ -103.467833515983017, 20.718623081522832 ], [ -103.467759528429099, 20.719117898044725 ], [ -103.467769944845003, 20.71918074571072 ], [ -103.467775322831642, 20.719279737598686 ], [ -103.467762692284978, 20.719426541998185 ], [ -103.467725499073637, 20.719639090361458 ], [ -103.467678127808881, 20.719913013288942 ], [ -103.467614095823478, 20.720318999736893 ], [ -103.467578946414221, 20.720585249082433 ], [ -103.467485273138252, 20.721026664501352 ], [ -103.467401128976391, 20.721471165035148 ], [ -103.467312328704963, 20.722219949595203 ], [ -103.467305261591804, 20.72228884758735 ], [ -103.467260045732516, 20.722348413321257 ], [ -103.467196253080161, 20.722353841682907 ], [ -103.467094462424967, 20.722334945111236 ], [ -103.467014870950578, 20.722314918316815 ], [ -103.465896037881151, 20.722033427310521 ], [ -103.465361896387606, 20.721908734520998 ], [ -103.46530312547084, 20.721890220574323 ], [ -103.465349801624129, 20.72167465638341 ], [ -103.465179737731177, 20.721638176864097 ], [ -103.465255639356144, 20.721211941852015 ], [ -103.465393826624648, 20.720478387125389 ], [ -103.46541874625261, 20.720346102598192 ], [ -103.465457842466051, 20.720139484361905 ], [ -103.465502804170654, 20.719948714523422 ], [ -103.465561626569055, 20.719699133726088 ], [ -103.465658674726612, 20.719287360618235 ], [ -103.465755722284385, 20.718875587403765 ], [ -103.46579078957339, 20.718673434882078 ], [ -103.46421315576184, 20.717859864129004 ], [ -103.464381840819641, 20.716560775632722 ], [ -103.463638197674769, 20.716126238071784 ], [ -103.462826807851997, 20.715882521767071 ], [ -103.462624878815859, 20.716916688394104 ], [ -103.461833938714804, 20.716425418020499 ], [ -103.461718778593678, 20.716457129777144 ], [ -103.461552598006989, 20.717575148286048 ], [ -103.460030165649684, 20.717430512365357 ], [ -103.459648789660747, 20.717891796341679 ], [ -103.459510240334041, 20.718347376897633 ], [ -103.458455616140313, 20.718330057170501 ], [ -103.458279194599527, 20.718391486513021 ], [ -103.458110984877337, 20.719295744141537 ], [ -103.458160172890189, 20.719398575627817 ], [ -103.457920477541322, 20.72068900793855 ], [ -103.457743225636676, 20.721731603661549 ], [ -103.457715893337053, 20.721763828199084 ], [ -103.45463289019672, 20.721319279585661 ], [ -103.454473592159232, 20.721283816159751 ], [ -103.454811188887277, 20.720163766716091 ], [ -103.455339127197348, 20.718385151074795 ], [ -103.455621013246741, 20.717436227178318 ], [ -103.455823377674903, 20.716754991405125 ], [ -103.455757114935921, 20.716745353148941 ], [ -103.454992218074423, 20.71663409304923 ], [ -103.453567872210684, 20.716426902252188 ], [ -103.453545659078259, 20.71642367073758 ], [ -103.453495994527984, 20.716416446296972 ], [ -103.453332429470876, 20.716392651963918 ], [ -103.453335661597421, 20.717021436478745 ], [ -103.453325036736629, 20.717120856860507 ], [ -103.453318021624426, 20.717186505349936 ], [ -103.453231263251482, 20.717359754763386 ], [ -103.453182725180611, 20.717520776414666 ], [ -103.453173336893244, 20.717551921354374 ], [ -103.453083272878573, 20.717850701211137 ], [ -103.452748701705005, 20.717733866833019 ], [ -103.452337126054928, 20.717577202553272 ], [ -103.452225602330387, 20.717545338631957 ], [ -103.451883065176446, 20.71739398500576 ], [ -103.451633464459647, 20.717237320726007 ], [ -103.451405106357029, 20.717210767458241 ], [ -103.450791725872108, 20.717040826544583 ], [ -103.45005354502878, 20.716860264323877 ], [ -103.449904846729424, 20.716788570500942 ], [ -103.449795978331636, 20.71672484265833 ], [ -103.449612760766072, 20.716715549111463 ], [ -103.449408944883629, 20.716650576698708 ], [ -103.449003832851417, 20.716469589867557 ], [ -103.44816532585898, 20.716361272065285 ], [ -103.447349645375127, 20.716535282284099 ], [ -103.4459338055226, 20.716931958173284 ], [ -103.44523199429608, 20.716681410307427 ], [ -103.444868548756133, 20.716577685566207 ], [ -103.444285542784598, 20.716656736238107 ], [ -103.443727886722755, 20.716732301910355 ], [ -103.443230826729831, 20.716777308646968 ], [ -103.442852298816049, 20.716865574977422 ], [ -103.442639690600643, 20.716929357744352 ], [ -103.442183539949951, 20.717117606540196 ], [ -103.442160289144709, 20.717127201868063 ], [ -103.441723490515969, 20.717126193492906 ], [ -103.4416654545781, 20.717106624235779 ], [ -103.440956162268421, 20.716949132275257 ], [ -103.442334091431547, 20.714638999097367 ], [ -103.443044631700062, 20.713887353535235 ], [ -103.443737859010639, 20.713151677313487 ], [ -103.443620671113763, 20.712876420549328 ], [ -103.443637900729783, 20.712725080449161 ], [ -103.446170749440881, 20.712972040498457 ], [ -103.446537400324758, 20.71289450134336 ], [ -103.447511780205332, 20.713062765006448 ], [ -103.44757835593748, 20.712944713834855 ], [ -103.447788916617711, 20.71255132483811 ], [ -103.447575534893588, 20.712501726271025 ], [ -103.447507750020122, 20.712484668483206 ], [ -103.447131171449072, 20.712421186065683 ], [ -103.447233815018166, 20.712036047930397 ], [ -103.447301298075786, 20.711664030041653 ], [ -103.447374729029448, 20.711259220299063 ], [ -103.446258176239994, 20.71115308915817 ], [ -103.446137609330293, 20.711141628554017 ], [ -103.445854367158191, 20.71111881457438 ], [ -103.445623114241741, 20.711100187764373 ], [ -103.445066546371891, 20.711058559812916 ], [ -103.444255390668587, 20.710997886965178 ], [ -103.44402042362114, 20.710981373962206 ], [ -103.443988346905115, 20.710979119651252 ], [ -103.443823867751576, 20.710966807746047 ], [ -103.443792202428853, 20.710964433432487 ], [ -103.443563922047446, 20.710922437368563 ], [ -103.443368670986217, 20.710878521210674 ], [ -103.443128693495012, 20.710827544971195 ], [ -103.442919433059032, 20.710770190857581 ], [ -103.442350959322255, 20.71062554678829 ], [ -103.441934068263052, 20.710519463471311 ], [ -103.440972101515939, 20.710286690174875 ], [ -103.440654756564342, 20.710192859204206 ], [ -103.440286820065083, 20.71007844564355 ], [ -103.443304207643038, 20.708678697204288 ], [ -103.4446695553344, 20.708050044677513 ], [ -103.444848834493712, 20.707957696657349 ], [ -103.445064085599469, 20.707835469480365 ], [ -103.445157394064367, 20.707779260462367 ], [ -103.44524713605864, 20.707723019183721 ], [ -103.445365717234225, 20.707636834420839 ], [ -103.445498734987666, 20.707534000000223 ], [ -103.445595814832998, 20.707457688879309 ], [ -103.445714566695912, 20.707354725478844 ], [ -103.445822619218475, 20.707251665407135 ], [ -103.445891099164953, 20.707181807899765 ], [ -103.445959613258822, 20.707108594686385 ], [ -103.446140019409725, 20.706905507929367 ], [ -103.446233636963797, 20.706789538370906 ], [ -103.447613832470893, 20.7050797271229 ], [ -103.448774775304685, 20.703618334158161 ], [ -103.449159649803093, 20.703133001672196 ], [ -103.450541218521337, 20.701390802332654 ], [ -103.452243556436287, 20.699276664440571 ], [ -103.454229855782316, 20.696809711708053 ], [ -103.454513138987025, 20.696457728836101 ], [ -103.454744668344063, 20.696142882269434 ], [ -103.454871875762365, 20.695982875694146 ], [ -103.455061028423557, 20.69576568417062 ], [ -103.455409550201509, 20.696158245875907 ], [ -103.455758074002631, 20.696550811137559 ], [ -103.458895345093353, 20.700177878249683 ], [ -103.460418353238438, 20.701985663112016 ], [ -103.461449549179335, 20.700501524548436 ], [ -103.461749189854388, 20.70022487790758 ], [ -103.462428049943099, 20.69856579339362 ], [ -103.463648565937575, 20.698684066713607 ], [ -103.463991483291096, 20.698644152385075 ], [ -103.465290716553383, 20.698672403933962 ], [ -103.465308552063064, 20.69872204791012 ], [ -103.465304934156606, 20.698740396558673 ], [ -103.465301316249111, 20.698758745207055 ], [ -103.46504140350541, 20.700076909616588 ], [ -103.465004216983417, 20.700265501226355 ], [ -103.464998613205282, 20.700327532158692 ], [ -103.464993009420837, 20.700389563090123 ], [ -103.46526896066932, 20.700429505254846 ], [ -103.465219423417253, 20.700729960804992 ], [ -103.464993197148971, 20.702102059775306 ], [ -103.465505203625725, 20.702188616511961 ], [ -103.465913100549415, 20.702229733508819 ], [ -103.467256794997326, 20.702131108916266 ], [ -103.467797321867778, 20.702091891998812 ] ] ] } },
{ "type": "Feature", "properties": { "NUMCOL": 4100.0, "MUNS": "Zapopan", "NOMBRE": "FUENTES NEXTIPAC", "CP": 45100, "supm2": 22485.93, "POBTOT": null, "POBFEM": null, "POBMAS": null, "P_0A2": null, "P_0A2_F": null, "P_0A2_M": null, "P_3YMAS": null, "P_3YMAS__F": null, "P_3YMAS__M": null, "P_5YMAS": null, "P_5YMAS__F": null, "P_5YMAS__M": null, "P_12YMAS": null, "P_12YMAS_F": null, "P_12YMAS_M": null, "P_15YMAS": null, "P_15YMAS_F": null, "P_15YMAS_M": null, "P_18YMAS": null, "P_18YMAS_F": null, "P_18YMAS_M": null, "P_3A5": null, "P_3A5_F": null, "P_3A5_M": null, "P_6A11": null, "P_6A11_F": null, "P_6A11_M": null, "P_8A14_": null, "P_8A14_F": null, "P_8A14_M": null, "P_12A14": null, "P_12A14_F": null, "P_12A14_M": null, "P_15A17": null, "P_15A17_F": null, "P_15A17_M": null, "P_18A24": null, "P_18A24_F": null, "P_18A24_M": null, "P_15A49_F": null, "P_60YMAS": null, "P_60YMAS_F": null, "P_60YMAS_M": null, "REL_H_M": null, "POB0_14": null, "POB15_64": null, "POB65_MAS": null, "PROM_HNV": null, "PNACENT": null, "PNACENT_F": null, "PNACENT_M": null, "PNACOE": null, "PNACOE_F": null, "PNACOE_M": null, "PRES2015": null, "PRES2015_F": null, "PRES2015_M": null, "PRESOE15": null, "PRESOE15_F": null, "PRESOE15_M": null, "P3YM_HLI": null, "P3YM_HLI_F": null, "P3YM_HLI_M": null, "P3HLINHE": null, "P3HLINHE_F": null, "P3HLINHE_M": null, "P3HLI_HE": null, "P3HLI_HE_F": null, "P3HLI_HE_M": null, "P5_HLI": null, "P5_HLI_NHE": null, "P5_HLI_HE": null, "PHOG_IND": null, "POB_AFRO": null, "POB_AFRO_F": null, "POB_AFRO_M": null, "PCON_DISC": null, "PCDISC_MOT": null, "PCDISC_VIS": null, "PCDISC_LEN": null, "PCDISC_AUD": null, "PCDISC_M_1": null, "PCDISC_MEN": null, "PCON_LIM": null, "PCLIM_CSB": null, "PCLIM_VIS": null, "PCLIM_HACO": null, "PCLIM_OAUD": null, "PCLIM_MOT2": null, "PCLIM_RE_C": null, "PCLIM_PMEN": null, "PSIND_LIM": null, "P3A5_NOA": null, "P3A5_NOA_F": null, "P3A5_NOA_M": null, "P6A11_NOA": null, "P6A11_NOA_": null, "P6A11_NO_1": null, "P12A14NOA": null, "P12A14NOA_": null, "P12A14NO_1": null, "P15A17A": null, "P15A17A_F": null, "P15A17A_M": null, "P18A24A": null, "P18A24A_F": null, "P18A24A_M": null, "P8A14AN": null, "P8A14AN_F": null, "P8A14AN_M": null, "P15YM_AN": null, "P15YM_AN_F": null, "P15YM_AN_M": null, "P15YM_SE": null, "P15YM_SE_F": null, "P15YM_SE_M": null, "P15PRI_IN": null, "P15PRI_INF": null, "P15PRI_INM": null, "P15PRI_CO": null, "P15PRI_COF": null, "P15PRI_COM": null, "P15SEC_IN": null, "P15SEC_INF": null, "P15SEC_INM": null, "P15SEC_CO": null, "P15SEC_COF": null, "P15SEC_COM": null, "P18YM_PB": null, "P18YM_PB_F": null, "P18YM_PB_M": null, "GRAPROES": null, "GRAPROES_F": null, "GRAPROES_M": null, "PEA": null, "PEA_F": null, "PEA_M": null, "PE_INAC": null, "PE_INAC_F": null, "PE_INAC_M": null, "POCUPADA": null, "POCUPADA_F": null, "POCUPADA_M": null, "PDESOCUP": null, "PDESOCUP_F": null, "PDESOCUP_M": null, "PSINDER": null, "PDER_SS": null, "PDER_IMSS": null, "PDER_ISTE": null, "PDER_ISTEE": null, "PAFIL_PDOM": null, "PDER_SEGP": null, "PDER_IMSSB": null, "PAFIL_IPDO": null, "PAFIL_OTRA": null, "P12YM_SOLT": null, "P12YM_CASA": null, "P12YM_SEPA": null, "PCATOLICA": null, "PRO_CRIEVA": null, "POTRAS_REL": null, "PSIN_RELIG": null, "TOTHOG": null, "HOGJEF_F": null, "HOGJEF_M": null, "POBHOG": null, "PHOGJEF_F": null, "PHOGJEF_M": null, "VIVTOT": null, "TVIVHAB": null, "TVIVPAR": null, "VIVPAR_HAB": null, "TVIVPARHAB": null, "VIVPAR_DES": null, "VIVPAR_UT": null, "OCUPVIVPAR": null, "PROM_OCUP": null, "PRO_OCUP_C": null, "VPH_PISODT": null, "VPH_PISOTI": null, "VPH_1DOR": null, "VPH_2YMASD": null, "VPH_1CUART": null, "VPH_2CUART": null, "VPH_3YMASC": null, "VPH_C_ELEC": null, "VPH_S_ELEC": null, "VPH_AGUADV": null, "VPH_AEASP": null, "VPH_AGUAFV": null, "VPH_TINACO": null, "VPH_CISTER": null, "VPH_EXCSA": null, "VPH_LETR": null, "VPH_DRENAJ": null, "VPH_NODREN": null, "VPH_C_SERV": null, "VPH_NDEAED": null, "VPH_DSADMA": null, "VPH_NDACMM": null, "VPH_SNBIEN": null, "VPH_REFRI": null, "VPH_LAVAD": null, "VPH_HMICRO": null, "VPH_AUTOM": null, "VPH_MOTO": null, "VPH_BICI": null, "VPH_RADIO": null, "VPH_TV": null, "VPH_PC": null, "VPH_TELEF": null, "VPH_CEL": null, "VPH_INTER": null, "VPH_STVP": null, "VPH_SPMVI": null, "VPH_CVJ": null, "VPH_SINRTV": null, "VPH_SINLTC": null, "VPH_SINCIN": null, "VPH_SINTIC": null }, "geometry": { "type": "Polygon", "coordinates": [ [ [ -103.530957258702159, 20.764310356066876 ], [ -103.530337371698138, 20.763954134708484 ], [ -103.529935806290268, 20.763721501800827 ], [ -103.529624237966189, 20.763542026211844 ], [ -103.529304549376178, 20.763344446737371 ], [ -103.529008339951659, 20.763154758646827 ], [ -103.5296118398619, 20.762593970880037 ], [ -103.53019313351416, 20.762053811542167 ], [ -103.530374716838779, 20.762407987291656 ], [ -103.530518997653175, 20.762725418001164 ], [ -103.530682904297336, 20.763045069687152 ], [ -103.530712917300832, 20.763214717391012 ], [ -103.530957258702159, 20.764310356066876 ] ] ] } }
]
}
