{
"type": "FeatureCollection",
"name": "rutas_filtradas",
"crs": { "type": "name", "properties": { "name": "urn:ogc:def:crs:OGC:1.3:CRS84" } },
"features": [
{ "type": "Feature", "properties": { "OID_": 0, "NAME": "Derrotero Ida Ruta 380", "FOLDERPATH": "Tesis/Rutas/Alianza/Ruta 380", "SYMBOLID": 1, "ALTITUDEMO": 0, "CLAMPED": -1, "EXTRUDED": 0, "SNIPPET": null, "POPUPINFO": null, "SHAPE_LENG": 0.63052012821100001, "OID": 122 }, "geometry": { "type": "LineString", "coordinates": [ [ -103.440381961293895, 20.710108030767, 0.0 ], [ -103.44358617599994, 20.708636770000055, 0.0 ], [ -103.445304159999978, 20.707796185000063, 0.0 ], [ -103.445940383, 20.707261745000039, 0.0 ], [ -103.447135031999949, 20.705792162000023, 0.0 ], [ -103.450005215999965, 20.702132483000071, 0.0 ], [ -103.452516508999963, 20.699016111000049, 0.0 ], [ -103.455123430957414, 20.695835972016763, 0.0 ] ] } },
{ "type": "Feature", "properties": { "OID_": 0, "NAME": "Derrotero Ida Ruta 231", "FOLDERPATH": "Tesis/Rutas/Servicios y Transportes/Ruta 231", "SYMBOLID": 8, "ALTITUDEMO": 0, "CLAMPED": -1, "EXTRUDED": 0, "SNIPPET": null, "POPUPINFO": null, "SHAPE_LENG": 0.2588359256, "OID": 217 }, "geometry": { "type": "LineString", "coordinates": [ [ -103.339733197711936, 20.765164600512946, 0.0 ], [ -103.339225872999975, 20.764902896000024, 0.0 ], [ -103.337573240999973, 20.763932644000022, 0.0 ], [ -103.336397856999952, 20.763410419000024, 0.0 ], [ -103.335797542129896, 20.763186447365328, 0.0 ] ] } },
{ "type": "Feature", "properties": { "OID_": 0, "NAME": "Derrotero Vuelta Ruta 231", "FOLDERPATH": "Tesis/Rutas/Servicios y Transportes/Ruta 231", "SYMBOLID": 9, "ALTITUDEMO": 0, "CLAMPED": -1, "EXTRUDED": 0, "SNIPPET": null, "POPUPINFO": null, "SHAPE_LENG": 0.26052499622899999, "OID": 218 }, "geometry": { "type": "LineString", "coordinates": [ [ -103.335798092826167, 20.76318570017381, 0.0 ], [ -103.336825579, 20.763609025000051, 0.0 ], [ -103.337204355999972, 20.763765591000038, 0.0 ], [ -103.338590169999975, 20.764490815000045, 0.0 ], [ -103.339732930441258, 20.765154927325774, 0.0 ] ] } },
{ "type": "Feature", "properties": { "OID_": 0, "NAME": "Derrotero Vuelta Ruta 231 A", "FOLDERPATH": "Tesis/Rutas/Servicios y Transportes/Ruta 231 A", "SYMBOLID": 9, "ALTITUDEMO": 0, "CLAMPED": -1, "EXTRUDED": 0, "SNIPPET": null, "POPUPINFO": null, "SHAPE_LENG": 0.248541334059, "OID": 216 }, "geometry": { "type": "LineString", "coordinates": [ [ -103.34763221999998, 20.773327076000044, 0.0 ], [ -103.346360594999965, 20.772871838000071, 0.0 ], [ -103.34718597899996, 20.771432267000023, 0.0 ], [ -103.346043139999949, 20.770643985000049, 0.0 ], [ -103.344287018999978, 20.769421434000037, 0.0 ], [ -103.343341674999976, 20.768737872000031, 0.0 ], [ -103.343219554999962, 20.768561808000072, 0.0 ], [ -103.342475723965222, 20.768006063500852, 0.0 ] ] } },
{ "type": "Feature", "properties": { "OID_": 0, "NAME": "Derrotero Ida Ruta 231 A", "FOLDERPATH": "Tesis/Rutas/Servicios y Transportes/Ruta 231 A", "SYMBOLID": 8, "ALTITUDEMO": 0, "CLAMPED": -1, "EXTRUDED": 0, "SNIPPET": null, "POPUPINFO": null, "SHAPE_LENG": 0.25635618356700002, "OID": 215 }, "geometry": { "type": "LineString", "coordinates": [ [ -103.34047465564538, 20.766708339696041, 0.0 ], [ -103.340453277999984, 20.76675066100006, 0.0 ], [ -103.342416017999938, 20.768091071000072, 0.0 ], [ -103.343258232999972, 20.768750625000052, 0.0 ], [ -103.343386677999945, 20.768782959000077, 0.0 ], [ -103.346559441999943, 20.771003689000054, 0.0 ], [ -103.347201588999951, 20.771446680000054, 0.0 ], [ -103.346350539999946, 20.772853151000049, 0.0 ], [ -103.347625441, 20.773335960000054, 0.0 ] ] } },
{ "type": "Feature", "properties": { "OID_": 0, "NAME": "Derrotero Regreso Ruta 52-D", "FOLDERPATH": "Tesis/Rutas/Alianza/Ruta 52-D", "SYMBOLID": 0, "ALTITUDEMO": 0, "CLAMPED": -1, "EXTRUDED": 0, "SNIPPET": null, "POPUPINFO": null, "SHAPE_LENG": 0.11187020818399999, "OID": 56 }, "geometry": { "type": "LineString", "coordinates": [ [ -103.336386904338411, 20.76006141065174, 0.0 ], [ -103.337436197999978, 20.760512036000023, 0.0 ], [ -103.337665555846456, 20.759406169578419, 0.0 ] ] } },
{ "type": "Feature", "properties": { "OID_": 0, "NAME": "Derrotero Ida Ruta 52-D", "FOLDERPATH": "Tesis/Rutas/Alianza/Ruta 52-D", "SYMBOLID": 1, "ALTITUDEMO": 0, "CLAMPED": -1, "EXTRUDED": 0, "SNIPPET": null, "POPUPINFO": null, "SHAPE_LENG": 0.111131110196, "OID": 55 }, "geometry": { "type": "LineString", "coordinates": [ [ -103.337676493189306, 20.759407686312954, 0.0 ], [ -103.337402250999958, 20.760525994000034, 0.0 ], [ -103.336385409562922, 20.760068708753138, 0.0 ] ] } },
{ "type": "Feature", "properties": { "OID_": 0, "NAME": "Derrotero Vuelta Ruta 636 A", "FOLDERPATH": "Tesis/Rutas/Sistecozome/Sistecozome subrogado/Ruta 636 A", "SYMBOLID": 26, "ALTITUDEMO": -1, "CLAMPED": 0, "EXTRUDED": 0, "SNIPPET": null, "POPUPINFO": null, "SHAPE_LENG": 0.157353547653, "OID": 448 }, "geometry": { "type": "LineString", "coordinates": [ [ -103.335799890862916, 20.763183260575286, 0.0 ], [ -103.33581, 20.76319, 0.0 ], [ -103.33624, 20.76337, 0.0 ], [ -103.33639, 20.76343, 0.0 ], [ -103.33673, 20.76355, 0.0 ], [ -103.33701, 20.76221, 0.0 ], [ -103.33706, 20.76198, 0.0 ], [ -103.33715, 20.76167, 0.0 ], [ -103.33724, 20.76122, 0.0 ], [ -103.33733, 20.76076, 0.0 ], [ -103.3374, 20.76049, 0.0 ], [ -103.33756, 20.75994, 0.0 ], [ -103.337678238156442, 20.759407928296032, 0.0 ] ] } },
{ "type": "Feature", "properties": { "OID_": 0, "NAME": "Derrotero Vuelta Ruta 641 A", "FOLDERPATH": "Tesis/Rutas/Sistecozome/Sistecozome subrogado/Ruta 641 A", "SYMBOLID": 26, "ALTITUDEMO": -1, "CLAMPED": 0, "EXTRUDED": 0, "SNIPPET": null, "POPUPINFO": null, "SHAPE_LENG": 0.177365215603, "OID": 462 }, "geometry": { "type": "MultiLineString", "coordinates": [ [ [ -103.3397302585674, 20.765210054847628, 0.0 ], [ -103.33973, 20.76521, 0.0 ], [ -103.33973, 20.76511, 0.0 ], [ -103.339730916634068, 20.765082042661074, 0.0 ] ], [ [ -103.339579461645243, 20.763177308226233, 0.0 ], [ -103.33957, 20.76313, 0.0 ], [ -103.339564657679233, 20.763098836462195, 0.0 ] ], [ [ -103.339463155504689, 20.762536408624385, 0.0 ], [ -103.33946, 20.76252, 0.0 ], [ -103.339452397984701, 20.762459183877571, 0.0 ] ], [ [ -103.339422112816948, 20.76220112816949, 0.0 ], [ -103.33942, 20.76218, 0.0 ], [ -103.3394, 20.76202, 0.0 ], [ -103.339417285364689, 20.761838503670798, 0.0 ] ], [ [ -103.339425843446193, 20.761754487261236, 0.0 ], [ -103.33944, 20.76162, 0.0 ], [ -103.33949, 20.7614, 0.0 ], [ -103.33951, 20.76128, 0.0 ], [ -103.3397, 20.76089, 0.0 ], [ -103.339855331849094, 20.76069842405278, 0.0 ] ] ] } },
{ "type": "Feature", "properties": { "OID_": 0, "NAME": "Derrotero Ida Ruta 641 A", "FOLDERPATH": "Tesis/Rutas/Sistecozome/Sistecozome subrogado/Ruta 641 A", "SYMBOLID": 25, "ALTITUDEMO": -1, "CLAMPED": 0, "EXTRUDED": 0, "SNIPPET": null, "POPUPINFO": null, "SHAPE_LENG": 0.1812463036, "OID": 461 }, "geometry": { "type": "MultiLineString", "coordinates": [ [ [ -103.339855331849094, 20.76069842405278, 0.0 ], [ -103.3397, 20.76089, 0.0 ], [ -103.33951, 20.76128, 0.0 ], [ -103.33949, 20.7614, 0.0 ], [ -103.33944, 20.76162, 0.0 ], [ -103.339425843446193, 20.761754487261236, 0.0 ] ], [ [ -103.339417285364689, 20.761838503670798, 0.0 ], [ -103.3394, 20.76202, 0.0 ], [ -103.33942, 20.76218, 0.0 ], [ -103.339422112816948, 20.76220112816949, 0.0 ] ], [ [ -103.339452397984701, 20.762459183877571, 0.0 ], [ -103.33946, 20.76252, 0.0 ], [ -103.339463155504689, 20.762536408624385, 0.0 ] ], [ [ -103.339564657679233, 20.763098836462195, 0.0 ], [ -103.33957, 20.76313, 0.0 ], [ -103.339579461645243, 20.763177308226233, 0.0 ] ], [ [ -103.339730916634068, 20.765082042661074, 0.0 ], [ -103.33973, 20.76511, 0.0 ], [ -103.33973, 20.76521, 0.0 ], [ -103.3397302585674, 20.765210054847628, 0.0 ] ] ] } },
{ "type": "Feature", "properties": { "OID_": 0, "NAME": "Derrotero Vuelta Ruta 641 A v2", "FOLDERPATH": "Tesis/Rutas/Sistecozome/Sistecozome subrogado/Ruta 641 A v2", "SYMBOLID": 26, "ALTITUDEMO": -1, "CLAMPED": 0, "EXTRUDED": 0, "SNIPPET": null, "POPUPINFO": null, "SHAPE_LENG": 0.115968997694, "OID": 460 }, "geometry": { "type": "MultiLineString", "coordinates": [ [ [ -103.3397302585674, 20.765210054847628, 0.0 ], [ -103.33973, 20.76521, 0.0 ], [ -103.33973, 20.76511, 0.0 ], [ -103.339730916634068, 20.765082042661074, 0.0 ] ], [ [ -103.339579461645243, 20.763177308226233, 0.0 ], [ -103.33957, 20.76313, 0.0 ], [ -103.339564657679233, 20.763098836462195, 0.0 ] ], [ [ -103.339463155504689, 20.762536408624385, 0.0 ], [ -103.33946, 20.76252, 0.0 ], [ -103.339452397984701, 20.762459183877571, 0.0 ] ], [ [ -103.339422112816948, 20.76220112816949, 0.0 ], [ -103.33942, 20.76218, 0.0 ], [ -103.3394, 20.76202, 0.0 ], [ -103.339417285364689, 20.761838503670798, 0.0 ] ], [ [ -103.339425843446193, 20.761754487261236, 0.0 ], [ -103.33944, 20.76162, 0.0 ], [ -103.33949, 20.7614, 0.0 ], [ -103.33951, 20.76128, 0.0 ], [ -103.3397, 20.76089, 0.0 ], [ -103.339855331849094, 20.76069842405278, 0.0 ] ] ] } },
{ "type": "Feature", "properties": { "OID_": 0, "NAME": "Derrotero Ida Ruta 641 A v2", "FOLDERPATH": "Tesis/Rutas/Sistecozome/Sistecozome subrogado/Ruta 641 A v2", "SYMBOLID": 25, "ALTITUDEMO": -1, "CLAMPED": 0, "EXTRUDED": 0, "SNIPPET": null, "POPUPINFO": null, "SHAPE_LENG": 0.116516646328, "OID": 459 }, "geometry": { "type": "MultiLineString", "coordinates": [ [ [ -103.339855331849094, 20.76069842405278, 0.0 ], [ -103.3397, 20.76089, 0.0 ], [ -103.33951, 20.76128, 0.0 ], [ -103.33949, 20.7614, 0.0 ], [ -103.33944, 20.76162, 0.0 ], [ -103.339425843446193, 20.761754487261236, 0.0 ] ], [ [ -103.339417285364689, 20.761838503670798, 0.0 ], [ -103.3394, 20.76202, 0.0 ], [ -103.33942, 20.76218, 0.0 ], [ -103.339422112816948, 20.76220112816949, 0.0 ] ], [ [ -103.339452397984701, 20.762459183877571, 0.0 ], [ -103.33946, 20.76252, 0.0 ], [ -103.339463155504689, 20.762536408624385, 0.0 ] ], [ [ -103.339564657679233, 20.763098836462195, 0.0 ], [ -103.33957, 20.76313, 0.0 ], [ -103.339579461645243, 20.763177308226233, 0.0 ] ], [ [ -103.339730916634068, 20.765082042661074, 0.0 ], [ -103.33973, 20.76511, 0.0 ], [ -103.33973, 20.76521, 0.0 ], [ -103.3397302585674, 20.765210054847628, 0.0 ] ] ] } },
{ "type": "Feature", "properties": { "OID_": 0, "NAME": "Derrotero Ida Ruta 166", "FOLDERPATH": "Tesis/Rutas/Servicios y Transportes/Ruta 166", "SYMBOLID": 8, "ALTITUDEMO": 0, "CLAMPED": -1, "EXTRUDED": 0, "SNIPPET": null, "POPUPINFO": null, "SHAPE_LENG": 0.161563857157, "OID": 199 }, "geometry": { "type": "MultiLineString", "coordinates": [ [ [ -103.33993168697144, 20.760504650340049, 0.0 ], [ -103.339699554999982, 20.760787696000023, 0.0 ], [ -103.339447758999938, 20.761397933000069, 0.0 ], [ -103.339365011999973, 20.761747902000025, 0.0 ], [ -103.339378784999951, 20.762378779000073, 0.0 ], [ -103.33952881, 20.763188418000027, 0.0 ], [ -103.339701044560485, 20.764000898411911, 0.0 ] ], [ [ -103.339715306562454, 20.765385513695705, 0.0 ], [ -103.339653250274409, 20.766106349951468, 0.0 ] ], [ [ -103.339640195984956, 20.766257986561229, 0.0 ], [ -103.33961216199998, 20.766583625000067, 0.0 ], [ -103.339604441999938, 20.767412838000041, 0.0 ], [ -103.339653400520575, 20.76770292511198, 0.0 ] ], [ [ -103.340313994957611, 20.76976631126686, 0.0 ], [ -103.340349763999939, 20.769874726000069, 0.0 ], [ -103.340343327138697, 20.76992498664567, 0.0 ] ], [ [ -103.339639627229445, 20.771118290108035, 0.0 ], [ -103.339604976999965, 20.771141112000066, 0.0 ], [ -103.339559877803467, 20.771150151387307, 0.0 ] ], [ [ -103.337796801324814, 20.771496228088687, 0.0 ], [ -103.337451281999961, 20.771744289000026, 0.0 ], [ -103.337182667999969, 20.772221813000044, 0.0 ], [ -103.337179683999977, 20.772794215000033, 0.0 ], [ -103.337302126179068, 20.773164264396442, 0.0 ] ], [ [ -103.337405000323898, 20.773330541021689, 0.0 ], [ -103.337509379233808, 20.773456066013651, 0.0 ] ], [ [ -103.337787274949065, 20.773681419109494, 0.0 ], [ -103.338088603372142, 20.773896028615791, 0.0 ] ], [ [ -103.338547352882543, 20.774219633865211, 0.0 ], [ -103.338668119999966, 20.774178420000055, 0.0 ], [ -103.339236840999945, 20.774607496000044, 0.0 ], [ -103.339465667999946, 20.775129331000073, 0.0 ], [ -103.339637952999965, 20.775952666000023, 0.0 ], [ -103.340011141, 20.776496475000044, 0.0 ], [ -103.340317492999986, 20.77669103900007, 0.0 ], [ -103.341179574999956, 20.776982963000023, 0.0 ], [ -103.341640650999977, 20.777183875000048, 0.0 ], [ -103.342011151999941, 20.777591751000045, 0.0 ], [ -103.34227367699998, 20.778046869000036, 0.0 ], [ -103.342548633999968, 20.779093661000047, 0.0 ], [ -103.342642839999939, 20.779284037000025, 0.0 ], [ -103.343531137999946, 20.780210557000032, 0.0 ], [ -103.343757946999972, 20.780474211000069, 0.0 ], [ -103.343942498, 20.780899903000034, 0.0 ], [ -103.343945793999978, 20.781496745000027, 0.0 ], [ -103.343804344999967, 20.782318161000035, 0.0 ], [ -103.343908762499439, 20.782775087334524, 0.0 ] ], [ [ -103.352686799874348, 20.789609791777131, 0.0 ], [ -103.352608667999959, 20.789656836000063, 0.0 ], [ -103.350933052999949, 20.790519571000061, 0.0 ], [ -103.350187424524961, 20.790879107155018, 0.0 ] ], [ [ -103.350187424524961, 20.790879107155018, 0.0 ], [ -103.35017830399994, 20.790883505000068, 0.0 ], [ -103.348410883999975, 20.791813193000053, 0.0 ], [ -103.347314943999947, 20.792388065000068, 0.0 ], [ -103.35012910599994, 20.790872395000065, 0.0 ], [ -103.350187424524961, 20.790879107155018, 0.0 ] ], [ [ -103.350187424524961, 20.790879107155018, 0.0 ], [ -103.351994438999952, 20.791087085000072, 0.0 ], [ -103.355270559999951, 20.791348945000038, 0.0 ], [ -103.358740310999963, 20.791717319000043, 0.0 ], [ -103.360769958, 20.791858348000062, 0.0 ], [ -103.361094655999977, 20.791783105000036, 0.0 ], [ -103.361280137999984, 20.791639320000058, 0.0 ], [ -103.361346326999978, 20.791355596000074, 0.0 ], [ -103.361439347999976, 20.790975698000068, 0.0 ], [ -103.3615075316266, 20.790943351034091, 0.0 ] ], [ [ -103.363896302229477, 20.792659784067013, 0.0 ], [ -103.363919474999989, 20.792690694000044, 0.0 ], [ -103.364122372999987, 20.793744838000066, 0.0 ], [ -103.364808126999947, 20.794057915000053, 0.0 ], [ -103.36571829199994, 20.79428891200007, 0.0 ], [ -103.368261756999971, 20.794360747000042, 0.0 ], [ -103.368791941999973, 20.794417845000055, 0.0 ], [ -103.369162409999944, 20.794552119000059, 0.0 ], [ -103.369611730999964, 20.794930148000049, 0.0 ], [ -103.370014005999963, 20.795098246000066, 0.0 ], [ -103.370231489999981, 20.795089434000033, 0.0 ], [ -103.370878361999985, 20.794847163000043, 0.0 ], [ -103.371197271999961, 20.794845405000046, 0.0 ], [ -103.372286827999972, 20.795051659000023, 0.0 ], [ -103.372944699999948, 20.795919602000026, 0.0 ], [ -103.373566690999951, 20.796146891000035, 0.0 ], [ -103.373688283999968, 20.796402297000043, 0.0 ], [ -103.373809879999953, 20.796559663000039, 0.0 ], [ -103.374292939999975, 20.796569651000027, 0.0 ], [ -103.374342410999986, 20.796767716000033, 0.0 ], [ -103.374327171999937, 20.796957066000061, 0.0 ], [ -103.374463509999941, 20.797167956000067, 0.0 ], [ -103.374694071999954, 20.797268981000059, 0.0 ], [ -103.375099205999959, 20.797360172000026, 0.0 ], [ -103.375272025999948, 20.797543097000073, 0.0 ], [ -103.375321101999987, 20.798055595000051, 0.0 ], [ -103.375549015, 20.798524729000064, 0.0 ], [ -103.375393890999987, 20.799540568000054, 0.0 ], [ -103.375457249999954, 20.800205726000058, 0.0 ], [ -103.375410518213172, 20.800791683458264, 0.0 ] ] ] } },
{ "type": "Feature", "properties": { "OID_": 0, "NAME": "Derrotero Vuelta Ruta 166", "FOLDERPATH": "Tesis/Rutas/Servicios y Transportes/Ruta 166", "SYMBOLID": 9, "ALTITUDEMO": 0, "CLAMPED": -1, "EXTRUDED": 0, "SNIPPET": null, "POPUPINFO": null, "SHAPE_LENG": 0.154080871732, "OID": 200 }, "geometry": { "type": "MultiLineString", "coordinates": [ [ [ -103.339740008274873, 20.766311854686666, 0.0 ], [ -103.339726431999964, 20.767331350000063, 0.0 ], [ -103.339780202999975, 20.767836867000028, 0.0 ], [ -103.339829505999944, 20.768095709000022, 0.0 ], [ -103.34025255499995, 20.769241399000066, 0.0 ], [ -103.340446533999966, 20.769836137000027, 0.0 ], [ -103.340431872999943, 20.770379573000071, 0.0 ], [ -103.340190972999949, 20.770851729000071, 0.0 ], [ -103.339839660999985, 20.771183199000063, 0.0 ], [ -103.339401568999961, 20.771362794000026, 0.0 ], [ -103.339187929, 20.771387464000043, 0.0 ], [ -103.338518648, 20.771377770000072, 0.0 ], [ -103.338100508999958, 20.771438558000057, 0.0 ], [ -103.337669360999939, 20.771680977000074, 0.0 ], [ -103.337350848999961, 20.772167783000043, 0.0 ], [ -103.337286780999989, 20.772595283000044, 0.0 ], [ -103.337416923999967, 20.773093183000071, 0.0 ], [ -103.33761025299998, 20.773396222000031, 0.0 ], [ -103.338406654999972, 20.773946032000026, 0.0 ], [ -103.33865022699996, 20.774101632000054, 0.0 ], [ -103.338689836999947, 20.774211342000058, 0.0 ], [ -103.339216226999952, 20.774607657000047, 0.0 ], [ -103.339395278999973, 20.774883312000043, 0.0 ], [ -103.339673442, 20.775982186000078, 0.0 ], [ -103.339966103999984, 20.776426150000077, 0.0 ], [ -103.340273550999939, 20.776666161000037, 0.0 ], [ -103.341303618999973, 20.777022568000064, 0.0 ], [ -103.341663487999938, 20.777235505000078, 0.0 ], [ -103.341991052999958, 20.777541728000074, 0.0 ], [ -103.342221243999973, 20.777890091000074, 0.0 ], [ -103.34236190699994, 20.778499353000029, 0.0 ], [ -103.342583755999954, 20.779226081000047, 0.0 ], [ -103.342846816999952, 20.779534371000068, 0.0 ], [ -103.343416588999958, 20.780125635000047, 0.0 ], [ -103.343773432999967, 20.780494333000036, 0.0 ], [ -103.343934626999953, 20.780856669000059, 0.0 ], [ -103.343950867999979, 20.781569679000029, 0.0 ], [ -103.343816006999987, 20.782344116000047, 0.0 ], [ -103.343882310495999, 20.782710427191489, 0.0 ] ], [ [ -103.345021674275017, 20.784300129094497, 0.0 ], [ -103.345153299186535, 20.784385698126759, 0.0 ] ], [ [ -103.352675991345222, 20.789595340481135, 0.0 ], [ -103.352186558999961, 20.789844694000067, 0.0 ], [ -103.350753406999956, 20.790590139000074, 0.0 ], [ -103.350222655999971, 20.790853577000064, 0.0 ], [ -103.351811879999957, 20.791066623000063, 0.0 ], [ -103.355554532999975, 20.791393964000065, 0.0 ], [ -103.359633661999965, 20.791778495000074, 0.0 ], [ -103.36092636099994, 20.791866339000023, 0.0 ], [ -103.36112295099997, 20.79176121100005, 0.0 ], [ -103.361317734999943, 20.791504223000061, 0.0 ], [ -103.36138740399997, 20.791171072000054, 0.0 ], [ -103.361478157999954, 20.790965257000039, 0.0 ], [ -103.361508046275475, 20.790948035751708, 0.0 ] ], [ [ -103.363908503113237, 20.792656653429184, 0.0 ], [ -103.363929494999979, 20.792684354000073, 0.0 ], [ -103.364126452999983, 20.793761893000067, 0.0 ], [ -103.365017226999953, 20.794115672000032, 0.0 ], [ -103.365689775999954, 20.794268846000023, 0.0 ], [ -103.368640716999948, 20.794378614000038, 0.0 ], [ -103.369153404999963, 20.794539217000022, 0.0 ], [ -103.369476546999977, 20.794823737000058, 0.0 ], [ -103.369917402999988, 20.795097042000066, 0.0 ], [ -103.370280638999986, 20.79509620400006, 0.0 ], [ -103.370761124999945, 20.794896379000022, 0.0 ], [ -103.371036502999971, 20.794834346000073, 0.0 ], [ -103.372289615999989, 20.795071397000072, 0.0 ], [ -103.372979892999979, 20.795933754000032, 0.0 ], [ -103.373561532999986, 20.796128800000076, 0.0 ], [ -103.373717666999937, 20.796452978000048, 0.0 ], [ -103.373872698999946, 20.796563731000049, 0.0 ], [ -103.37426233399998, 20.796543706000023, 0.0 ], [ -103.374343868999972, 20.796715763000066, 0.0 ], [ -103.374317319999989, 20.796898983000062, 0.0 ], [ -103.374361234, 20.797059507000029, 0.0 ], [ -103.374551482999948, 20.797239572000024, 0.0 ], [ -103.375025298999958, 20.79733034700007, 0.0 ], [ -103.375194530999977, 20.797430390000045, 0.0 ], [ -103.375253561999955, 20.79753114600004, 0.0 ], [ -103.375344621999943, 20.798052452000036, 0.0 ], [ -103.37554855999997, 20.79851820600004, 0.0 ], [ -103.375424867, 20.799358243000029, 0.0 ], [ -103.375413284999979, 20.799617357000045, 0.0 ], [ -103.375463871999955, 20.800226463000058, 0.0 ], [ -103.375432668846841, 20.800794737732524, 0.0 ] ] ] } },
{ "type": "Feature", "properties": { "OID_": 0, "NAME": "Derrotero Ida Ruta 636 A", "FOLDERPATH": "Tesis/Rutas/Sistecozome/Sistecozome subrogado/Ruta 636 A", "SYMBOLID": 25, "ALTITUDEMO": -1, "CLAMPED": 0, "EXTRUDED": 0, "SNIPPET": null, "POPUPINFO": null, "SHAPE_LENG": 0.15550705449900001, "OID": 447 }, "geometry": { "type": "LineString", "coordinates": [ [ -103.337678238156442, 20.759407928296032, 0.0 ], [ -103.33756, 20.75994, 0.0 ], [ -103.3374, 20.76049, 0.0 ], [ -103.33733, 20.76076, 0.0 ], [ -103.33724, 20.76122, 0.0 ], [ -103.33715, 20.76167, 0.0 ], [ -103.33706, 20.76198, 0.0 ], [ -103.33701, 20.76221, 0.0 ], [ -103.33673, 20.76355, 0.0 ], [ -103.33639, 20.76343, 0.0 ], [ -103.33624, 20.76337, 0.0 ], [ -103.33581, 20.76319, 0.0 ], [ -103.335799890862916, 20.763183260575286, 0.0 ] ] } },
{ "type": "Feature", "properties": { "OID_": 0, "NAME": "Derrotero Ida Ruta 636 A v2", "FOLDERPATH": "Tesis/Rutas/Sistecozome/Sistecozome subrogado/Ruta 636 A v2", "SYMBOLID": 25, "ALTITUDEMO": -1, "CLAMPED": 0, "EXTRUDED": 0, "SNIPPET": null, "POPUPINFO": null, "SHAPE_LENG": 0.126403861555, "OID": 467 }, "geometry": { "type": "MultiLineString", "coordinates": [ [ [ -103.339855331849094, 20.76069842405278, 0.0 ], [ -103.3397, 20.76089, 0.0 ], [ -103.33951, 20.76128, 0.0 ], [ -103.33949, 20.7614, 0.0 ], [ -103.33944, 20.76162, 0.0 ], [ -103.339425843446193, 20.761754487261236, 0.0 ] ], [ [ -103.339417285364689, 20.761838503670798, 0.0 ], [ -103.3394, 20.76202, 0.0 ], [ -103.33942, 20.76218, 0.0 ], [ -103.339422112816948, 20.76220112816949, 0.0 ] ], [ [ -103.339452397984701, 20.762459183877571, 0.0 ], [ -103.33946, 20.76252, 0.0 ], [ -103.339463155504689, 20.762536408624385, 0.0 ] ], [ [ -103.339564657679233, 20.763098836462195, 0.0 ], [ -103.33957, 20.76313, 0.0 ], [ -103.339579461645243, 20.763177308226233, 0.0 ] ], [ [ -103.339730916634068, 20.765082042661074, 0.0 ], [ -103.33973, 20.76511, 0.0 ], [ -103.33973, 20.76521, 0.0 ], [ -103.339729872694818, 20.765214582986832, 0.0 ] ], [ [ -103.339669403846059, 20.765924173077625, 0.0 ], [ -103.33965, 20.76606, 0.0 ], [ -103.33963, 20.76627, 0.0 ], [ -103.340410127558386, 20.766673514254332, 0.0 ] ], [ [ -103.341969280222983, 20.767712404872025, 0.0 ], [ -103.34206, 20.76778, 0.0 ], [ -103.342071259349893, 20.767785629674943, 0.0 ] ], [ [ -103.342426764457286, 20.768042739311127, 0.0 ], [ -103.34245, 20.76806, 0.0 ], [ -103.3429, 20.7684, 0.0 ], [ -103.34328, 20.76868, 0.0 ], [ -103.34394, 20.76915, 0.0 ], [ -103.34432, 20.76945, 0.0 ], [ -103.34472, 20.76972, 0.0 ], [ -103.34503, 20.76993, 0.0 ], [ -103.34554, 20.77027, 0.0 ], [ -103.34557, 20.77028, 0.0 ], [ -103.34599, 20.77061, 0.0 ], [ -103.34607, 20.77066, 0.0 ], [ -103.34634, 20.77086, 0.0 ], [ -103.34641, 20.77092, 0.0 ], [ -103.34678, 20.77117, 0.0 ], [ -103.34681, 20.77119, 0.0 ], [ -103.34719, 20.77143, 0.0 ], [ -103.34692, 20.77188, 0.0 ], [ -103.34678, 20.77211, 0.0 ], [ -103.34635, 20.77286, 0.0 ], [ -103.34609, 20.77337, 0.0 ], [ -103.34584, 20.77387, 0.0 ], [ -103.34562, 20.77439, 0.0 ], [ -103.3471, 20.77492, 0.0 ], [ -103.34798, 20.77519, 0.0 ], [ -103.34884, 20.77552, 0.0 ], [ -103.34899, 20.77558, 0.0 ], [ -103.34932, 20.77571, 0.0 ], [ -103.34977, 20.77582, 0.0 ], [ -103.3502, 20.77599, 0.0 ], [ -103.35065, 20.77617, 0.0 ], [ -103.35128, 20.77643, 0.0 ] ] ] } },
{ "type": "Feature", "properties": { "OID_": 0, "NAME": "Derrotero Vuelta Ruta 636 A v2", "FOLDERPATH": "Tesis/Rutas/Sistecozome/Sistecozome subrogado/Ruta 636 A v2", "SYMBOLID": 26, "ALTITUDEMO": -1, "CLAMPED": 0, "EXTRUDED": 0, "SNIPPET": null, "POPUPINFO": null, "SHAPE_LENG": 0.12483530461, "OID": 468 }, "geometry": { "type": "MultiLineString", "coordinates": [ [ [ -103.35128, 20.77643, 0.0 ], [ -103.35065, 20.77617, 0.0 ], [ -103.3502, 20.77599, 0.0 ], [ -103.34977, 20.77582, 0.0 ], [ -103.34932, 20.77571, 0.0 ], [ -103.34899, 20.77558, 0.0 ], [ -103.34884, 20.77552, 0.0 ], [ -103.34798, 20.77519, 0.0 ], [ -103.3471, 20.77492, 0.0 ], [ -103.34562, 20.77439, 0.0 ], [ -103.34584, 20.77387, 0.0 ], [ -103.34609, 20.77337, 0.0 ], [ -103.34635, 20.77286, 0.0 ], [ -103.34678, 20.77211, 0.0 ], [ -103.34692, 20.77188, 0.0 ], [ -103.34719, 20.77143, 0.0 ], [ -103.34681, 20.77119, 0.0 ], [ -103.34678, 20.77117, 0.0 ], [ -103.34641, 20.77092, 0.0 ], [ -103.34634, 20.77086, 0.0 ], [ -103.34607, 20.77066, 0.0 ], [ -103.34599, 20.77061, 0.0 ], [ -103.34557, 20.77028, 0.0 ], [ -103.34554, 20.77027, 0.0 ], [ -103.34503, 20.76993, 0.0 ], [ -103.34472, 20.76972, 0.0 ], [ -103.34432, 20.76945, 0.0 ], [ -103.34394, 20.76915, 0.0 ], [ -103.34328, 20.76868, 0.0 ], [ -103.3429, 20.7684, 0.0 ], [ -103.34245, 20.76806, 0.0 ], [ -103.342426764457286, 20.768042739311127, 0.0 ] ], [ [ -103.342071259349893, 20.767785629674943, 0.0 ], [ -103.34206, 20.76778, 0.0 ], [ -103.341969280222983, 20.767712404872025, 0.0 ] ], [ [ -103.340410127558386, 20.766673514254332, 0.0 ], [ -103.33963, 20.76627, 0.0 ], [ -103.33965, 20.76606, 0.0 ], [ -103.339669403846059, 20.765924173077625, 0.0 ] ], [ [ -103.339729872694818, 20.765214582986832, 0.0 ], [ -103.33973, 20.76521, 0.0 ], [ -103.33973, 20.76511, 0.0 ], [ -103.339730916634068, 20.765082042661074, 0.0 ] ], [ [ -103.339579461645243, 20.763177308226233, 0.0 ], [ -103.33957, 20.76313, 0.0 ], [ -103.339564657679233, 20.763098836462195, 0.0 ] ], [ [ -103.339463155504689, 20.762536408624385, 0.0 ], [ -103.33946, 20.76252, 0.0 ], [ -103.339452397984701, 20.762459183877571, 0.0 ] ], [ [ -103.339422112816948, 20.76220112816949, 0.0 ], [ -103.33942, 20.76218, 0.0 ], [ -103.3394, 20.76202, 0.0 ], [ -103.339417285364689, 20.761838503670798, 0.0 ] ], [ [ -103.339425843446193, 20.761754487261236, 0.0 ], [ -103.33944, 20.76162, 0.0 ], [ -103.33949, 20.7614, 0.0 ], [ -103.33951, 20.76128, 0.0 ], [ -103.3397, 20.76089, 0.0 ], [ -103.339855331849094, 20.76069842405278, 0.0 ] ] ] } },
{ "type": "Feature", "properties": { "OID_": 0, "NAME": "Derrotero Ida Ruta 167", "FOLDERPATH": "Tesis/Rutas/Servicios y Transportes/Ruta 167", "SYMBOLID": 8, "ALTITUDEMO": 0, "CLAMPED": -1, "EXTRUDED": 0, "SNIPPET": null, "POPUPINFO": null, "SHAPE_LENG": 0.16684069398699999, "OID": 193 }, "geometry": { "type": "MultiLineString", "coordinates": [ [ [ -103.339933736709057, 20.760505534767873, 0.0 ], [ -103.339759084999969, 20.760703185000068, 0.0 ], [ -103.339389141999959, 20.761529497000026, 0.0 ], [ -103.339367416999949, 20.762265375000027, 0.0 ], [ -103.339481594999938, 20.763009711000052, 0.0 ], [ -103.339617007999948, 20.763473088000069, 0.0 ], [ -103.339710762407961, 20.764352611354866, 0.0 ] ], [ [ -103.33972859613327, 20.76499805799606, 0.0 ], [ -103.339670687999956, 20.765730262000034, 0.0 ], [ -103.33958023799994, 20.766921506000074, 0.0 ], [ -103.339628909999988, 20.767409291000035, 0.0 ], [ -103.339674440890633, 20.767694308282575, 0.0 ] ], [ [ -103.340356678349778, 20.770007809623628, 0.0 ], [ -103.340379768, 20.77012045400005, 0.0 ], [ -103.34032444714731, 20.770272219223859, 0.0 ] ], [ [ -103.339899084415222, 20.770963601586214, 0.0 ], [ -103.339839317999974, 20.771039557000051, 0.0 ], [ -103.339715823209801, 20.771083520478879, 0.0 ] ], [ [ -103.337924332768964, 20.771439120078998, 0.0 ], [ -103.337729243999945, 20.77153273700003, 0.0 ], [ -103.33747133199995, 20.771793010000067, 0.0 ], [ -103.337240636, 20.772095210000032, 0.0 ], [ -103.337181511999972, 20.772539061000032, 0.0 ], [ -103.33721449899997, 20.772919050000041, 0.0 ], [ -103.337330333999944, 20.773145765000038, 0.0 ], [ -103.337457161999964, 20.773384546000045, 0.0 ], [ -103.337750211871821, 20.773651363665159, 0.0 ] ], [ [ -103.338401831175133, 20.774103175593073, 0.0 ], [ -103.338630836, 20.774190715000032, 0.0 ], [ -103.338926928999967, 20.774374709000028, 0.0 ], [ -103.339207072999955, 20.774542438000026, 0.0 ], [ -103.339407885999947, 20.774980119000077, 0.0 ], [ -103.33966406199994, 20.775925714000039, 0.0 ], [ -103.339877050999974, 20.776375009000049, 0.0 ], [ -103.340067076999958, 20.776531255000066, 0.0 ], [ -103.340424625999958, 20.776750526000058, 0.0 ], [ -103.340917446999981, 20.77690446500003, 0.0 ], [ -103.341571233999957, 20.77713787600004, 0.0 ], [ -103.341959060999955, 20.777542766000067, 0.0 ], [ -103.342256220999957, 20.777969308000024, 0.0 ], [ -103.342505411, 20.779030207000062, 0.0 ], [ -103.342737089999957, 20.779450497000028, 0.0 ], [ -103.343288444999985, 20.779944906000026, 0.0 ], [ -103.343767192999962, 20.780506249000041, 0.0 ], [ -103.343929024999966, 20.780939783000065, 0.0 ], [ -103.34396589, 20.78164666300006, 0.0 ], [ -103.343803138999988, 20.782239548000064, 0.0 ], [ -103.343844471999944, 20.782574457000067, 0.0 ], [ -103.343977848103236, 20.782887327526641, 0.0 ] ], [ [ -103.352681404312861, 20.789602577765386, 0.0 ], [ -103.351321754999958, 20.790250144000026, 0.0 ], [ -103.350122260999967, 20.790917977000049, 0.0 ], [ -103.348283786999957, 20.791871133000029, 0.0 ], [ -103.346945603999984, 20.792599189000043, 0.0 ], [ -103.346493139720309, 20.792913189127365, 0.0 ] ] ] } },
{ "type": "Feature", "properties": { "OID_": 0, "NAME": "Derrotero Vuelta Ruta 167", "FOLDERPATH": "Tesis/Rutas/Servicios y Transportes/Ruta 167", "SYMBOLID": 9, "ALTITUDEMO": 0, "CLAMPED": -1, "EXTRUDED": 0, "SNIPPET": null, "POPUPINFO": null, "SHAPE_LENG": 0.16607982187799999, "OID": 194 }, "geometry": { "type": "MultiLineString", "coordinates": [ [ [ -103.339743720200772, 20.766313857991975, 0.0 ], [ -103.339720817999989, 20.766618767000068, 0.0 ], [ -103.339701654999942, 20.767328282000051, 0.0 ], [ -103.339826556999981, 20.768082788000072, 0.0 ], [ -103.340218320999952, 20.769168956000044, 0.0 ], [ -103.340362465999988, 20.769561907000025, 0.0 ], [ -103.340452549999952, 20.769924382000056, 0.0 ], [ -103.340420690999963, 20.770279410000057, 0.0 ], [ -103.340266539999959, 20.770679168000072, 0.0 ], [ -103.340073463999943, 20.770989201000077, 0.0 ], [ -103.339662238999949, 20.771276987000078, 0.0 ], [ -103.339227317999985, 20.771408433000033, 0.0 ], [ -103.338694659999987, 20.771393810000063, 0.0 ], [ -103.338246548999962, 20.77140567500004, 0.0 ], [ -103.337816158999942, 20.771587186000033, 0.0 ], [ -103.337504616999979, 20.771911897000052, 0.0 ], [ -103.337304134999954, 20.772337314000026, 0.0 ], [ -103.337295121999944, 20.772802230000025, 0.0 ], [ -103.337509885999964, 20.773284681000064, 0.0 ], [ -103.337791865999975, 20.773522602000071, 0.0 ], [ -103.338177367999947, 20.773789618000023, 0.0 ], [ -103.338649216999954, 20.774094253000044, 0.0 ], [ -103.338672052999982, 20.774191668000071, 0.0 ], [ -103.338926928999967, 20.774374709000028, 0.0 ], [ -103.339207072999955, 20.774542438000026, 0.0 ], [ -103.339407885999947, 20.774980119000077, 0.0 ], [ -103.33966406199994, 20.775925714000039, 0.0 ], [ -103.339877050999974, 20.776375009000049, 0.0 ], [ -103.340067076999958, 20.776531255000066, 0.0 ], [ -103.340424625999958, 20.776750526000058, 0.0 ], [ -103.340917446999981, 20.77690446500003, 0.0 ], [ -103.341571233999957, 20.77713787600004, 0.0 ], [ -103.341959060999955, 20.777542766000067, 0.0 ], [ -103.342256220999957, 20.777969308000024, 0.0 ], [ -103.342505411, 20.779030207000062, 0.0 ], [ -103.342737089999957, 20.779450497000028, 0.0 ], [ -103.343288444999985, 20.779944906000026, 0.0 ], [ -103.343767192999962, 20.780506249000041, 0.0 ], [ -103.343929024999966, 20.780939783000065, 0.0 ], [ -103.34396589, 20.78164666300006, 0.0 ], [ -103.343803138999988, 20.782239548000064, 0.0 ], [ -103.343844471999944, 20.782574457000067, 0.0 ], [ -103.343977848103236, 20.782887327526641, 0.0 ] ], [ [ -103.352681404312861, 20.789602577765386, 0.0 ], [ -103.351321754999958, 20.790250144000026, 0.0 ], [ -103.350122260999967, 20.790917977000049, 0.0 ], [ -103.348283786999957, 20.791871133000029, 0.0 ], [ -103.346945603999984, 20.792599189000043, 0.0 ], [ -103.346493139720309, 20.792913189127365, 0.0 ] ] ] } },
{ "type": "Feature", "properties": { "OID_": 0, "NAME": "Derrotero Ida Ruta 165", "FOLDERPATH": "Tesis/Rutas/Servicios y Transportes/Ruta 165", "SYMBOLID": 8, "ALTITUDEMO": 0, "CLAMPED": -1, "EXTRUDED": 0, "SNIPPET": null, "POPUPINFO": null, "SHAPE_LENG": 0.214770358425, "OID": 203 }, "geometry": { "type": "MultiLineString", "coordinates": [ [ [ -103.339933736709057, 20.760505534767873, 0.0 ], [ -103.339759084999969, 20.760703185000068, 0.0 ], [ -103.339389141999959, 20.761529497000026, 0.0 ], [ -103.339367416999949, 20.762265375000027, 0.0 ], [ -103.339481594999938, 20.763009711000052, 0.0 ], [ -103.339617007999948, 20.763473088000069, 0.0 ], [ -103.339710762407961, 20.764352611354866, 0.0 ] ], [ [ -103.33972859613327, 20.76499805799606, 0.0 ], [ -103.339670687999956, 20.765730262000034, 0.0 ], [ -103.33958023799994, 20.766921506000074, 0.0 ], [ -103.339628909999988, 20.767409291000035, 0.0 ], [ -103.339674440890633, 20.767694308282575, 0.0 ] ], [ [ -103.340356678349778, 20.770007809623628, 0.0 ], [ -103.340379768, 20.77012045400005, 0.0 ], [ -103.34032444714731, 20.770272219223859, 0.0 ] ], [ [ -103.339899084415222, 20.770963601586214, 0.0 ], [ -103.339839317999974, 20.771039557000051, 0.0 ], [ -103.339715823209801, 20.771083520478879, 0.0 ] ], [ [ -103.337924332768964, 20.771439120078998, 0.0 ], [ -103.337729243999945, 20.77153273700003, 0.0 ], [ -103.33747133199995, 20.771793010000067, 0.0 ], [ -103.337240636, 20.772095210000032, 0.0 ], [ -103.337181511999972, 20.772539061000032, 0.0 ], [ -103.33721449899997, 20.772919050000041, 0.0 ], [ -103.337330333999944, 20.773145765000038, 0.0 ], [ -103.337457161999964, 20.773384546000045, 0.0 ], [ -103.337750211871821, 20.773651363665159, 0.0 ] ], [ [ -103.338401831175133, 20.774103175593073, 0.0 ], [ -103.338630836, 20.774190715000032, 0.0 ], [ -103.338926928999967, 20.774374709000028, 0.0 ], [ -103.339207072999955, 20.774542438000026, 0.0 ], [ -103.339407885999947, 20.774980119000077, 0.0 ], [ -103.33966406199994, 20.775925714000039, 0.0 ], [ -103.339877050999974, 20.776375009000049, 0.0 ], [ -103.340067076999958, 20.776531255000066, 0.0 ], [ -103.340424625999958, 20.776750526000058, 0.0 ], [ -103.340917446999981, 20.77690446500003, 0.0 ], [ -103.341571233999957, 20.77713787600004, 0.0 ], [ -103.341959060999955, 20.777542766000067, 0.0 ], [ -103.342256220999957, 20.777969308000024, 0.0 ], [ -103.342505411, 20.779030207000062, 0.0 ], [ -103.342737089999957, 20.779450497000028, 0.0 ], [ -103.343288444999985, 20.779944906000026, 0.0 ], [ -103.343767192999962, 20.780506249000041, 0.0 ], [ -103.343929024999966, 20.780939783000065, 0.0 ], [ -103.34396589, 20.78164666300006, 0.0 ], [ -103.343803138999988, 20.782239548000064, 0.0 ], [ -103.343844471999944, 20.782574457000067, 0.0 ], [ -103.343977848103236, 20.782887327526641, 0.0 ] ], [ [ -103.352681404312861, 20.789602577765386, 0.0 ], [ -103.351321754999958, 20.790250144000026, 0.0 ], [ -103.350122260999967, 20.790917977000049, 0.0 ], [ -103.348283786999957, 20.791871133000029, 0.0 ], [ -103.346945603999984, 20.792599189000043, 0.0 ], [ -103.346493139720309, 20.792913189127365, 0.0 ] ] ] } },
{ "type": "Feature", "properties": { "OID_": 0, "NAME": "Derrotero Vuelta Ruta 165", "FOLDERPATH": "Tesis/Rutas/Servicios y Transportes/Ruta 165", "SYMBOLID": 9, "ALTITUDEMO": 0, "CLAMPED": -1, "EXTRUDED": 0, "SNIPPET": null, "POPUPINFO": null, "SHAPE_LENG": 0.214022134112, "OID": 204 }, "geometry": { "type": "MultiLineString", "coordinates": [ [ [ -103.339743720200772, 20.766313857991975, 0.0 ], [ -103.339720817999989, 20.766618767000068, 0.0 ], [ -103.339701654999942, 20.767328282000051, 0.0 ], [ -103.339826556999981, 20.768082788000072, 0.0 ], [ -103.340218320999952, 20.769168956000044, 0.0 ], [ -103.340362465999988, 20.769561907000025, 0.0 ], [ -103.340452549999952, 20.769924382000056, 0.0 ], [ -103.340420690999963, 20.770279410000057, 0.0 ], [ -103.340266539999959, 20.770679168000072, 0.0 ], [ -103.340073463999943, 20.770989201000077, 0.0 ], [ -103.339662238999949, 20.771276987000078, 0.0 ], [ -103.339227317999985, 20.771408433000033, 0.0 ], [ -103.338694659999987, 20.771393810000063, 0.0 ], [ -103.338246548999962, 20.77140567500004, 0.0 ], [ -103.337816158999942, 20.771587186000033, 0.0 ], [ -103.337504616999979, 20.771911897000052, 0.0 ], [ -103.337304134999954, 20.772337314000026, 0.0 ], [ -103.337295121999944, 20.772802230000025, 0.0 ], [ -103.337509885999964, 20.773284681000064, 0.0 ], [ -103.337791865999975, 20.773522602000071, 0.0 ], [ -103.338177367999947, 20.773789618000023, 0.0 ], [ -103.338649216999954, 20.774094253000044, 0.0 ], [ -103.338672052999982, 20.774191668000071, 0.0 ], [ -103.338926928999967, 20.774374709000028, 0.0 ], [ -103.339207072999955, 20.774542438000026, 0.0 ], [ -103.339407885999947, 20.774980119000077, 0.0 ], [ -103.33966406199994, 20.775925714000039, 0.0 ], [ -103.339877050999974, 20.776375009000049, 0.0 ], [ -103.340067076999958, 20.776531255000066, 0.0 ], [ -103.340424625999958, 20.776750526000058, 0.0 ], [ -103.340917446999981, 20.77690446500003, 0.0 ], [ -103.341571233999957, 20.77713787600004, 0.0 ], [ -103.341959060999955, 20.777542766000067, 0.0 ], [ -103.342256220999957, 20.777969308000024, 0.0 ], [ -103.342505411, 20.779030207000062, 0.0 ], [ -103.342737089999957, 20.779450497000028, 0.0 ], [ -103.343288444999985, 20.779944906000026, 0.0 ], [ -103.343767192999962, 20.780506249000041, 0.0 ], [ -103.343929024999966, 20.780939783000065, 0.0 ], [ -103.34396589, 20.78164666300006, 0.0 ], [ -103.343803138999988, 20.782239548000064, 0.0 ], [ -103.343844471999944, 20.782574457000067, 0.0 ], [ -103.343977848103236, 20.782887327526641, 0.0 ] ], [ [ -103.352681404312861, 20.789602577765386, 0.0 ], [ -103.351321754999958, 20.790250144000026, 0.0 ], [ -103.350122260999967, 20.790917977000049, 0.0 ], [ -103.348283786999957, 20.791871133000029, 0.0 ], [ -103.346945603999984, 20.792599189000043, 0.0 ], [ -103.346493139720309, 20.792913189127365, 0.0 ] ] ] } },
{ "type": "Feature", "properties": { "OID_": 0, "NAME": "Derrotero Regreso Ruta 39-A v1", "FOLDERPATH": "Tesis/Rutas/Alianza/Ruta 39-A", "SYMBOLID": 0, "ALTITUDEMO": -1, "CLAMPED": 0, "EXTRUDED": 0, "SNIPPET": null, "POPUPINFO": null, "SHAPE_LENG": 0.148640739366, "OID": 25 }, "geometry": { "type": "MultiLineString", "coordinates": [ [ [ -103.454, 20.7122, 0.0 ], [ -103.45347, 20.7121, 0.0 ], [ -103.45306, 20.71203, 0.0 ], [ -103.45326, 20.71107, 0.0 ], [ -103.45337, 20.70993, 0.0 ], [ -103.45343, 20.7094, 0.0 ], [ -103.45345, 20.70916, 0.0 ], [ -103.45347, 20.7089, 0.0 ], [ -103.45347, 20.70807, 0.0 ], [ -103.45347, 20.70797, 0.0 ], [ -103.45344, 20.70789, 0.0 ], [ -103.45271, 20.7078, 0.0 ], [ -103.45203, 20.70768, 0.0 ], [ -103.45153, 20.70758, 0.0 ], [ -103.45066, 20.7074, 0.0 ], [ -103.4509, 20.70651, 0.0 ], [ -103.45096, 20.70625, 0.0 ], [ -103.45098, 20.70603, 0.0 ], [ -103.45117, 20.70506, 0.0 ], [ -103.4512, 20.70494, 0.0 ], [ -103.45125, 20.70466, 0.0 ], [ -103.45136, 20.70411, 0.0 ], [ -103.451635388999989, 20.70273704300007, 0.0 ], [ -103.451916729999937, 20.700770504000047, 0.0 ], [ -103.451968444999977, 20.700181433000068, 0.0 ], [ -103.452033259999951, 20.699862454000026, 0.0 ], [ -103.453826491999962, 20.69752731400007, 0.0 ], [ -103.453905427999985, 20.69731936900007, 0.0 ], [ -103.455104227582567, 20.695840552709473, 0.0 ] ], [ [ -103.455104227582567, 20.695840552709473, 0.0 ], [ -103.455115334056643, 20.695826851974978, 0.0 ] ], [ [ -103.45526409445408, 20.695994410041621, 0.0 ], [ -103.455204977999983, 20.695959638000033, 0.0 ], [ -103.455104227582567, 20.695840552709473, 0.0 ] ], [ [ -103.455104227582567, 20.695840552709473, 0.0 ], [ -103.455050811408725, 20.695777415694799, 0.0 ] ] ] } },
{ "type": "Feature", "properties": { "OID_": 0, "NAME": "Derrotero Regreso Pre-tren", "FOLDERPATH": "Tesis/Rutas/Siteur/Pre-Tren", "SYMBOLID": 11, "ALTITUDEMO": 0, "CLAMPED": -1, "EXTRUDED": 0, "SNIPPET": null, "POPUPINFO": null, "SHAPE_LENG": 0.12526449379, "OID": 236 }, "geometry": { "type": "MultiLineString", "coordinates": [ [ [ -103.460443920999978, 20.703018276000023, 0.0 ], [ -103.460365467999964, 20.702701258000047, 0.0 ], [ -103.460150318999979, 20.702640421000069, 0.0 ], [ -103.460299909999947, 20.702189115000067, 0.0 ], [ -103.460488756999951, 20.701939001000028, 0.0 ], [ -103.460468732743195, 20.701913154907853, 0.0 ] ], [ [ -103.457537006150503, 20.698607473154215, 0.0 ], [ -103.457409626999947, 20.698471477000055, 0.0 ], [ -103.45512327299997, 20.695840529000066, 0.0 ], [ -103.455059932225737, 20.695766942862274, 0.0 ] ] ] } },
{ "type": "Feature", "properties": { "OID_": 0, "NAME": "Derrotero Ida Pre-Tren", "FOLDERPATH": "Tesis/Rutas/Siteur/Pre-Tren", "SYMBOLID": 10, "ALTITUDEMO": 0, "CLAMPED": -1, "EXTRUDED": 0, "SNIPPET": null, "POPUPINFO": null, "SHAPE_LENG": 0.116230737574, "OID": 235 }, "geometry": { "type": "LineString", "coordinates": [ [ -103.454937680044566, 20.695907316977632, 0.0 ], [ -103.455025074, 20.696005078000042, 0.0 ], [ -103.456929398999989, 20.698143877000064, 0.0 ], [ -103.458320474999937, 20.699758013000064, 0.0 ], [ -103.458400189999963, 20.699912594000068, 0.0 ], [ -103.460073186999978, 20.701847258000043, 0.0 ], [ -103.46047839299996, 20.702306345000068, 0.0 ], [ -103.460619378, 20.702512428000034, 0.0 ], [ -103.460448344999975, 20.703010824000046, 0.0 ] ] } },
{ "type": "Feature", "properties": { "OID_": 0, "NAME": "Derrotero Regreso Ruta 39-A v2", "FOLDERPATH": "Tesis/Rutas/Alianza/Ruta 39-A", "SYMBOLID": 0, "ALTITUDEMO": -1, "CLAMPED": 0, "EXTRUDED": 0, "SNIPPET": null, "POPUPINFO": null, "SHAPE_LENG": 0.14999961321800001, "OID": 23 }, "geometry": { "type": "MultiLineString", "coordinates": [ [ [ -103.454, 20.7122, 0.0 ], [ -103.45347, 20.7121, 0.0 ], [ -103.45306, 20.71203, 0.0 ], [ -103.45326, 20.71107, 0.0 ], [ -103.45337, 20.70993, 0.0 ], [ -103.45343, 20.7094, 0.0 ], [ -103.45345, 20.70916, 0.0 ], [ -103.45347, 20.7089, 0.0 ], [ -103.45347, 20.70807, 0.0 ], [ -103.453454837999971, 20.707965598000044, 0.0 ], [ -103.453526111999963, 20.70795905500006, 0.0 ], [ -103.455085875999941, 20.708119372000056, 0.0 ], [ -103.455803748999983, 20.708153289000052, 0.0 ], [ -103.458292312999959, 20.708647043000042, 0.0 ], [ -103.460280021999949, 20.702204952000045, 0.0 ], [ -103.460439559999941, 20.702009755000063, 0.0 ], [ -103.4604184815053, 20.7019854785052, 0.0 ] ], [ [ -103.460408929177405, 20.70197447691125, 0.0 ], [ -103.457544832999986, 20.698675844000036, 0.0 ], [ -103.455055086591074, 20.69577250678492, 0.0 ] ] ] } },
{ "type": "Feature", "properties": { "OID_": 0, "NAME": "Derrotero Ida Ruta 39-A v1", "FOLDERPATH": "Tesis/Rutas/Alianza/Ruta 39-A", "SYMBOLID": 1, "ALTITUDEMO": 0, "CLAMPED": -1, "EXTRUDED": 0, "SNIPPET": null, "POPUPINFO": null, "SHAPE_LENG": 0.13914981130699999, "OID": 26 }, "geometry": { "type": "LineString", "coordinates": [ [ -103.451935469267852, 20.699659278697787, 0.0 ], [ -103.452100228999939, 20.699772044000042, 0.0 ], [ -103.451781749999952, 20.701750140000058, 0.0 ], [ -103.451690366999969, 20.702567252000051, 0.0 ], [ -103.450993076999964, 20.706009886000061, 0.0 ], [ -103.450667341999974, 20.707377471000029, 0.0 ], [ -103.45335735599997, 20.707896998000024, 0.0 ], [ -103.453444565999973, 20.707937793000042, 0.0 ], [ -103.454748234999954, 20.708090792000064, 0.0 ], [ -103.454394423999986, 20.710336853000058, 0.0 ], [ -103.454006481999954, 20.71218893300005, 0.0 ] ] } },
{ "type": "Feature", "properties": { "OID_": 0, "NAME": "Derrotero Ida Ruta 39-A v2", "FOLDERPATH": "Tesis/Rutas/Alianza/Ruta 39-A", "SYMBOLID": 1, "ALTITUDEMO": 0, "CLAMPED": -1, "EXTRUDED": 0, "SNIPPET": null, "POPUPINFO": null, "SHAPE_LENG": 0.14161603293399999, "OID": 24 }, "geometry": { "type": "LineString", "coordinates": [ [ -103.454933807770217, 20.695911763254827, 0.0 ], [ -103.45532058699996, 20.69632383000004, 0.0 ], [ -103.456394758999977, 20.697540334000053, 0.0 ], [ -103.458522261999974, 20.700007752000033, 0.0 ], [ -103.460290953999959, 20.702118347000066, 0.0 ], [ -103.459196498999972, 20.705676940000046, 0.0 ], [ -103.458290010999974, 20.708683921000045, 0.0 ], [ -103.455954522999946, 20.708153323000033, 0.0 ], [ -103.454833126999972, 20.70809855300007, 0.0 ], [ -103.454725432999965, 20.708099008000033, 0.0 ], [ -103.454394423999986, 20.710336853000058, 0.0 ], [ -103.454006481999954, 20.71218893300005, 0.0 ] ] } },
{ "type": "Feature", "properties": { "OID_": 0, "NAME": "Derrotero Vuelta Ruta 629 B v2", "FOLDERPATH": "Tesis/Rutas/Sistecozome/Sistecozome subrogado/Ruta 629 B v2", "SYMBOLID": 26, "ALTITUDEMO": -1, "CLAMPED": 0, "EXTRUDED": 0, "SNIPPET": null, "POPUPINFO": null, "SHAPE_LENG": 0.21835827250500001, "OID": 434 }, "geometry": { "type": "LineString", "coordinates": [ [ -103.454481565727932, 20.721285591260482, 0.0 ], [ -103.45479, 20.72026, 0.0 ], [ -103.45679, 20.71364, 0.0 ], [ -103.45698, 20.71302, 0.0 ], [ -103.45636, 20.71284, 0.0 ], [ -103.45582, 20.71267, 0.0 ], [ -103.45504, 20.71241, 0.0 ], [ -103.45481, 20.71236, 0.0 ], [ -103.454, 20.7122, 0.0 ], [ -103.4541, 20.71171, 0.0 ], [ -103.45424, 20.71121, 0.0 ], [ -103.45445, 20.71014, 0.0 ], [ -103.45459, 20.70928, 0.0 ], [ -103.45478, 20.70813, 0.0 ], [ -103.45511, 20.70817, 0.0 ], [ -103.45541, 20.70817, 0.0 ], [ -103.4556, 20.70818, 0.0 ], [ -103.45592, 20.7082, 0.0 ], [ -103.45618, 20.70824, 0.0 ], [ -103.45674, 20.70836, 0.0 ], [ -103.45682, 20.70838, 0.0 ], [ -103.45689, 20.70839, 0.0 ], [ -103.45755, 20.70852, 0.0 ], [ -103.4583, 20.70863, 0.0 ], [ -103.4592, 20.70568, 0.0 ], [ -103.46035, 20.702, 0.0 ], [ -103.45707, 20.69818, 0.0 ], [ -103.45504, 20.69584, 0.0 ], [ -103.455018298836407, 20.695814747736915, 0.0 ] ] } },
{ "type": "Feature", "properties": { "OID_": 0, "NAME": "Derrotero Ida Ruta 629 B V1", "FOLDERPATH": "Tesis/Rutas/Sistecozome/Sistecozome subrogado/Ruta 629 B V1", "SYMBOLID": 25, "ALTITUDEMO": 0, "CLAMPED": -1, "EXTRUDED": 0, "SNIPPET": null, "POPUPINFO": null, "SHAPE_LENG": 0.212731072577, "OID": 432 }, "geometry": { "type": "MultiLineString", "coordinates": [ [ [ -103.45447557109371, 20.721284256716316, 0.0 ], [ -103.45963311099996, 20.70429871400006, 0.0 ], [ -103.460347423999963, 20.702102882000077, 0.0 ], [ -103.460465071999977, 20.701992481000048, 0.0 ], [ -103.460436490029139, 20.701959559915291, 0.0 ] ], [ [ -103.459082178240038, 20.700399646029091, 0.0 ], [ -103.455277069999966, 20.696016873000076, 0.0 ], [ -103.455057845374967, 20.695769339055346, 0.0 ] ] ] } },
{ "type": "Feature", "properties": { "OID_": 0, "NAME": "Derrotero Ida Ruta 629 B v2", "FOLDERPATH": "Tesis/Rutas/Sistecozome/Sistecozome subrogado/Ruta 629 B v2", "SYMBOLID": 25, "ALTITUDEMO": -1, "CLAMPED": 0, "EXTRUDED": 0, "SNIPPET": null, "POPUPINFO": null, "SHAPE_LENG": 0.214284899231, "OID": 433 }, "geometry": { "type": "LineString", "coordinates": [ [ -103.455018298836407, 20.695814747736915, 0.0 ], [ -103.45504, 20.69584, 0.0 ], [ -103.45707, 20.69818, 0.0 ], [ -103.46035, 20.702, 0.0 ], [ -103.4592, 20.70568, 0.0 ], [ -103.4583, 20.70863, 0.0 ], [ -103.45755, 20.70852, 0.0 ], [ -103.45689, 20.70839, 0.0 ], [ -103.45682, 20.70838, 0.0 ], [ -103.45674, 20.70836, 0.0 ], [ -103.45618, 20.70824, 0.0 ], [ -103.45592, 20.7082, 0.0 ], [ -103.4556, 20.70818, 0.0 ], [ -103.45541, 20.70817, 0.0 ], [ -103.45511, 20.70817, 0.0 ], [ -103.45478, 20.70813, 0.0 ], [ -103.45391, 20.70803, 0.0 ], [ -103.45347, 20.70797, 0.0 ], [ -103.45347, 20.70807, 0.0 ], [ -103.45347, 20.7089, 0.0 ], [ -103.45345, 20.70916, 0.0 ], [ -103.45343, 20.7094, 0.0 ], [ -103.45337, 20.70993, 0.0 ], [ -103.45326, 20.71107, 0.0 ], [ -103.45306, 20.71203, 0.0 ], [ -103.45347, 20.7121, 0.0 ], [ -103.454, 20.7122, 0.0 ], [ -103.45481, 20.71236, 0.0 ], [ -103.45504, 20.71241, 0.0 ], [ -103.45582, 20.71267, 0.0 ], [ -103.45636, 20.71284, 0.0 ], [ -103.45698, 20.71302, 0.0 ], [ -103.45679, 20.71364, 0.0 ], [ -103.45479, 20.72026, 0.0 ], [ -103.454481565727932, 20.721285591260482, 0.0 ] ] } },
{ "type": "Feature", "properties": { "OID_": 0, "NAME": "Derrotero Vuelta Ruta 629 B V1", "FOLDERPATH": "Tesis/Rutas/Sistecozome/Sistecozome subrogado/Ruta 629 B V1", "SYMBOLID": 26, "ALTITUDEMO": 0, "CLAMPED": -1, "EXTRUDED": 0, "SNIPPET": null, "POPUPINFO": null, "SHAPE_LENG": 0.205719934105, "OID": 431 }, "geometry": { "type": "LineString", "coordinates": [ [ -103.454928226079133, 20.695918172342513, 0.0 ], [ -103.455137644, 20.696163292000051, 0.0 ], [ -103.457200224999951, 20.698452222000071, 0.0 ], [ -103.459787797, 20.701414674000034, 0.0 ], [ -103.460371363999968, 20.702106858000036, 0.0 ], [ -103.459963050999988, 20.70317839300003, 0.0 ], [ -103.459223598999984, 20.705602033000048, 0.0 ], [ -103.457931791999954, 20.70984209900007, 0.0 ], [ -103.45708220299997, 20.712657576000026, 0.0 ], [ -103.456149264999965, 20.715709007000044, 0.0 ], [ -103.455418670229434, 20.718117382293364, 0.0 ] ] } },
{ "type": "Feature", "properties": { "OID_": 0, "NAME": "Derrotero Ida Ruta 629 B-PRIM", "FOLDERPATH": "Tesis/Rutas/Sistecozome/Sistecozome subrogado/Ruta 629 B PRIM", "SYMBOLID": 25, "ALTITUDEMO": 0, "CLAMPED": -1, "EXTRUDED": 0, "SNIPPET": null, "POPUPINFO": null, "SHAPE_LENG": 0.251882492668, "OID": 436 }, "geometry": { "type": "MultiLineString", "coordinates": [ [ [ -103.472029515742719, 20.714607835523143, 0.0 ], [ -103.470947007999939, 20.714008837000051, 0.0 ], [ -103.47045296999994, 20.713541890000045, 0.0 ], [ -103.46884182499997, 20.71165783400005, 0.0 ], [ -103.465300103999937, 20.707567432000076, 0.0 ], [ -103.463271904999942, 20.705258392000076, 0.0 ], [ -103.460976462999952, 20.702626471000031, 0.0 ], [ -103.460419583160046, 20.701983892959493, 0.0 ] ], [ [ -103.460321978333496, 20.701871267732834, 0.0 ], [ -103.458142235999958, 20.699356085000034, 0.0 ], [ -103.455277069999966, 20.696016873000076, 0.0 ], [ -103.455057845374967, 20.695769339055346, 0.0 ] ] ] } },
{ "type": "Feature", "properties": { "OID_": 0, "NAME": "Derrotero Vuelta Ruta 629 B", "FOLDERPATH": "Tesis/Rutas/Sistecozome/Sistecozome subrogado/Ruta 629 B", "SYMBOLID": 26, "ALTITUDEMO": -1, "CLAMPED": 0, "EXTRUDED": 0, "SNIPPET": null, "POPUPINFO": null, "SHAPE_LENG": 0.25104073467100002, "OID": 430 }, "geometry": { "type": "LineString", "coordinates": [ [ -103.471977900232332, 20.714655835743745, 0.0 ], [ -103.471, 20.71412, 0.0 ], [ -103.47069, 20.71386, 0.0 ], [ -103.4693, 20.71228, 0.0 ], [ -103.46264, 20.7046, 0.0 ], [ -103.46035, 20.702, 0.0 ], [ -103.45707, 20.69818, 0.0 ], [ -103.45504, 20.69584, 0.0 ], [ -103.455018298836407, 20.695814747736915, 0.0 ] ] } },
{ "type": "Feature", "properties": { "OID_": 0, "NAME": "Derrotero Vuelta Ruta 629 B-PRIM", "FOLDERPATH": "Tesis/Rutas/Sistecozome/Sistecozome subrogado/Ruta 629 B PRIM", "SYMBOLID": 26, "ALTITUDEMO": 0, "CLAMPED": -1, "EXTRUDED": 0, "SNIPPET": null, "POPUPINFO": null, "SHAPE_LENG": 0.24509044554000001, "OID": 435 }, "geometry": { "type": "MultiLineString", "coordinates": [ [ [ -103.454928226079133, 20.695918172342513, 0.0 ], [ -103.455137644, 20.696163292000051, 0.0 ], [ -103.457200224999951, 20.698452222000071, 0.0 ], [ -103.459787797, 20.701414674000034, 0.0 ], [ -103.462550176999969, 20.704656890000024, 0.0 ], [ -103.464446762999955, 20.70686149900007, 0.0 ], [ -103.467221355, 20.710077827000077, 0.0 ], [ -103.470649368999943, 20.713993342000038, 0.0 ], [ -103.470910377999985, 20.714216645000022, 0.0 ], [ -103.471885915442655, 20.714741377588499, 0.0 ] ], [ [ -103.47214799017803, 20.71488234517032, 0.0 ], [ -103.473965674714222, 20.715860060909353, 0.0 ] ] ] } },
{ "type": "Feature", "properties": { "OID_": 0, "NAME": "Derrotero Ida Ruta 629 B", "FOLDERPATH": "Tesis/Rutas/Sistecozome/Sistecozome subrogado/Ruta 629 B", "SYMBOLID": 25, "ALTITUDEMO": -1, "CLAMPED": 0, "EXTRUDED": 0, "SNIPPET": null, "POPUPINFO": null, "SHAPE_LENG": 0.28352391725800002, "OID": 429 }, "geometry": { "type": "LineString", "coordinates": [ [ -103.455018298836407, 20.695814747736915, 0.0 ], [ -103.45504, 20.69584, 0.0 ], [ -103.45707, 20.69818, 0.0 ], [ -103.46035, 20.702, 0.0 ], [ -103.46264, 20.7046, 0.0 ], [ -103.4693, 20.71228, 0.0 ], [ -103.47069, 20.71386, 0.0 ], [ -103.471, 20.71412, 0.0 ], [ -103.471977900232332, 20.714655835743745, 0.0 ] ] } },
{ "type": "Feature", "properties": { "OID_": 0, "NAME": "Derrotero Vuelta Ruta 170 B", "FOLDERPATH": "Tesis/Rutas/Servicios y Transportes/Ruta 170 B", "SYMBOLID": 9, "ALTITUDEMO": 0, "CLAMPED": -1, "EXTRUDED": 0, "SNIPPET": null, "POPUPINFO": null, "SHAPE_LENG": 0.24305273026800001, "OID": 208 }, "geometry": { "type": "LineString", "coordinates": [ [ -103.517430690850631, 20.76305532825149, 0.0 ], [ -103.517490882999937, 20.763178666000044, 0.0 ], [ -103.518298431999938, 20.763643425000055, 0.0 ], [ -103.520419727999979, 20.764527714000053, 0.0 ], [ -103.522589118999974, 20.765273055000023, 0.0 ], [ -103.523233090999952, 20.765600100000029, 0.0 ], [ -103.523300770999981, 20.765668941000058, 0.0 ], [ -103.523663007999971, 20.765186330000063, 0.0 ], [ -103.524517716, 20.764108146000069, 0.0 ], [ -103.525687215999938, 20.762577690000057, 0.0 ], [ -103.526533779999966, 20.761529799000073, 0.0 ], [ -103.526922358351271, 20.761164874839732, 0.0 ] ] } },
{ "type": "Feature", "properties": { "OID_": 0, "NAME": "Derrotero Ida Ruta 170 B", "FOLDERPATH": "Tesis/Rutas/Servicios y Transportes/Ruta 170 B", "SYMBOLID": 8, "ALTITUDEMO": 0, "CLAMPED": -1, "EXTRUDED": 0, "SNIPPET": null, "POPUPINFO": null, "SHAPE_LENG": 0.24499794523400001, "OID": 207 }, "geometry": { "type": "LineString", "coordinates": [ [ -103.517430690850631, 20.76305532825149, 0.0 ], [ -103.517490882999937, 20.763178666000044, 0.0 ], [ -103.518298431999938, 20.763643425000055, 0.0 ], [ -103.520419727999979, 20.764527714000053, 0.0 ], [ -103.522589118999974, 20.765273055000023, 0.0 ], [ -103.523233090999952, 20.765600100000029, 0.0 ], [ -103.523689120999961, 20.765852276000032, 0.0 ], [ -103.524478080999984, 20.766122506000045, 0.0 ], [ -103.526033420999966, 20.766251114000056, 0.0 ], [ -103.526316505999944, 20.764083313000071, 0.0 ], [ -103.52691540099994, 20.761472265000066, 0.0 ], [ -103.526966380635955, 20.761181144064075, 0.0 ] ] } }
]
}
